Shooting range ID,Name,Street address,State,City,Zip code,Phone number,NSSF Member,Facility Details,Services,Shooting Available,Distance,Competition,Website
10800,Nardis Gun Club at Rolling Oaks,6711 NE Loop 1604,TX,San Antonio,78247,(210) 651-0909,NSSF,"['Public', 'Indoor', 'Commercial Range', 'Handicap accessible', 'Public Access', 'Memberships Available', 'Host Events Open To Public/Non-Members', 'Membership and Open to Public', 'Open to Public']","['Equipment Rentals', 'Food Service/Snacks', 'Instruction Available', 'Retail Store', ""Women's Programs"", 'Youth Programs']","['Handguns', 'Rifles']","['Handgun/Smallbore Rifle: 75 ft', 'Center-Fire Rifle: 75 ft']",[],http://www.nardisgunclub.com
7482,"Nardis Gun Club SA, L.L.C.",4818 Interstate 10 East,TX,San Antonio,78219,(210) 661-8300,NSSF,"['Public', 'Indoor', 'Commercial Range', ""Gun/Sportsman's Club"", 'Handicap accessible', 'Public Access', 'Memberships Available', 'Host Events Open To Public/Non-Members']","['Clubhouse/Lounge/Lodge', 'Food Service/Snacks', 'Instruction Available', 'Retail Store', ""Women's Programs""]","['Handguns', 'Rifles', 'Shotguns']","['Handgun/Smallbore Rifle: 75 ft', 'Center-Fire Rifle: 75 ft']",[],http://www.nardisgunclub.com/
8883,Nardis Gun Club at Alamo Ranch,4215 W Loop 1604 N,TX,San Antonio,78253,210-369-9199,NSSF,"['Public', 'Indoor', 'Commercial Range', 'Handicap accessible', 'Public Access', 'Memberships Available', 'Host Events Open To Public/Non-Members']","['Clubhouse/Lounge/Lodge', 'Equipment Rentals', 'Food Service/Snacks', 'Instruction Available', 'Retail Store', ""Women's Programs""]","['Handguns', 'Rifles']","['Handgun/Smallbore Rifle: 75 ft', 'Center-Fire Rifle: 75 ft']",[],http://www.nardisgunclub.com
8640,Saddle River Range,4280 FM 1488,TX,Conroe,77384,(936) 271-2620,NSSF,"['Public', 'Indoor', 'Commercial Range', ""Gun/Sportsman's Club"", 'Handicap accessible', 'Public Access', 'Memberships Available', 'Host Events Open To Public/Non-Members']","['Clubhouse/Lounge/Lodge', 'Equipment Rentals', 'Food Service/Snacks', 'Instruction Available', 'Junior Rifle', 'Retail Store', ""Women's Programs"", 'Youth Programs']","['Handguns', 'Rifles', 'Shotguns', 'Archery Indoor']",[],"['3D Archery', 'Practical/Action Pistol', 'Precision Pistol']",http://www.saddleriverrange.com
11456,"Red's Indoor Range North, Inc.",1908 W Pecan St,TX,Pflugerville,78660-3540,(512) 251-1022,NSSF,"['Public', 'Indoor', 'Commercial Range', 'Handicap accessible', 'Public Access', 'Memberships Available', 'Host Events Open To Public/Non-Members']","['Equipment Rentals', 'Hunter Education', 'Instruction Available', 'Retail Store', ""Women's Programs""]","['Handguns', 'Rifles']","['Handgun/Smallbore Rifle: 50 yd/mtr', 'Center-Fire Rifle: 100 yd/mtr']",[],http://www.redsguns.com
10628,Range USA - Round Rock,1775 Warner Ranch Drive,TX,Round Rock,78664,(512) 758-4810,NSSF,"['Public', 'Indoor', 'Handicap accessible', 'Public Access', 'Memberships Available', 'Host Events Open To Public/Non-Members']","['Equipment Rentals', 'Instruction Available', 'Retail Store', ""Women's Programs"", 'Youth Programs']","['Handguns', 'Rifles']","['Handgun/Smallbore Rifle: 75 ft', 'Center-Fire Rifle: 75 ft']",[],https://rangeusa.com/
2900,Eagle Peak Shooting Range,20026 Lindeman Ln,TX,Leander,78641-8191,(512) 267-1400,NSSF,"['Public', 'Outdoor', ""Gun/Sportsman's Club"", 'Handicap accessible', 'Memberships Available']","['Equipment Rentals', 'Instruction Available', 'Retail Store']","['Rifles', 'Shotguns']",['Center-Fire Rifle: 300 yd/mtr'],[],http://www.eaglepeakshootingrange.com/welcome.htm
6672,Lonestar Range & Academy LLC,"10,000 N US Hwy 183",TX,Florence,76527,(512) 516-7640,NSSF,"['Public', 'Outdoor', ""Gun/Sportsman's Club"", 'Handicap accessible', 'Public Access', 'Host Events Open To Public/Non-Members']","['Food Service/Snacks', 'Instruction Available', ""Women's Programs"", 'Youth Programs']","['Rifles', 'Shotguns', 'Archery Outdoor Field']",['Center-Fire Rifle: 100 yd/mtr'],[],http://www.lonestarrangeacademy.com
6104,KR Training,1166 County Road 145,TX,Lincoln,78948,(512) 633-8232,NSSF,"['Private', 'Outdoor', 'Commercial Range', 'Handicap accessible', 'Host Events Open To Public/Non-Members']","['Clubhouse/Lounge/Lodge', 'Equipment Rentals', 'Hunter Education', 'Instruction Available', 'Picnic Area', ""Women's Programs""]","['Handguns', 'Rifles', 'Shotguns']","['Handgun/Smallbore Rifle: 50 yd/mtr', 'Center-Fire Rifle: 50 yd/mtr']",['Practical/Action Pistol'],http://www.krtraining.com
7653,McQueeney Gun Club,5900 FM 725,TX,New Braunfels,78130,(210) 241-6647,NSSF,"['Public', 'Indoor', 'Commercial Range', 'Public Access']",[],[],[],[],http://www.mcqueeneygunclub.com/
4284,Bracken Rifle and Pistol Range,19280 Marbach Lane,TX,San Antonio,78266,(210) 651-9009,NSSF,"['Public', 'Outdoor', 'Commercial Range', 'Handicap accessible', 'Memberships Available']",['Instruction Available'],"['Handguns', 'Rifles', 'Shotguns']","['Handgun/Smallbore Rifle: 50 yd/mtr', 'Center-Fire Rifle: 100 yd/mtr']",[],http://www.brackenrange.com
10052,Buck & Doe's Mercantile,24250 US 281,TX,San Antonio,78258,830-980-3637,NSSF,"['Public', 'Indoor', 'Commercial Range', 'Handicap accessible', 'Public Access', 'Memberships Available', 'Host Events Open To Public/Non-Members']","['Equipment Rentals', 'Hunter Education', 'Instruction Available', 'Junior Rifle', 'Picnic Area', 'Retail Store', ""Women's Programs"", 'Youth Programs']","['Handguns', 'Rifles', 'Archery Indoor']","['Handgun/Smallbore Rifle: 50 ft', 'Center-Fire Rifle: 50 ft']","['3D Archery', 'Handgun Metallic Silhouette', 'Hi-Power Rifle Matches', 'Precision Pistol']",http://www.buckdoes.com
1584,Bexar Community Shooting Range,15391 Bexar Bowling,TX,Marion,78124,(830) 914-2182,NSSF,"['Public', 'Outdoor', 'Commercial Range', 'Handicap accessible', 'Memberships Available']",[],['Shotguns'],[],"['Skeet Competition', 'Trap Competition']",#
6842,Bass Pro Shops,"17907 Interstate 10, West",TX,San Antonio,78257,(210) 253-8800,NSSF,"['Public', 'Indoor', 'Commercial Range', 'Memberships Available']",[],"['Handguns', 'Rifles', 'Archery Indoor']","['Handgun/Smallbore Rifle: 75 ft', 'Center-Fire Rifle: 75 ft']",[],http://www.basspro.com/webapp/wcs/stores/servlet/CFPageC?storeId=10151&catalogId=10001&langId=-1&appID=94&storeID=46
11706,Sheepdog Marksmanship Training,3501 County Road 213,TX,Jonesboro,76538,(512) 912-6412,NSSF,"['Private', 'Outdoor', 'Commercial Range', 'Public Access', 'Host Events Open To Public/Non-Members']","['Equipment Rentals', 'Hunter Education', 'Instruction Available']","['Handguns', 'Rifles']","['Handgun/Smallbore Rifle: 50 yd/mtr', 'Center-Fire Rifle: 100 yd/mtr']",[],http://www.sheepdogmarksmanship.com
11514,Republic Gun Club,19000 Woodway Drive,TX,Waco,76712,(254) 307-4867,NSSF,"['Public', 'Indoor', 'Commercial Range', 'Handicap accessible', 'Public Access', 'Memberships Available', 'Host Events Open To Public/Non-Members']","['Clubhouse/Lounge/Lodge', 'Equipment Rentals', 'Hunter Education', 'Instruction Available', 'Retail Store', ""Women's Programs"", 'Youth Programs']","['Handguns', 'Rifles']","['Handgun/Smallbore Rifle: 100 yd/mtr', 'Center-Fire Rifle: 100 yd/mtr']",[],http://www.republicgunclub.com
1789,Prairie Moon Ranch,8607 Wurzbach Bldg P Suite 101,TX,San Antonio,78240,(210) 573-8139,NSSF,"['Public', 'Outdoor', 'Commercial Range', 'Handicap accessible']","['Equipment Rentals', 'Instruction Available', 'Picnic Area']",['Shotguns'],[],[],#
11898,Heart of Texas Shooting Center,5040 Texas 340 Loop,TX,Robinson,76706,(254) 492-8300,NSSF,"['Public', 'Indoor', 'Commercial Range', 'Handicap accessible', 'Public Access', 'Memberships Available', 'Host Events Open To Public/Non-Members']","['Equipment Rentals', 'Food Service/Snacks', 'Hunter Education', 'Instruction Available', 'Junior Rifle', 'Retail Store', ""Women's Programs"", 'Youth Programs']","['Handguns', 'Rifles', 'Shotguns']","['Handgun/Smallbore Rifle: 75 ft', 'Center-Fire Rifle: 75 ft']","['Practical/Action Pistol', 'Precision Pistol', 'Rimfire Challenge', 'Smallbore']",http://www.hotshootingcenter.com
10702,Range USA - San Antonio,722 Southwest Loop 410,TX,San Antonio,78227,(210) 756-7998,NSSF,"['Public', 'Indoor', 'Commercial Range', 'Handicap accessible', 'Public Access', 'Memberships Available', 'Host Events Open To Public/Non-Members']","['Equipment Rentals', 'Instruction Available', 'Retail Store']","['Handguns', 'Rifles']","['Handgun/Smallbore Rifle: 75 ft', 'Center-Fire Rifle: 75 ft']",[],https://rangeusa.com/
11730,Apocalypse Tactical Range LLC,16680 Somerset Road,TX,Von Ormy,78073,(210) 421-9173,NSSF,"['Private', 'Outdoor', 'Commercial Range', 'Law enforcement', 'Municipal Facility', ""Gun/Sportsman's Club"", 'Military Facility', 'Hunting Preserve', 'Public Access', 'Members Only', 'Memberships Available', 'Host Events Open To Public/Non-Members']","['Instruction Available', 'Picnic Area', ""Women's Programs"", 'Youth Programs']","['Handguns', 'Rifles', 'Shotguns']","['Handgun/Smallbore Rifle: 100 yd/mtr', 'Center-Fire Rifle: 100 yd/mtr']",[],http://Www.apocalypsetacticalrange.com
6057,Texas Premier Sporting Arms,7311 Hwy 36 South,TX,Sealy,77474,(713) 826-1981,NSSF,"['Public', 'Outdoor', ""Gun/Sportsman's Club"", 'Handicap accessible', 'Public Access', 'Memberships Available', 'Host Events Open To Public/Non-Members']","['Clubhouse/Lounge/Lodge', 'Equipment Rentals', 'Picnic Area', ""Women's Programs"", 'Youth Programs']",['Shotguns'],[],"['Sporting Clays/FITASC', 'Trap Competition']",http://www.texaspremiersportingarms.com
6359,"Lone Star Weapons and Tactics, LLC",5419 FM 1343,TX,Devine,78016,(830) 665-4377,NSSF,"['Private', 'Outdoor', 'Law enforcement', 'Military Facility', 'Handicap accessible']","['Clubhouse/Lounge/Lodge', 'Equipment Rentals', 'Food Service/Snacks', 'Instruction Available', 'Picnic Area', 'Retail Store', ""Women's Programs"", 'Youth Programs']","['Handguns', 'Rifles', 'Shotguns', 'Archery Outdoor Field']","['Handgun/Smallbore Rifle: 300 yd/mtr', 'Center-Fire Rifle: 300 yd/mtr']","['Airgun', 'Cowboy Action Shooting']",http://www.LSWAT.com
7189,"Able's Sporting, Inc.",357 FM 1791 North,TX,Huntsville,77340,(936) 295-5786,NSSF,"['Public', 'Outdoor', 'Commercial Range', ""Gun/Sportsman's Club"", 'Public Access', 'Memberships Available']","['Retail Store', 'Youth Programs']","['Rifles', 'Shotguns']",['Center-Fire Rifle: 100 yd/mtr'],['Sporting Clays/FITASC'],http://www.ableammo.com
1746,American Shooting Centers,16500 Westheimer Parkway,TX,Houston,77082,(281) 556-8199,NSSF,"['Public', 'Outdoor', 'Commercial Range', 'Law enforcement', 'Military Facility', 'Handicap accessible', 'Memberships Available']","['Clubhouse/Lounge/Lodge', 'Equipment Rentals', 'Food Service/Snacks', 'Instruction Available', 'Picnic Area', 'Retail Store', ""Women's Programs"", 'Youth Programs']","['Handguns', 'Rifles', 'Shotguns', 'Archery Outdoor Field']","['Handgun/Smallbore Rifle: 100 yd/mtr', 'Center-Fire Rifle: 500 yd/mtr']","['Airgun', 'Bench Rest', 'Handgun Metallic Silhouette', 'Muzzle Loading Events', 'Practical/Action Pistol', 'Precision Pistol', 'Rifle Metallic Silhouette', 'Skeet Competition', 'Smallbore', 'Sporting Clays/FITASC', 'Trap Competition']",http://www.americanshootingcenters.com
10058,Range USA - Cypress,10310 Wortham Center Drive,TX,Houston,77065,(832) 460-1585,NSSF,"['Public', 'Indoor', 'Commercial Range', 'Handicap accessible', 'Public Access', 'Memberships Available', 'Host Events Open To Public/Non-Members']","['Clubhouse/Lounge/Lodge', 'Equipment Rentals', 'Instruction Available', 'Retail Store', ""Women's Programs""]","['Handguns', 'Rifles', 'Shotguns']",[],[],https://rangeusa.com/
6049,Blackwood Gun Club,11400 FM 2854,TX,Conroe,77304,(936) 441-4040,NSSF,"['Public', 'Outdoor', 'Commercial Range', ""Gun/Sportsman's Club"", 'Handicap accessible', 'Public Access', 'Memberships Available', 'Host Events Open To Public/Non-Members']","['Clubhouse/Lounge/Lodge', 'Equipment Rentals', 'Food Service/Snacks', 'Instruction Available', 'Picnic Area', 'Retail Store', ""Women's Programs"", 'Youth Programs']","['Handguns', 'Rifles', 'Shotguns']","['Handgun/Smallbore Rifle: 200 yd/mtr', 'Center-Fire Rifle: 200 yd/mtr']","['3 Gun/Multi Gun', 'Bench Rest', 'Practical/Action Pistol', 'Rimfire Challenge', 'Skeet Competition', 'Smallbore', 'Sporting Clays/FITASC']",http://www.BlackwoodGunClub.com
10581,7 Foxtrot LLC - Firearms Training Complex,2140 Farm to Market Road 1582,TX,Pearsall,78061,(210) 294-3949,NSSF,"['Private', 'Outdoor', 'Commercial Range', ""Gun/Sportsman's Club"", 'Handicap accessible', 'Members Only', 'Memberships Available', 'Host Events Open To Public/Non-Members']","['Instruction Available', 'Lodging Available', ""Women's Programs""]","['Handguns', 'Rifles', 'Shotguns']","['Handgun/Smallbore Rifle: 1000 yd/mtr', 'Center-Fire Rifle: 1000 yd/mtr']","['3 Gun/Multi Gun', 'Hi-Power Rifle Matches', 'Practical/Action Pistol']",https://7foxtrot.com/
9201,Spring Guns & Ammo,4401 Spring Cypress Rd,TX,Spring,77388,(281) 288-7000,NSSF,"['Public', 'Indoor', 'Commercial Range', 'Handicap accessible', 'Public Access', 'Memberships Available', 'Host Events Open To Public/Non-Members']","['Equipment Rentals', 'Instruction Available', 'Retail Store', ""Women's Programs""]","['Handguns', 'Rifles', 'Shotguns']","['Handgun/Smallbore Rifle: 75 ft', 'Center-Fire Rifle: 75 ft']","['Practical/Action Pistol', 'Rimfire Challenge']",http://www.springgunsandammo.com
7783,Athena Gun Club,10814 Katy Fwy,TX,Houston,77043-5007,(713) 461-5900,NSSF,"['Public', 'Indoor', 'Commercial Range', ""Gun/Sportsman's Club"", 'Handicap accessible', 'Public Access', 'Memberships Available']","['Clubhouse/Lounge/Lodge', 'Equipment Rentals', 'Food Service/Snacks', 'Instruction Available', 'Retail Store', ""Women's Programs"", 'Youth Programs']","['Handguns', 'Rifles']","['Handgun/Smallbore Rifle: 50 ft', 'Center-Fire Rifle: 50 ft']",[],http://www.athenagunclub.com
7761,Texas Gun Club,206 Brand Lane,TX,Stafford,77477,(832) 953-4486,NSSF,"['Public', 'Indoor', 'Commercial Range', ""Gun/Sportsman's Club"", 'Handicap accessible', 'Public Access', 'Memberships Available', 'Host Events Open To Public/Non-Members']","['Clubhouse/Lounge/Lodge', 'Equipment Rentals', 'Food Service/Snacks', 'Hunter Education', 'Instruction Available', 'Junior Rifle', 'Retail Store', ""Women's Programs"", 'Youth Programs']","['Handguns', 'Rifles', 'Shotguns']",['Handgun/Smallbore Rifle: 50 yd/mtr'],[],http://www.texasgunclub.com
11752,Range USA - Houston,9099 Westheimer Road,TX,Houston,77063,(832) 553-4550,NSSF,"['Public', 'Indoor', 'Commercial Range', 'Handicap accessible', 'Public Access', 'Memberships Available', 'Host Events Open To Public/Non-Members']","['Equipment Rentals', 'Instruction Available', 'Retail Store', ""Women's Programs""]","['Handguns', 'Rifles']","['Handgun/Smallbore Rifle: 75 ft', 'Center-Fire Rifle: 75 ft']",[],http://rangeusa.com
1568,"Carter's Shooting Center, Inc dba Carter's Country",6231 Treaschwig Rd,TX,Spring,77373-7698,(281) 443-8393,NSSF,"['Public', 'Outdoor', 'Commercial Range', 'Handicap accessible', 'Public Access', 'Memberships Available']","['Clubhouse/Lounge/Lodge', 'Equipment Rentals', 'Food Service/Snacks', 'Hunter Education', 'Instruction Available', 'Junior Rifle', 'Picnic Area', 'Retail Store', ""Women's Programs"", 'Youth Programs']","['Handguns', 'Rifles', 'Shotguns']","['Handgun/Smallbore Rifle: 100 yd/mtr', 'Center-Fire Rifle: 100 yd/mtr']",['Airgun'],http://www.carterscountry.com/
3513,Greater Houston Gun Club,6700 McHard Road,TX,Houston,77053,(281) 437-6025,NSSF,"['Private', 'Outdoor', 'Commercial Range', ""Gun/Sportsman's Club"", 'Handicap accessible', 'Memberships Available']","['Clubhouse/Lounge/Lodge', 'Instruction Available', 'Picnic Area', ""Women's Programs""]",['Shotguns'],[],[],http://www.greaterhoustongunclub.com
9194,Sportsmans Outlet Indoor Shooting Center,1710 FM 1960 Bypass East,TX,Humble,77386,(281) 540-1160,NSSF,"['Public', 'Indoor', 'Commercial Range', 'Law enforcement', 'Handicap accessible', 'Public Access', 'Host Events Open To Public/Non-Members']","['Instruction Available', ""Women's Programs"", 'Youth Programs']",[],"['Handgun/Smallbore Rifle: 75 ft', 'Center-Fire Rifle: 75 ft']",[],http://sportsmansoutlet.com
5448,Trinity Armory Inc,2152 County Road 388,TX,Cleveland,77328,(281) 659-2800,NSSF,"['Public', 'Indoor/Outdoor', 'Commercial Range', 'Law enforcement', ""Gun/Sportsman's Club"", 'Handicap accessible', 'Memberships Available', 'Host Events Open To Public/Non-Members']","['Equipment Rentals', 'Hunter Education', 'Instruction Available', 'Junior Rifle', 'Picnic Area', 'Retail Store', ""Women's Programs"", 'Youth Programs']","['Handguns', 'Rifles', 'Shotguns', 'Archery Outdoor Field']","['Handgun/Smallbore Rifle: 300 yd/mtr', 'Handgun/Smallbore Rifle: 75 ft', 'Center-Fire Rifle: 300 yd/mtr', 'Center-Fire Rifle: 75 ft']","['3 Gun/Multi Gun', 'Airgun', 'Cowboy Action Shooting', 'Handgun Metallic Silhouette', 'Hi-Power Rifle Matches', 'Practical/Action Pistol', 'Precision Pistol', 'Rifle Metallic Silhouette', 'Rimfire Challenge']",http://www.trinityarmoryinc.com
9212,Defender Outdoors Clay Sports Range,8270 Aledo Road,TX,Fort Worth,76126,(817) 935-8378,NSSF,"['Public', 'Outdoor', 'Commercial Range', ""Gun/Sportsman's Club"", 'Handicap accessible', 'Public Access', 'Memberships Available', 'Host Events Open To Public/Non-Members']","['Clubhouse/Lounge/Lodge', 'Equipment Rentals', 'Instruction Available', 'Picnic Area', 'Retail Store', ""Women's Programs"", 'Youth Programs']",['Shotguns'],[],['Sporting Clays/FITASC'],http://www.claysportsranch.com
11398,"Marksman Indoor Range, Inc",507 Nebraska Street,TX,South Houston,77587,(713) 944-3520,NSSF,"['Public', 'Indoor', 'Commercial Range', 'Law enforcement', 'Municipal Facility', 'Handicap accessible', 'Public Access', 'Memberships Available', 'Host Events Open To Public/Non-Members']","['Equipment Rentals', 'Instruction Available', 'Retail Store']",['Handguns'],['Handgun/Smallbore Rifle: 50 ft'],[],http://Marksmanrange.com
5440,Shady Oaks Gun Range,3100 Woodall Dr.,TX,Cedar Park,78613,(512) 394-7734,Non-NSSF,"['Public', 'Indoor', 'Commercial Range', 'Handicap accessible', 'Public Access', 'Memberships Available', 'Host Events Open To Public/Non-Members', 'Membership and Open to Public', 'Open to Public']","['Equipment Rentals', 'Hunter Education', 'Instruction Available', 'Junior Rifle', 'Retail Store', ""Women's Programs"", 'Youth Programs']","['Handguns', 'Rifles', 'Archery Outdoor Field']","['Handgun/Smallbore Rifle: 75 ft', 'Center-Fire Rifle: 75 ft']",[],http://www.shadyoaksgunrange.com
2056,Austin Skeet,2933 Pecan Springs Rd,TX,Austin,78723-4630,(512) 926-3363,Non-NSSF,"['Public', 'Outdoor', 'Commercial Range']","['Equipment Rentals', 'Instruction Available']",[],[],[],#
2901,Capitol City Trap & Skeet Club,8707 Lindell Ave,TX,Austin,78724,(512) 272-4707,Non-NSSF,"['Public', 'Outdoor', 'Commercial Range', ""Gun/Sportsman's Club""]","['Clubhouse/Lounge/Lodge', 'Instruction Available', 'Picnic Area']",['Shotguns'],[],[],http://www.capitolclays.com
6787,Capital City Trap & Skeet Gun Club Inc,9707 Lindell Ln,TX,Austin,78714,(512) 272-4707,Non-NSSF,"['Public', 'Outdoor', ""Gun/Sportsman's Club"", 'Handicap accessible', 'Public Access', 'Memberships Available']","['Clubhouse/Lounge/Lodge', 'Instruction Available']",['Shotguns'],[],"['Skeet Competition', 'Sporting Clays/FITASC', 'Trap Competition']",http://www.capitolclays.com/
4029,Fort Hood Skeet & Trap Club,53rd Street and North Avenue Bldg 1937,TX,Georgetown,78626-4540,(254) 532-2422,Non-NSSF,"['Public', 'Outdoor', 'Commercial Range']","['Camper/RV Sites', 'Food Service/Snacks', 'Lodging Available', 'Picnic Area', 'Youth Programs']",['Shotguns'],[],[],http://fthoodskeet.freewebpage.org/
2423,"Austin Rifle Club, Inc.",16312 Littig Road,TX,Manor,78653,(512) 837-3422,Non-NSSF,"['Private', 'Outdoor', ""Gun/Sportsman's Club"", 'Memberships Available']","['Clubhouse/Lounge/Lodge', 'Instruction Available', 'Junior Rifle', 'Picnic Area', 'Youth Programs']",[],[],"['Handgun Metallic Silhouette', 'Rifle Metallic Silhouette']",http://www.austinrifleclub.org
3525,Cypress Valley Preserve,6301 N Highway 183,TX,Liberty Hill,78642,(254) 793-3341,Non-NSSF,"['Private', 'Outdoor', ""Gun/Sportsman's Club"", 'Hunting Preserve', 'Handicap accessible', 'Public Access', 'Members Only', 'Memberships Available']","['Clubhouse/Lounge/Lodge', 'Equipment Rentals', 'Instruction Available', 'Picnic Area']",['Shotguns'],[],['Sporting Clays/FITASC'],http://www.cypressvalleypreserve.com
6240,Yankee Branch Skeet Club,3300 County Rd 329,TX,Granger,76530,(512) 423-3479,Non-NSSF,"['Public', 'Outdoor', ""Gun/Sportsman's Club""]",[],['Shotguns'],[],[],http://www.mynssa.com/Manager/club_details_print.aspx?c=16118
11515,Insight Range,422 County Road 407,TX,Spicewood,78669,(830) 360-1657,Non-NSSF,"['Private', 'Outdoor', 'Commercial Range', 'Law enforcement', 'Municipal Facility', 'Host Events Open To Public/Non-Members']","['Instruction Available', 'Picnic Area']","['Handguns', 'Rifles', 'Shotguns']","['Handgun/Smallbore Rifle: 50 yd/mtr', 'Center-Fire Rifle: 100 yd/mtr']","['3 Gun/Multi Gun', 'Bench Rest', 'Practical/Action Pistol', 'Precision Pistol', 'Rifle Metallic Silhouette']",http://InsightConsultingTX.com
11428,Copperhead Creek Shooting Club,6908 E FM 1431,TX,Marble Falls,78654,(830) 265-4950,Non-NSSF,"['Public', 'Outdoor', 'Commercial Range', 'Law enforcement', 'Municipal Facility', 'Handicap accessible', 'Public Access', 'Memberships Available', 'Host Events Open To Public/Non-Members']","['Camper/RV Sites', 'Clubhouse/Lounge/Lodge', 'Equipment Rentals', 'Food Service/Snacks', 'Hunter Education', 'Instruction Available', 'Lodging Available', 'Picnic Area', 'Retail Store', ""Women's Programs"", 'Youth Programs']","['Handguns', 'Rifles', 'Shotguns', 'Archery Outdoor Field']","['Handgun/Smallbore Rifle: 50 yd/mtr', 'Center-Fire Rifle: 100 yd/mtr']","['Smallbore', 'Sporting Clays/FITASC']",http://www.copperheadclub.com
9189,Jimmie's Gun Shop,568 Old Lexington Rd,TX,Elgin,78621,512-281-5775,Non-NSSF,"['Public', 'Outdoor', 'Handicap accessible', 'Public Access']","['Equipment Rentals', 'Food Service/Snacks', 'Instruction Available', 'Retail Store']",['Shotguns'],"['Handgun/Smallbore Rifle: 75 ft', 'Center-Fire Rifle: 100 yd/mtr']",[],http://jimmiesgunshop.com
5620,Krav K9 and Tactical,235 CR 238,TX,Bertram,78605,(512) 909-4642,Non-NSSF,"['Private', 'Outdoor', 'Law enforcement', ""Gun/Sportsman's Club"", 'Military Facility', 'Handicap accessible', 'Members Only', 'Memberships Available', 'Host Events Open To Public/Non-Members']","['Equipment Rentals', 'Instruction Available', 'Junior Rifle', 'Retail Store', ""Women's Programs"", 'Youth Programs']","['Handguns', 'Rifles', 'Shotguns', 'Archery Outdoor Field']","['Handgun/Smallbore Rifle: 50 yd/mtr', 'Center-Fire Rifle: 300 yd/mtr']","['3 Gun/Multi Gun', 'Airgun', 'Cowboy Action Shooting', 'Handgun Metallic Silhouette', 'Practical/Action Pistol', 'Precision Pistol', 'Rifle Metallic Silhouette', 'Smallbore']",http://training.kravk9.com
3925,Central Texas Shooting Reserve,651 Spur 619,TX,Elgin,78621,(512) 856-2200,Non-NSSF,"['Public', 'Outdoor', 'Hunting Preserve', 'Handicap accessible']","['Clubhouse/Lounge/Lodge', 'Picnic Area']",['Shotguns'],[],[],http://www.centxshoot.com
7332,El Rancho Escondido,2701 Lone Man Mountain Rd,TX,Driftwood,78619,(512) 923-2596,Non-NSSF,"['Private', 'Outdoor', 'Commercial Range']","['Hunter Education', 'Instruction Available', 'Youth Programs']",['Handguns'],['Handgun/Smallbore Rifle: 50 yd/mtr'],[],http://www.driftwoodchl.com
2899,Central Texas Benchrest Shooters-New Braunfels,302 Delaware Springs Blvd,TX,Burnet,78611-3516,(512) 756-1116,Non-NSSF,"['Public', 'Outdoor']",[],[],[],[],#
5025,Shiny Top Ranch,7702 Shiney Top Ranch Lane,TX,Salado,76571,(254) 718-8675,Non-NSSF,"['Public', 'Outdoor', 'Commercial Range', 'Public Access', 'Memberships Available', 'Host Events Open To Public/Non-Members']",['Clubhouse/Lounge/Lodge'],"['Handguns', 'Rifles', 'Shotguns']","['Handgun/Smallbore Rifle: 50 yd/mtr', 'Center-Fire Rifle: 100 yd/mtr']",[],http://www.shinytopranch.com
4392,Blanco County Sportsman`s Club,612 East Main St.,TX,Johnson City,78636,,Non-NSSF,"['Private', 'Outdoor', ""Gun/Sportsman's Club"", 'Members Only']",[],[],[],[],#
3924,Border South Consultants,1101 Leah Ave,TX,San Marcos,78666-7633,(512) 392-8748,Non-NSSF,"['Private', 'Outdoor', ""Gun/Sportsman's Club"", 'Members Only']",[],[],[],[],#
6786,Austin Gun Club,"2901 County Rd., 206",TX,Lampass,76550,(512) 755-2282,Non-NSSF,"['Private', 'Outdoor', ""Gun/Sportsman's Club"", 'Hunting Preserve', 'Handicap accessible', 'Members Only', 'Memberships Available', 'Host Events Open To Public/Non-Members']","['Camper/RV Sites', 'Clubhouse/Lounge/Lodge', 'Equipment Rentals', 'Food Service/Snacks', 'Hunter Education', 'Instruction Available', 'Lodging Available', 'Retail Store', ""Women's Programs"", 'Youth Programs']","['Handguns', 'Rifles', 'Shotguns']","['Handgun/Smallbore Rifle: 500 yd/mtr', 'Center-Fire Rifle: 500 yd/mtr']",[],http://www.austingunclub.com
10833,Sendero Shooting Sports,3360 W. US Hwy 190,TX,Belton,76513,(254) 613-4666,Non-NSSF,"['Public', 'Indoor', 'Commercial Range', 'Law enforcement', ""Gun/Sportsman's Club"", 'Handicap accessible', 'Public Access', 'Memberships Available', 'Host Events Open To Public/Non-Members', 'Membership and Open to Public', 'Open to Public']","['Equipment Rentals', 'Food Service/Snacks', 'Hunter Education', 'Instruction Available', 'Junior Rifle', 'Retail Store', ""Women's Programs"", 'Youth Programs']","['Handguns', 'Rifles', 'Archery Indoor']","['Handgun/Smallbore Rifle: 100 yd/mtr', 'Center-Fire Rifle: 100 yd/mtr']",[],http://www.senderoshootingsports.com/
9417,THE GUN RANGE,2401 South Fort Hood St,TX,Killeen,76542,254-781-2166,Non-NSSF,"['Public', 'Indoor', 'Commercial Range', 'Handicap accessible', 'Public Access', 'Memberships Available', 'Host Events Open To Public/Non-Members']","['Food Service/Snacks', 'Instruction Available', 'Retail Store', ""Women's Programs""]","['Handguns', 'Rifles', 'Shotguns']","['Handgun/Smallbore Rifle: 75 ft', 'Center-Fire Rifle: 50 yd/mtr']",[],https://www.thegunrangeusa.com/
2134,Rockdale Gun Club,Box 506 FM 487 N,TX,Rockdale,76567,(512) 446-6608,Non-NSSF,"['Public', 'Outdoor', 'Commercial Range', 'Memberships Available']",[],"['Rifles', 'Shotguns']",['Center-Fire Rifle: 50 yd/mtr'],[],#
6924,P.K. Sportsmans Range,Sportsmans Center Box L,TX,Fort Hood,76544,(817) 532-4552,Non-NSSF,"['Public', 'Outdoor', 'Hunting Preserve']","['Clubhouse/Lounge/Lodge', 'Picnic Area']","['Shotguns', 'Archery Outdoor Field']",[],[],#
3363,Fort Hood Sportsmens Center,Building 1937 Rod & Gun Club Loop,TX,Fort Hood,76544,(254) 532-4552,Non-NSSF,"['Public', 'Outdoor', 'Commercial Range', 'Military Facility']","['Clubhouse/Lounge/Lodge', 'Hunter Education', 'Instruction Available', 'Picnic Area', 'Retail Store']","['Shotguns', 'Archery Outdoor Field']",[],"['3D Archery', 'Muzzle Loading Events']",http://www.hoodmwr.com/sportsmenscenter.htm
7711,Texas Star Shooting Range,860 CR 3384,TX,Kempner,76539,(254) 813-5884,Non-NSSF,"['Private', 'Outdoor', 'Commercial Range', 'Municipal Facility', 'Military Facility', 'Handicap accessible', 'Public Access', 'Memberships Available']","['Equipment Rentals', 'Food Service/Snacks', 'Instruction Available', 'Retail Store', ""Women's Programs""]","['Handguns', 'Rifles', 'Shotguns']","['Handgun/Smallbore Rifle: 100 yd/mtr', 'Center-Fire Rifle: 100 yd/mtr']",[],http://www.texasstarshootingrange.com
10445,Quail Hunt Dime Box,1009 Private Road 4531,TX,Dime Box,77853,(979) 540-0745,Non-NSSF,"['Public', 'Outdoor', 'Hunting Preserve', 'Public Access', 'Host Events Open To Public/Non-Members']","['Instruction Available', 'Picnic Area']","['Handguns', 'Rifles', 'Shotguns']","['Handgun/Smallbore Rifle: 100 yd/mtr', 'Center-Fire Rifle: 100 yd/mtr']",[],http://quailhuntdimebox.com
6032,Hawkeye Shooting Academy,119 N 19th St,TX,Temple,76504,(254) 295-0951,Non-NSSF,"['Public', 'Indoor', 'Commercial Range', 'Handicap accessible', 'Public Access', 'Memberships Available', 'Host Events Open To Public/Non-Members']","['Instruction Available', 'Retail Store', ""Women's Programs""]","['Handguns', 'Rifles']","['Handgun/Smallbore Rifle: 50 ft', 'Center-Fire Rifle: 50 ft']",[],http://www.hawkeye.academy
7699,Flat Rock Creek Ranch,1550 E Hwy 71,TX,Marble Falls,78654,(830) 596-3727,Non-NSSF,"['Public', 'Outdoor', 'Hunting Preserve']",[],[],[],[],http://www.theflatrockcreekranch.com
4256,Comal Counrty Shooting Sports,1898 Rittimann Road,TX,Spring Branch,78070,(210) 573-5361,Non-NSSF,"['Public', 'Indoor', 'Commercial Range', ""Gun/Sportsman's Club"", 'Handicap accessible', 'Public Access']","['Clubhouse/Lounge/Lodge', 'Instruction Available']",['Shotguns'],[],['Skeet Competition'],http://comalskeet.com
2305,Temple Gun Club,3924 FM 438 Loop Rd,TX,Temple,76505,(817) 773-1593,Non-NSSF,"['Private', 'Outdoor', ""Gun/Sportsman's Club"", 'Members Only']",['Youth Programs'],"['Handguns', 'Rifles']","['Handgun/Smallbore Rifle: 100 yd/mtr', 'Center-Fire Rifle: 300 yd/mtr']","['Practical/Action Pistol', 'Smallbore']",http://www.templegunclub.com
5516,Dietz Gun Shop & Range,421 Range Road,TX,New Braunfels,78132,(830) 885-4662,Non-NSSF,"['Public', 'Outdoor', 'Commercial Range', 'Handicap accessible', 'Public Access', 'Memberships Available', 'Host Events Open To Public/Non-Members']","['Picnic Area', 'Retail Store']","['Handguns', 'Rifles', 'Shotguns']","['Handgun/Smallbore Rifle: 200 yd/mtr', 'Center-Fire Rifle: 200 yd/mtr']","['Airgun', 'Bench Rest']",http://dietzgunshop.com
3882,Llano County Clay Busters,Highway 16-12 Miles North,TX,Llano,78643,(325) 247-5971,Non-NSSF,"['Public', 'Outdoor', 'Commercial Range']",[],['Shotguns'],[],[],#
3689,Burlington Gun Club,222 Red Fox Run,TX,Seguin,78155-9452,,Non-NSSF,"['Private', 'Outdoor', ""Gun/Sportsman's Club"", 'Members Only']",[],[],[],[],#
10756,Weber's Shooting Sports,14757 North Interstate 35 Frontage Road,TX,Troy,76579,(254) 938-0415,Non-NSSF,"['Public', 'Outdoor', ""Gun/Sportsman's Club"", 'Handicap accessible', 'Public Access', 'Memberships Available', 'Host Events Open To Public/Non-Members']","['Equipment Rentals', 'Food Service/Snacks', 'Instruction Available', 'Retail Store']","['Handguns', 'Rifles', 'Shotguns']","['Handgun/Smallbore Rifle: 50 ft', 'Center-Fire Rifle: 100 yd/mtr']","['Skeet Competition', 'Sporting Clays/FITASC']",http://webersguns.com
6709,Caldwell Police Dept.,CR 105/206 S. Hill,TX,Caldwell,77836,(409) 567-4455,Non-NSSF,"['Private', 'Outdoor', 'Law enforcement']",[],[],[],[],#
6451,Diamond K Ranch,Sisterdale-Lindendale Rd,TX,Sisterdale,78209,(830) 324-6727,Non-NSSF,"['Private', 'Outdoor', 'Commercial Range', ""Gun/Sportsman's Club"", 'Public Access']","['Clubhouse/Lounge/Lodge', 'Equipment Rentals', 'Instruction Available', 'Lodging Available', 'Retail Store']",['Shotguns'],[],[],http://www.diamondkranch.com
10739,One in the Chamber Sports Range,717 County Road 148,TX,Gatesville,76528,(254) 216-1443,Non-NSSF,"['Public', 'Outdoor', 'Commercial Range', 'Law enforcement', ""Gun/Sportsman's Club"", 'Military Facility', 'Public Access', 'Memberships Available', 'Host Events Open To Public/Non-Members']","['Instruction Available', 'Retail Store']","['Handguns', 'Rifles']","['Handgun/Smallbore Rifle: 100 yd/mtr', 'Center-Fire Rifle: 500 yd/mtr']",[],https://oneinthechambersportsrange.com
4117,Fayette County Gun Club,2021 West Guenther Lane,TX,La Grange,78945,(979) 249-3533,Non-NSSF,"['Public', 'Outdoor', 'Commercial Range', ""Gun/Sportsman's Club"", 'Memberships Available']",[],"['Rifles', 'Shotguns', 'Archery Outdoor Field']",['Center-Fire Rifle: 50 yd/mtr'],[],http://www.fayettecountygunclub.com
4976,"JST Outfitters, LLC",635 Hwy 46 East Suite 401,TX,Boerne,78006,(830) 336-4867,Non-NSSF,"['Public', 'Indoor', 'Commercial Range', 'Handicap accessible', 'Memberships Available', 'Host Events Open To Public/Non-Members']",['Retail Store'],"['Handguns', 'Rifles']","['Handgun/Smallbore Rifle: 75 ft', 'Center-Fire Rifle: 75 ft']",[],http://www.jstoutfittersllc.com
5548,"Ballistic Therapy, LLC",635 Highway 46 East,TX,Boerne,78006,(830) 336-4869,Non-NSSF,"['Public', 'Indoor', 'Commercial Range', 'Handicap accessible', 'Public Access', 'Host Events Open To Public/Non-Members']","['Clubhouse/Lounge/Lodge', 'Equipment Rentals', 'Instruction Available', 'Retail Store', ""Women's Programs"", 'Youth Programs']","['Handguns', 'Rifles']","['Handgun/Smallbore Rifle: 75 ft', 'Center-Fire Rifle: 75 ft']",[],http://www.ballistictherapy.com
4030,Randolph Skeet & Trap Range,East Perimeter RD,TX,Randolph AFB,78148,(210) 652-2064,Non-NSSF,"['Private', 'Outdoor', 'Commercial Range', 'Military Facility', 'Public Access', 'Members Only', 'Memberships Available']",[],['Shotguns'],[],[],#
7705,Serengeti Game Ranch,444B Old NO. 9 Hwy,TX,Comfort,78013,(830) 370-8831,Non-NSSF,"['Public', 'Outdoor', 'Hunting Preserve', 'Public Access']",[],[],[],[],http://www.serengetigameranch.com
5466,"John's Guns, Etc",156 County Road 305,TX,Lott,76656,(254) 749-7940,Non-NSSF,"['Private', 'Outdoor', 'Commercial Range', 'Law enforcement', 'Public Access']","['Equipment Rentals', 'Hunter Education', 'Instruction Available', 'Retail Store', ""Women's Programs"", 'Youth Programs']","['Handguns', 'Rifles', 'Shotguns']","['Handgun/Smallbore Rifle: 50 yd/mtr', 'Center-Fire Rifle: 200 yd/mtr']",[],http://www.johnsgunsetc.com
9144,Mission Ridge Range & Academy,4507 N Loop 1604 West,TX,San Antonio,78249-2134,(210) 504-9000,Non-NSSF,"['Public', 'Indoor', 'Commercial Range', 'Law enforcement', ""Gun/Sportsman's Club"", 'Handicap accessible', 'Public Access', 'Memberships Available', 'Host Events Open To Public/Non-Members']","['Clubhouse/Lounge/Lodge', 'Equipment Rentals', 'Hunter Education', 'Instruction Available', 'Junior Rifle', 'Retail Store', ""Women's Programs"", 'Youth Programs']","['Handguns', 'Rifles', 'Shotguns', 'Archery Indoor']","['Handgun/Smallbore Rifle: 100 yd/mtr', 'Center-Fire Rifle: 100 yd/mtr']","['3D Archery', '3 Gun/Multi Gun', 'Airgun', 'Bench Rest', 'Handgun Metallic Silhouette', 'Hi-Power Rifle Matches', 'Practical/Action Pistol', 'Precision Pistol', 'Rimfire Challenge', 'Smallbore']",http://missionridgerange.com
4918,Caliber Canyon Gun Range,139 Walnut Grove Rd.,TX,Boerne,78006,(830) 431-1880,Non-NSSF,"['Private', 'Outdoor', ""Gun/Sportsman's Club"", 'Handicap accessible', 'Public Access', 'Host Events Open To Public/Non-Members']","['Equipment Rentals', 'Hunter Education', 'Instruction Available', 'Picnic Area', 'Retail Store', ""Women's Programs"", 'Youth Programs']","['Handguns', 'Rifles', 'Shotguns']","['Handgun/Smallbore Rifle: 100 yd/mtr', 'Center-Fire Rifle: 100 yd/mtr']","['3 Gun/Multi Gun', 'Handgun Metallic Silhouette', 'Practical/Action Pistol', 'Precision Pistol', 'Rifle Metallic Silhouette', 'Rimfire Challenge', 'Sporting Clays/FITASC']",http://www.hillcogunsmith.com
6930,Baumans Shooting Range,UNKNOWN,TX,Valley Springs,76885,(915) 247-3737,Non-NSSF,"['Public', 'Outdoor', 'Commercial Range']",[],"['Shotguns', 'Archery Outdoor Field']",[],[],#
2709,4 H Gatesville,PO Box 149,TX,Gatesville,76528-0149,,Non-NSSF,"['Private', 'Outdoor', ""Gun/Sportsman's Club"", 'Members Only']",[],[],[],[],#
2037,Joshua Creek Ranch,132 Cravey Rd,TX,Boerne,78006,(830) 537-5090,Non-NSSF,"['Public', 'Outdoor', 'Commercial Range', 'Hunting Preserve', 'Handicap accessible', 'Public Access', 'Memberships Available']","['Clubhouse/Lounge/Lodge', 'Equipment Rentals', 'Instruction Available', 'Lodging Available', 'Picnic Area', 'Retail Store', 'Youth Programs']",['Shotguns'],[],['Sporting Clays/FITASC'],http://www.joshuacreek.com
7427,Hicksville Gun Range,225 Dusty Lane,TX,Gatesville,76528,(254) 679-1362,Non-NSSF,"['Public', 'Outdoor', 'Commercial Range', ""Gun/Sportsman's Club"", 'Military Facility', 'Handicap accessible', 'Public Access']","['Clubhouse/Lounge/Lodge', 'Equipment Rentals', 'Hunter Education', 'Instruction Available', 'Junior Rifle', 'Picnic Area']","['Handguns', 'Rifles', 'Shotguns']","['Handgun/Smallbore Rifle: 50 yd/mtr', 'Center-Fire Rifle: 500 yd/mtr']","['Bench Rest', 'Handgun Metallic Silhouette', 'Practical/Action Pistol', 'Skeet Competition', 'Smallbore', 'Trap Competition']",http://www.hicksvillegunrange.com
4439,Texican Rangers,130 Steiler Ranch Rd,TX,Comfort,78247-1929,(830) 868-0942,Non-NSSF,"['Private', 'Outdoor', ""Gun/Sportsman's Club"", 'Members Only']",[],[],[],['Cowboy Action Shooting'],http://www.texicanrangers.org/
4987,"Pawnee Sporting Clays, LLC",1040 FM 2503,TX,Fayetteville,78940,,Non-NSSF,"['Private', 'Outdoor', 'Commercial Range', ""Gun/Sportsman's Club"", 'Handicap accessible', 'Members Only', 'Host Events Open To Public/Non-Members']",[],['Shotguns'],[],[],http://www.pawneesportingclays.com
6687,Black Creek Ranch Hunting Preserve,2523 Nacogdoches,TX,San Antonio,78217,(210) 805-9600,Non-NSSF,"['Private', 'Outdoor', 'Hunting Preserve', 'Public Access']",[],['Shotguns'],[],[],#
10278,San Antonio Gun Club,928 East Contour Drive,TX,San Antonio,78212,(210) 828-9860,Non-NSSF,"['Public', 'Outdoor', ""Gun/Sportsman's Club"", 'Handicap accessible', 'Public Access', 'Memberships Available', 'Host Events Open To Public/Non-Members']","['Clubhouse/Lounge/Lodge', 'Equipment Rentals', 'Hunter Education', 'Instruction Available', 'Retail Store', ""Women's Programs"", 'Youth Programs']",['Shotguns'],[],"['Skeet Competition', 'Trap Competition']",http://www.sagunclub.com
7818,Nixon Gun Range,1922 county road 173,TX,Nixon,78140,(210) 784-8374,Non-NSSF,"['Public', 'Outdoor', 'Commercial Range', ""Gun/Sportsman's Club"", 'Military Facility', 'Handicap accessible', 'Public Access']","['Hunter Education', 'Instruction Available']","['Handguns', 'Rifles']","['Handgun/Smallbore Rifle: 50 yd/mtr', 'Center-Fire Rifle: 300 yd/mtr']",[],#
6677,Marlin Rifle & Pistol Range,126 Bridge St.,TX,Marlin,76616,(817) 883-3534,Non-NSSF,"['Private', 'Outdoor', ""Gun/Sportsman's Club""]",[],[],[],[],#
6358,Hammetts One Eye Bar Ranch,1160 McElroy Ln,TX,New Ulm,78950-2007,(979) 357-2860,Non-NSSF,"['Public', 'Outdoor']",[],[],[],[],#
4327,"Hill Country Shooting Sports Center, Inc.",1886 Cypress Creek Rd,TX,Kerrville,78028-8967,(830) 995-5118,Non-NSSF,"['Public', 'Outdoor', 'Commercial Range', 'Handicap accessible', 'Public Access']","['Clubhouse/Lounge/Lodge', 'Equipment Rentals', 'Food Service/Snacks', 'Hunter Education', 'Instruction Available', 'Junior Rifle', 'Picnic Area', 'Retail Store', ""Women's Programs"", 'Youth Programs']","['Handguns', 'Rifles', 'Shotguns']","['Handgun/Smallbore Rifle: 50 yd/mtr', 'Center-Fire Rifle: 200 yd/mtr']","['Airgun', 'Cowboy Action Shooting', 'Precision Pistol', 'Rifle Metallic Silhouette', 'Skeet Competition', 'Smallbore', 'Sporting Clays/FITASC', 'Trap Competition']",http://www.hillcountryshootingsports.com
4760,Picosa Ranch,0,TX,Floresville,78114,(512) 428-5127,Non-NSSF,"['Public', 'Outdoor', 'Commercial Range', 'Hunting Preserve', 'Public Access']","['Food Service/Snacks', 'Lodging Available', 'Picnic Area']",[],[],[],http://www.picosaranch.com
6363,Texas Thunder Range,7128 Bandera Road,TX,San Antonio,78238,(210) 509-4752,Non-NSSF,"['Public', 'Indoor', 'Commercial Range', 'Law enforcement', 'Military Facility', 'Handicap accessible', 'Public Access', 'Memberships Available']","['Equipment Rentals', 'Instruction Available', 'Retail Store']","['Handguns', 'Rifles']","['Handgun/Smallbore Rifle: 50 ft', 'Center-Fire Rifle: 50 ft']","['Precision Pistol', 'Smallbore']",http://www.texasthunderrange.com
6362,Texas Guns,7122 Bandera Rd,TX,San Antonio,78238-1295,(210) 509-4752,Non-NSSF,"['Public', 'Indoor', ""Gun/Sportsman's Club""]","['Equipment Rentals', 'Instruction Available']",[],[],[],http://texasgunssa.com/
4463,Texas Historical Shootist Society/Brune Ranch,FM 1890,TX,Columbus,78934,(281) 342-1210,Non-NSSF,"['Private', 'Outdoor', ""Gun/Sportsman's Club"", 'Members Only', 'Memberships Available']",[],[],[],"['Cowboy Action Shooting', 'Rifle Metallic Silhouette']",http://www.thss.org/
7251,Texas Concealed Handgun,7106 Quail Trace,TX,San Antonio,78250,(210) 520-3710,Non-NSSF,"['Public', 'Indoor', 'Commercial Range', 'Public Access']","['Instruction Available', ""Women's Programs""]",[],[],[],http://www.texasconcealedhandgun.com
1535,Pasadena Gun Center,206 East Shaw Ave,TX,Pasadena,77506-1422,(713) 472-0417,Non-NSSF,"['Public', 'Indoor', 'Commercial Range', 'Handicap accessible', 'Public Access', 'Memberships Available']","['Equipment Rentals', 'Instruction Available', 'Retail Store']","['Handguns', 'Rifles']","['Handgun/Smallbore Rifle: 75 ft', 'Center-Fire Rifle: 75 ft']",['Practical/Action Pistol'],http://www.pasadenaguncenter.com
9200,SGA - Crosby,"5911, FM 2100 RD",TX,Crosby,77532,(281) 328-2800,NSSF,"['Public', 'Indoor', 'Commercial Range', 'Handicap accessible', 'Public Access', 'Memberships Available', 'Host Events Open To Public/Non-Members']","['Equipment Rentals', 'Instruction Available', 'Junior Rifle', 'Retail Store', ""Women's Programs""]","['Handguns', 'Rifles', 'Shotguns']","['Handgun/Smallbore Rifle: 75 ft', 'Center-Fire Rifle: 75 ft']","['Practical/Action Pistol', 'Rimfire Challenge']",http://www.springgunsandammo.com
11531,Range USA - Webster,350 East Nasa Parkway,TX,Webster,77598,(281) 724-4453,NSSF,"['Public', 'Indoor', 'Commercial Range', 'Handicap accessible', 'Public Access', 'Memberships Available', 'Host Events Open To Public/Non-Members']","['Clubhouse/Lounge/Lodge', 'Equipment Rentals', 'Instruction Available', 'Retail Store', ""Women's Programs""]","['Handguns', 'Rifles']","['Handgun/Smallbore Rifle: 75 ft', 'Center-Fire Rifle: 75 ft']",[],https://rangeusa.com/location-webster
2140,Clear Creek Gun Range,2381 Gun Range Rd,TX,League City,77573,(281) 337-1722,NSSF,"['Public', 'Outdoor', ""Gun/Sportsman's Club""]","['Instruction Available', 'Retail Store']","['Handguns', 'Rifles', 'Shotguns']","['Handgun/Smallbore Rifle: 50 yd/mtr', 'Center-Fire Rifle: 50 yd/mtr']",[],http://clearcreekgunrange.com
8030,Meadow Ridge Archery and Gun,1090 County Road 231,TX,Nacogdoches,75961,936-569-9880,NSSF,"['Public', 'Indoor/Outdoor', 'Commercial Range', ""Gun/Sportsman's Club"", 'Handicap accessible', 'Public Access', 'Memberships Available', 'Host Events Open To Public/Non-Members']","['Clubhouse/Lounge/Lodge', 'Equipment Rentals', 'Food Service/Snacks', 'Hunter Education', 'Instruction Available', 'Retail Store', ""Women's Programs"", 'Youth Programs']","['Handguns', 'Rifles', 'Shotguns', 'Archery Indoor', 'Archery Outdoor Field', 'Archery Outdoor 3D']","['Handgun/Smallbore Rifle: 100 yd/mtr', 'Handgun/Smallbore Rifle: 75 ft', 'Center-Fire Rifle: 100 yd/mtr', 'Center-Fire Rifle: 75 ft']",['3D Archery'],http://www.meadowridgearcheryandgun.com
4086,"Aransas Firearms, LLC",3215 Hwy 35 N,TX,Fulton,78358-1830,(361) 729-6556,NSSF,"['Public', 'Indoor', 'Commercial Range', 'Handicap accessible', 'Public Access', 'Memberships Available']","['Equipment Rentals', 'Instruction Available', 'Retail Store']",['Handguns'],['Handgun/Smallbore Rifle: 75 ft'],[],http://www.aransasfirearms.com
1904,Top Gun Handgun Training & Shooting Center,5901 Beverlyhill St,TX,Houston,77057-6711,(713) 779-4867,Non-NSSF,"['Public', 'Indoor', 'Commercial Range', 'Law enforcement', 'Handicap accessible', 'Public Access']","['Clubhouse/Lounge/Lodge', 'Equipment Rentals', 'Food Service/Snacks', 'Instruction Available', 'Retail Store', ""Women's Programs""]","['Handguns', 'Rifles']","['Handgun/Smallbore Rifle: 75 ft', 'Center-Fire Rifle: 75 ft']","['Handgun Metallic Silhouette', 'Practical/Action Pistol', 'Precision Pistol', 'Rifle Metallic Silhouette', 'Smallbore']",http://www.topgunrange.com
4457,59 Gun Range,11325 Eastex Fwy,TX,Houston,77093-2132,(281) 449-6063,Non-NSSF,"['Public', 'Outdoor', 'Commercial Range', 'Handicap accessible']",[],[],[],['Handgun Metallic Silhouette'],#
5604,D Gun Range LLC,11325 Eastex Fwy,TX,Houston,77093,(281) 449-6063,Non-NSSF,"['Public', 'Indoor', 'Commercial Range', 'Handicap accessible', 'Public Access', 'Host Events Open To Public/Non-Members']","['Equipment Rentals', 'Food Service/Snacks', 'Instruction Available', 'Retail Store']","['Handguns', 'Shotguns']",['Handgun/Smallbore Rifle: 50 ft'],"['Airgun', 'Practical/Action Pistol', 'Rimfire Challenge']",http://DGunRange.com
10924,Agis Arms Shooting Range,3915 South Sam Houston Parkway East,TX,Houston,77047,(713) 503-7645,Non-NSSF,"['Public', 'Indoor', 'Commercial Range', 'Handicap accessible', 'Public Access', 'Memberships Available', 'Host Events Open To Public/Non-Members']","['Equipment Rentals', 'Instruction Available', 'Retail Store']","['Handguns', 'Rifles']","['Handgun/Smallbore Rifle: 50 ft', 'Center-Fire Rifle: 50 ft']",[],https://www.agisarms.com/
6690,Baileys Rifle & Pistol Range,3626 Bluebonnet Dr.,TX,Houston,77053,(713) 433-2475,Non-NSSF,"['Public', 'Outdoor', 'Commercial Range']",[],['Shotguns'],[],[],#
7578,Full Armor Firearms,11911 Katy Fwy,TX,Houston,77079-1601,(713) 701-7611,Non-NSSF,"['Public', 'Indoor', 'Commercial Range', ""Gun/Sportsman's Club"", 'Handicap accessible', 'Public Access', 'Host Events Open To Public/Non-Members']","['Food Service/Snacks', 'Instruction Available', 'Retail Store']","['Handguns', 'Rifles']","['Handgun/Smallbore Rifle: 75 ft', 'Center-Fire Rifle: 75 ft']",['Practical/Action Pistol'],http://www.fullarmorgunrange.com
7260,Tejas Pistoleros Shooting Club,"4 m. West of Eagle Lake, TX S. side of Hwy 90A",TX,Houston,77221-1074,,Non-NSSF,"['Private', 'Outdoor', ""Gun/Sportsman's Club"", 'Public Access', 'Memberships Available']",[],['Shotguns'],[],"['Cowboy Action Shooting', 'Practical/Action Pistol', 'Precision Pistol']",http://tejaspistoleros.org
6700,Champion Lake Gun Club Inc.,5615 Hiltonview,TX,Houston,77086,(713) 893-5868,Non-NSSF,"['Public', 'Outdoor', 'Commercial Range', 'Memberships Available']","['Clubhouse/Lounge/Lodge', 'Instruction Available', 'Picnic Area']",['Shotguns'],[],[],#
3981,"Addicks Range/Bayou Rifles, Inc.",1300 Addicks-Fairbanks Road (Addicks Location),TX,Houston,77077,(713) 668-7801,Non-NSSF,"['Private', 'Outdoor', ""Gun/Sportsman's Club"", 'Handicap accessible', 'Members Only', 'Memberships Available']","['Instruction Available', 'Picnic Area']","['Handguns', 'Rifles', 'Shotguns']","['Handgun/Smallbore Rifle: 100 yd/mtr', 'Center-Fire Rifle: 500 yd/mtr']","['Airgun', 'Bench Rest', 'Handgun Metallic Silhouette', 'Precision Pistol', 'Rifle Metallic Silhouette', 'Smallbore']",http://www.bayourifles.org
4688,Shiloh Shooting Range,12703 Shiloh Church Road,TX,Houston,77066,(281) 444-8930,Non-NSSF,"['Public', 'Indoor', 'Commercial Range', 'Law enforcement', 'Handicap accessible', 'Public Access', 'Memberships Available', 'Host Events Open To Public/Non-Members']","['Equipment Rentals', 'Instruction Available', 'Retail Store', ""Women's Programs""]","['Handguns', 'Rifles', 'Shotguns']","['Handgun/Smallbore Rifle: 75 ft', 'Center-Fire Rifle: 75 ft']",['Practical/Action Pistol'],http://www.shilohshooting.com
10390,Range USA - Humble,9245 Farm to Market 1960 Bypass,TX,Humble,77338,832-995-0359,Non-NSSF,"['Public', 'Indoor', 'Commercial Range', 'Handicap accessible', 'Public Access', 'Memberships Available', 'Host Events Open To Public/Non-Members']","['Equipment Rentals', 'Instruction Available', 'Retail Store', ""Women's Programs""]","['Handguns', 'Rifles']","['Handgun/Smallbore Rifle: 75 ft', 'Center-Fire Rifle: 75 ft']",[],https://rangeusa.com/
7337,Best Shot Range,4425 FM 2351 #D,TX,Friendswood,77546,(281) 648-7468,Non-NSSF,"['Public', 'Indoor', 'Commercial Range', 'Law enforcement', ""Gun/Sportsman's Club"", 'Handicap accessible', 'Public Access', 'Memberships Available']","['Equipment Rentals', 'Food Service/Snacks', 'Hunter Education', 'Instruction Available', 'Retail Store', ""Women's Programs"", 'Youth Programs']","['Handguns', 'Rifles']","['Handgun/Smallbore Rifle: 500 yd/mtr', 'Handgun/Smallbore Rifle: 50 ft', 'Center-Fire Rifle: 75 ft']",['Airgun'],http://www.bestshotrange.com
11226,Saddle River Spring,2920 Spring Cypress Road,TX,Spring,77388,(832) 585-1452,Non-NSSF,"['Public', 'Indoor', 'Public Access', 'Memberships Available', 'Host Events Open To Public/Non-Members']","['Instruction Available', 'Retail Store', ""Women's Programs""]","['Handguns', 'Rifles']","['Handgun/Smallbore Rifle: 50 ft', 'Center-Fire Rifle: 50 ft']",[],http://Saddleriverspring.com
6669,Juliff Range/Bayou Rifles Inc,Hage Ranch Rd Just past Bateman Blvd,TX,Rosharon,77583,(713) 668-7801,Non-NSSF,"['Private', 'Outdoor', ""Gun/Sportsman's Club"", 'Members Only', 'Memberships Available']","['Instruction Available', 'Picnic Area']",['Rifles'],['Center-Fire Rifle: 500 yd/mtr'],"['Cowboy Action Shooting', 'Hi-Power Rifle Matches', 'Smallbore']",http://www.bayourifles.org
9126,HW Range and Training Center,24815 Hempstead Hwy,TX,Cypress,77429,(281) 373-0232,Non-NSSF,"['Private', 'Outdoor', 'Commercial Range', 'Law enforcement', 'Handicap accessible', 'Public Access', 'Host Events Open To Public/Non-Members']",['Instruction Available'],['Shotguns'],[],['Skeet Competition'],http://www.hwrange.com
4278,PSC Shooting Club,3121 W. Parkwood Ave.,TX,Friendswood,77548,(832) 623-5131,Non-NSSF,"['Private', 'Outdoor', ""Gun/Sportsman's Club"", 'Handicap accessible', 'Members Only', 'Memberships Available']","['Clubhouse/Lounge/Lodge', 'Hunter Education', 'Instruction Available', 'Junior Rifle', 'Picnic Area', ""Women's Programs"", 'Youth Programs']","['Rifles', 'Shotguns', 'Archery Outdoor Field']",['Center-Fire Rifle: 300 yd/mtr'],"['Airgun', 'Handgun Metallic Silhouette', 'Hi-Power Rifle Matches', 'Practical/Action Pistol', 'Precision Pistol', 'Rifle Metallic Silhouette', 'Smallbore']",http://www.psc-range.com
4112,Bay Area Shooting Club,4100 Euell Rd,TX,Crosby,77532,(832) 758-0210,Non-NSSF,"['Private', 'Outdoor', ""Gun/Sportsman's Club"", 'Handicap accessible', 'Members Only', 'Memberships Available']","['Instruction Available', 'Youth Programs']","['Handguns', 'Rifles', 'Shotguns']","['Handgun/Smallbore Rifle: 50 yd/mtr', 'Center-Fire Rifle: 200 yd/mtr']",[],http://www.basctx.com
2589,Bay Area Practical Shooters,606-B South Second,TX,Alvin,77511,(713) 941-7735,Non-NSSF,"['Private', 'Outdoor', ""Gun/Sportsman's Club"", 'Members Only']",[],[],[],['Practical/Action Pistol'],#
4886,Big Kountry Shooting,1204 Farm to Market 1462,TX,Alvin,77511,(832) 494-8830,Non-NSSF,"['Public', 'Indoor', 'Commercial Range', 'Handicap accessible', 'Public Access', 'Memberships Available', 'Host Events Open To Public/Non-Members']","['Equipment Rentals', 'Instruction Available', 'Retail Store']","['Handguns', 'Rifles', 'Archery Indoor']","['Handgun/Smallbore Rifle: 75 ft', 'Center-Fire Rifle: 75 ft']",['Practical/Action Pistol'],http://www.bigkountryshooting.com
4393,Spanish Dagger Hunting Preserve,5619 Highway 90,TX,Uvalde,78802,(830) 591-4757,Non-NSSF,"['Public', 'Outdoor', 'Commercial Range']","['Clubhouse/Lounge/Lodge', 'Food Service/Snacks']",['Shotguns'],[],[],http://www.spanishdagger.com
4853,G2G Family Recreational Shooting & Archery,25635 Southwest Freeway,TX,Rosenberg,77471,(713) 446-4802,Non-NSSF,"['Public', 'Indoor', 'Commercial Range', 'Public Access']","['Equipment Rentals', 'Food Service/Snacks', 'Instruction Available', ""Women's Programs"", 'Youth Programs']","['Handguns', 'Rifles', 'Archery Indoor']","['Handgun/Smallbore Rifle: 75 ft', 'Center-Fire Rifle: 75 ft']",[],#
6878,Thunder Gun Range,17234 Fm 1314 Rd,TX,Conroe,77302-4850,(281) 572-1314,Non-NSSF,"['Public', 'Indoor/Outdoor', 'Commercial Range', 'Public Access', 'Memberships Available']","['Equipment Rentals', 'Retail Store']","['Rifles', 'Shotguns']",['Center-Fire Rifle: 50 yd/mtr'],[],http://www.thundergunrange.com/
3980,Westside Sporting Grounds,10120 Pattison Road,TX,Katy,77493,(281) 371-3352,Non-NSSF,"['Private', 'Outdoor', 'Commercial Range', ""Gun/Sportsman's Club"", 'Handicap accessible', 'Public Access', 'Members Only']","['Clubhouse/Lounge/Lodge', 'Instruction Available', 'Picnic Area', ""Women's Programs""]",['Shotguns'],[],['Sporting Clays/FITASC'],http://www.wsgclays.com
6954,Salt Grass Archery Club,Jack Brooks Park 5700 FM 2004 & Hwy 6,TX,Hitchcock,77536,(713) 331-8909,Non-NSSF,"['Public', 'Outdoor', ""Gun/Sportsman's Club"", 'Memberships Available']","['Clubhouse/Lounge/Lodge', 'Instruction Available', 'Picnic Area']",['Archery Outdoor Field'],[],[],http://www.saltgrass.org/
8043,Brazos River Sportsmans Club,3525 Bowser Road,TX,Fulshear,77441,(281)543-1667,Non-NSSF,"['Public', 'Outdoor', 'Commercial Range', ""Gun/Sportsman's Club"", 'Handicap accessible', 'Public Access', 'Host Events Open To Public/Non-Members']",['Picnic Area'],"['Rifles', 'Shotguns']","['Handgun/Smallbore Rifle: 100 yd/mtr', 'Center-Fire Rifle: 100 yd/mtr']","['3 Gun/Multi Gun', 'Bench Rest', 'Handgun Metallic Silhouette']",http://brazosriversportsmansclub.com
4970,Kellc Ranch,Randon School Road,TX,Rosenberg,77471,,Non-NSSF,"['Private', 'Outdoor', ""Gun/Sportsman's Club"", 'Handicap accessible', 'Public Access', 'Host Events Open To Public/Non-Members']",['Picnic Area'],['Handguns'],['Handgun/Smallbore Rifle: 50 ft'],['Practical/Action Pistol'],http://kanpaisquad.com/matches.html
7191,Metro Gun Club,2315 County Rd. 45,TX,Angleton,77515,(713) 254-8675,Non-NSSF,"['Public', 'Outdoor', 'Commercial Range', ""Gun/Sportsman's Club"", 'Members Only', 'Memberships Available']",[],['Shotguns'],[],[],#
7587,Lost Maples Gamebirds,1103 Spur 28,TX,Danbury,77534,(979) 922-8685,Non-NSSF,"['Public', 'Outdoor', 'Hunting Preserve']",[],[],[],[],#
1868,Texas City Municipal Shooting Range,4000 N. Bay St Extension,TX,Texas City,77590,(409) 948-4291,Non-NSSF,"['Public', 'Outdoor', 'Law enforcement', 'Municipal Facility', 'Military Facility', 'Handicap accessible', 'Public Access', 'Memberships Available']","['Clubhouse/Lounge/Lodge', 'Food Service/Snacks', ""Women's Programs""]","['Handguns', 'Rifles', 'Shotguns']","['Handgun/Smallbore Rifle: 100 yd/mtr', 'Center-Fire Rifle: 100 yd/mtr']",['Skeet Competition'],http://www.texas-city-tx.org
6722,Rio Brazos Hunting Preserve,4430 Guyler Road,TX,Simonton,77476,(713) 854-5876,Non-NSSF,"['Public', 'Outdoor', ""Gun/Sportsman's Club"", 'Hunting Preserve', 'Handicap accessible', 'Public Access', 'Members Only', 'Memberships Available']","['Clubhouse/Lounge/Lodge', 'Food Service/Snacks', 'Instruction Available', 'Lodging Available', 'Picnic Area', 'Retail Store']",['Shotguns'],[],['Sporting Clays/FITASC'],http://www.rio-brazos.com
6914,Emmett Kelly,Route 15 Box 427,TX,Conroe,77304,(409) 441-4040,Non-NSSF,"['Private', 'Outdoor', ""Gun/Sportsman's Club""]",[],[],[],[],#
8547,Wallis-Orchard Gun Range,12206 Reinecke Rd,TX,Wallis,77485,(713) 829-1901,Non-NSSF,"['Public', 'Commercial Range', ""Gun/Sportsman's Club"", 'Public Access', 'Host Events Open To Public/Non-Members', 'Membership and Open to Public']",['Instruction Available'],"['Handguns', 'Rifles', 'Shotguns', 'Archery Outdoor Field']","['Handgun/Smallbore Rifle: 50 yd/mtr', 'Center-Fire Rifle: 500 yd/mtr']","['3 Gun/Multi Gun', 'Precision Pistol']",#
4748,Creekwood Shooting Sports,12824 Hwy 105 W,TX,Conroe,77304,(936) 588-3793,Non-NSSF,"['Public', 'Outdoor', 'Commercial Range', 'Handicap accessible', 'Public Access', 'Memberships Available']","['Camper/RV Sites', 'Clubhouse/Lounge/Lodge', 'Equipment Rentals', 'Food Service/Snacks', 'Instruction Available', 'Picnic Area', 'Retail Store', ""Women's Programs"", 'Youth Programs']","['Handguns', 'Rifles', 'Shotguns']","['Handgun/Smallbore Rifle: 50 yd/mtr', 'Center-Fire Rifle: 200 yd/mtr']","['3 Gun/Multi Gun', 'Handgun Metallic Silhouette', 'Practical/Action Pistol', 'Skeet Competition', 'Sporting Clays/FITASC']",http://www.creekwoodshootingsports.com
4583,Shooter's Station,13748 Highway 105 W,TX,Conroe,77304-7400,(936) 588-3333,Non-NSSF,"['Public', 'Indoor', 'Commercial Range', 'Law enforcement', 'Military Facility', 'Handicap accessible', 'Public Access']","['Clubhouse/Lounge/Lodge', 'Equipment Rentals', 'Instruction Available', 'Retail Store', ""Women's Programs""]",['Handguns'],['Handgun/Smallbore Rifle: 75 ft'],['Practical/Action Pistol'],http://www.shootersstation.net/Default.htm
11836,BTO Range & Training Center,13748 Texas 105,TX,Conroe,77304,(936) 588-3333,Non-NSSF,"['Public', 'Indoor', 'Commercial Range', 'Law enforcement', ""Gun/Sportsman's Club"", 'Handicap accessible', 'Public Access', 'Memberships Available', 'Host Events Open To Public/Non-Members']","['Equipment Rentals', 'Food Service/Snacks', 'Hunter Education', 'Instruction Available', 'Junior Rifle', 'Retail Store', ""Women's Programs"", 'Youth Programs']","['Handguns', 'Rifles']","['Handgun/Smallbore Rifle: 75 ft', 'Center-Fire Rifle: 100 yd/mtr']","['Handgun Metallic Silhouette', 'Practical/Action Pistol', 'Rimfire Challenge', 'Smallbore']",http://www.BTO-Range.com
7598,West Houston Shooters Club,10878 Kerr Rd,TX,Hempstead,77445,(832) 274-8549,Non-NSSF,"['Private', 'Outdoor', ""Gun/Sportsman's Club"", 'Members Only', 'Memberships Available']",[],"['Handguns', 'Rifles']","['Handgun/Smallbore Rifle: 100 yd/mtr', 'Center-Fire Rifle: 300 yd/mtr']",['Practical/Action Pistol'],http://www.whidpa.com
10457,Renaissance Shooting Club,22633 Farm to Market 1774,TX,Plantersville,77363,(281) 210-6361,Non-NSSF,"['Private', 'Outdoor', ""Gun/Sportsman's Club"", 'Members Only', 'Memberships Available', 'Host Events Open To Public/Non-Members']","['Instruction Available', 'Youth Programs']","['Handguns', 'Rifles', 'Shotguns']","['Handgun/Smallbore Rifle: 75 ft', 'Center-Fire Rifle: 100 yd/mtr']",['Practical/Action Pistol'],http://www.renaissanceshootingclub.com
4549,Southeast Texas Sportsman's Club,16180 Hwy 105,TX,Orange,77630,(409) 840-4400,Non-NSSF,"['Public', 'Indoor/Outdoor', 'Commercial Range', 'Public Access']","['Clubhouse/Lounge/Lodge', 'Equipment Rentals', 'Instruction Available', 'Picnic Area']","['Shotguns', 'Archery Indoor']",[],[],http://www.gunsnet.com
7180,Bushmaster Archery,1319 FM 2432 Rd,TX,Willis,77378,(936) 856-7609,Non-NSSF,"['Public', 'Indoor/Outdoor', 'Commercial Range', 'Public Access']","['Equipment Rentals', 'Instruction Available', 'Retail Store']","['Archery Indoor', 'Archery Outdoor Field', 'Archery Outdoor 3D']",[],['3D Archery'],#
4389,Greenwood Practical Pistols,262 Inwood Dr,TX,West Columbia,77486-9620,,Non-NSSF,"['Private', 'Outdoor', ""Gun/Sportsman's Club"", 'Members Only']",[],[],[],[],#
5010,Oodaloop Internatonal Personal Protection & Firearms Training,El indio,TX,Waller,77484,,Non-NSSF,"['Private', 'Outdoor', ""Gun/Sportsman's Club"", 'Handicap accessible', 'Members Only', 'Memberships Available', 'Host Events Open To Public/Non-Members']",[],"['Handguns', 'Rifles']","['Handgun/Smallbore Rifle: 50 yd/mtr', 'Center-Fire Rifle: 200 yd/mtr']",[],http://www.oodaloopinternational.com
6953,Rives Rifle Range,2817 FM 834 West,TX,Liberty,77575,(936) 334-4808,Non-NSSF,"['Public', 'Outdoor', 'Commercial Range', 'Law enforcement', 'Public Access', 'Memberships Available']",[],"['Handguns', 'Rifles']","['Handgun/Smallbore Rifle: 200 yd/mtr', 'Center-Fire Rifle: 200 yd/mtr']",[],#
2706,Employees Lake and Gun Club,94 Deerfield Dr,TX,Sweeny,77480-9700,,Non-NSSF,"['Private', 'Outdoor', ""Gun/Sportsman's Club"", 'Members Only']",[],[],[],[],#
10369,3 Gun Tactical,54111 Highway 290 East,TX,Hempstead,77445,(979) 661-6800,Non-NSSF,"['Public', 'Outdoor', 'Commercial Range', ""Gun/Sportsman's Club"", 'Handicap accessible', 'Public Access', 'Memberships Available', 'Host Events Open To Public/Non-Members']","['Camper/RV Sites', 'Clubhouse/Lounge/Lodge', 'Equipment Rentals', 'Food Service/Snacks', 'Hunter Education', 'Instruction Available', 'Junior Rifle', 'Lodging Available', 'Picnic Area', 'Retail Store', ""Women's Programs"", 'Youth Programs']","['Rifles', 'Shotguns']","['Handgun/Smallbore Rifle: 100 yd/mtr', 'Center-Fire Rifle: 100 yd/mtr']","['3 Gun/Multi Gun', 'Bench Rest', 'Rimfire Challenge']",#
6699,T.R.S Indoor Gun Range,542 S. Hwy. 288B,TX,Clute,77531,(409) 265-6069,Non-NSSF,"['Public', 'Indoor', 'Commercial Range', 'Memberships Available']",['Instruction Available'],[],[],['Handgun Metallic Silhouette'],#
4607,280 Shotgun Shooting Area,394 FM 1375 West Sam Houston National Forest,TX,New Waverly,77358,(936) 344-6205,Non-NSSF,"['Public', 'Outdoor', 'Municipal Facility', 'Handicap accessible']",[],['Shotguns'],[],[],#
6694,Austin County Rifle & Pistol Club,417 Meinecke,TX,Bellville,77418,(409) 865-2721,Non-NSSF,"['Private', 'Outdoor', ""Gun/Sportsman's Club"", 'Members Only', 'Memberships Available']",['Instruction Available'],['Archery Outdoor Field'],[],['Rifle Metallic Silhouette'],#
2590,Flying Feathers,804 Bauer Rd.,TX,Winnie,77665,(409) 296-2348,Non-NSSF,"['Public', 'Outdoor', 'Commercial Range']","['Clubhouse/Lounge/Lodge', 'Lodging Available']",['Shotguns'],[],[],#
2587,Possum Walk Ranch,10 Bowden Rd.,TX,Huntsville,77340,(936) 291-1891,Non-NSSF,"['Public', 'Outdoor', 'Commercial Range']",[],['Shotguns'],[],[],http://www.claytargetsonline.com/club.php/1789
8915,The Ranch TX,1000 Old Altair Rd,TX,Eagle Lake,77434,832-373-4440,Non-NSSF,"['Private', 'Outdoor', 'Commercial Range', 'Handicap accessible', 'Public Access', 'Memberships Available', 'Host Events Open To Public/Non-Members']","['Camper/RV Sites', 'Clubhouse/Lounge/Lodge', 'Food Service/Snacks', 'Instruction Available', 'Lodging Available', 'Picnic Area']","['Handguns', 'Rifles']","['Handgun/Smallbore Rifle: 100 yd/mtr', 'Center-Fire Rifle: 100 yd/mtr']",[],http://TheRanchTX.net
5738,Garwood Sporting Clays Inc,3233 Fm Rd 333,TX,Garwood,77442,(979) 758-4580,Non-NSSF,"['Public', 'Outdoor', 'Commercial Range']",['Camper/RV Sites'],['Shotguns'],[],[],http://www.claytargetsonline.com/club.php/2640
6936,"El Campo Rifle & Pistol Club, Inc.",CR 408 1 Mile East of Hwy 71,TX,El Campo,77437,(979) 543-6115,Non-NSSF,"['Private', 'Outdoor', ""Gun/Sportsman's Club"", 'Handicap accessible', 'Members Only', 'Memberships Available']",[],"['Handguns', 'Rifles', 'Shotguns', 'Archery Outdoor Field']","['Handgun/Smallbore Rifle: 50 yd/mtr', 'Center-Fire Rifle: 300 yd/mtr']",['Airgun'],#
2058,Legers Shooting Range,14061 Hwy 90,TX,Beaumont,77713,(409) 866-0871,Non-NSSF,"['Public', 'Outdoor', ""Gun/Sportsman's Club""]",['Equipment Rentals'],"['Handguns', 'Rifles']","['Handgun/Smallbore Rifle: 50 yd/mtr', 'Center-Fire Rifle: 50 yd/mtr']",[],#
7379,"Cawthon Cartridge Club, Inc.",9010 Bob Moore Road,TX,Navasota,77868,(936) 825-8600,Non-NSSF,"['Public', 'Outdoor', ""Gun/Sportsman's Club"", 'Public Access', 'Memberships Available']","['Camper/RV Sites', 'Lodging Available', 'Retail Store']","['Handguns', 'Rifles', 'Shotguns']","['Handgun/Smallbore Rifle: 500 yd/mtr', 'Center-Fire Rifle: 500 yd/mtr']",[],http://www.cccshootingcomplex.com
6920,One In One Hundred Gun Club,1228 FM 421,TX,Lumberton,77657,(409) 755-6648,Non-NSSF,"['Private', 'Outdoor', ""Gun/Sportsman's Club"", 'Members Only', 'Memberships Available']","['Clubhouse/Lounge/Lodge', 'Instruction Available', 'Picnic Area', 'Youth Programs']","['Handguns', 'Rifles', 'Shotguns']","['Handgun/Smallbore Rifle: 300 yd/mtr', 'Center-Fire Rifle: 300 yd/mtr']",['Sporting Clays/FITASC'],http://www.1in100gunclub.com
3722,4 H Brazos,15583 Arhopulos Rd,TX,College Station,77845-6994,,Non-NSSF,"['Private', 'Outdoor', ""Gun/Sportsman's Club"", 'Members Only']",[],[],[],[],http://brazos4h.txcyber.com/index.htm
4120,Lone Star Indoor Gun Range,4940 Hwy 69 South,TX,Lumberton,77657,(409) 755-4867,Non-NSSF,"['Public', 'Indoor', 'Commercial Range', 'Handicap accessible', 'Memberships Available']","['Equipment Rentals', 'Instruction Available', 'Retail Store']",['Rifles'],[],[],http://www.lonestargunrange.net/index.html
1748,"Golden Triangle Gun Club, Inc.",Erie Street,TX,Beaumont,77705,(409) 729-4842,Non-NSSF,"['Private', 'Outdoor', 'Commercial Range', 'Law enforcement', ""Gun/Sportsman's Club"", 'Military Facility', 'Handicap accessible', 'Members Only', 'Memberships Available']","['Clubhouse/Lounge/Lodge', 'Instruction Available', 'Junior Rifle', 'Picnic Area', 'Youth Programs']","['Handguns', 'Rifles', 'Shotguns']","['Handgun/Smallbore Rifle: 50 yd/mtr', 'Center-Fire Rifle: 500 yd/mtr']","['Bench Rest', 'Cowboy Action Shooting', 'Handgun Metallic Silhouette', 'Practical/Action Pistol', 'Rifle Metallic Silhouette', 'Sporting Clays/FITASC']",http://www.gtgctx.org
6902,Champion Firearms Corporation,1925 Texas Ave. South,TX,College Station,77840,(979) 693-9948,Non-NSSF,"['Public', 'Indoor', 'Commercial Range', 'Law enforcement', 'Handicap accessible', 'Public Access', 'Memberships Available']","['Equipment Rentals', 'Instruction Available', 'Retail Store']",['Handguns'],['Handgun/Smallbore Rifle: 50 ft'],[],http://www.championfirearms.com
6418,Coastal Wild Wings,P.O. Box 695,TX,Blessing,77419,(361) 588-2013,Non-NSSF,"['Public', 'Outdoor', 'Hunting Preserve']",[],[],[],[],http://www.coastalwildwings.com
5433,Gun Corps Training Center & Range,501 Texas Avenue S,TX,College Station,77840,(979) 450-3811,Non-NSSF,"['Public', 'Outdoor', 'Commercial Range', ""Gun/Sportsman's Club"", 'Handicap accessible', 'Public Access', 'Memberships Available', 'Host Events Open To Public/Non-Members']","['Equipment Rentals', 'Hunter Education', 'Instruction Available', 'Retail Store', ""Women's Programs"", 'Youth Programs']","['Handguns', 'Rifles']","['Handgun/Smallbore Rifle: 50 yd/mtr', 'Center-Fire Rifle: 100 yd/mtr']","['Bench Rest', 'Practical/Action Pistol', 'Precision Pistol']",http://www.gun-corps.com/training
5795,"Madison Co. Gun & Archery Club, Inc.",4096 Conner Lane Madison County,TX,Madisonville,77864,(936) 348-3627,Non-NSSF,"['Private', 'Outdoor', ""Gun/Sportsman's Club""]",[],['Shotguns'],[],[],http://www.mcgac.com
6961,Trinity County SHeriffs Office,214 W 1st St,TX,Groverton,75845,(409) 642-1424,Non-NSSF,"['Private', 'Outdoor', 'Law enforcement']",[],[],[],[],#
5101,Shelby County Shooters Association,6 miles on Hwy 96 South,TX,Center,75935-0522,(936) 598-4271,Non-NSSF,"['Private', 'Outdoor', ""Gun/Sportsman's Club"", 'Handicap accessible', 'Public Access', 'Members Only']",[],"['Handguns', 'Rifles', 'Shotguns']","['Handgun/Smallbore Rifle: 100 yd/mtr', 'Center-Fire Rifle: 500 yd/mtr']","['Bench Rest', 'Handgun Metallic Silhouette', 'Rifle Metallic Silhouette', 'Smallbore', 'Trap Competition']",#
11830,Copper Bullet Outdoor Shooting Ranges,1128 County Road 713,TX,Buna,77612,(409) 289-4183,Non-NSSF,"['Public', 'Outdoor', 'Commercial Range', 'Public Access', 'Memberships Available', 'Host Events Open To Public/Non-Members']","['Camper/RV Sites', 'Equipment Rentals', 'Instruction Available', 'Picnic Area']","['Handguns', 'Rifles', 'Shotguns', 'Archery Outdoor Field']","['Handgun/Smallbore Rifle: 500 yd/mtr', 'Center-Fire Rifle: 50 yd/mtr']","['Bench Rest', 'Precision Pistol', 'Rimfire Challenge']",https://www.copperbulletlodge.com
6693,Edna r-H Rifle Range,411 N. Wholes,TX,Edna,77957,(512) 782-3312,Non-NSSF,"['Private', 'Indoor', ""Gun/Sportsman's Club"", 'Members Only']",['Instruction Available'],['Archery Indoor'],[],['Rifle Metallic Silhouette'],#
6945,Laward 4-H Shooting Range,UNKNOWN,TX,Lolita,77971,(512) 874-4405,Non-NSSF,"['Private', 'Indoor', ""Gun/Sportsman's Club"", 'Members Only']",[],['Archery Indoor'],[],[],#
5659,Aransas Co Sporting Clays Inc,301 East North St,TX,Rockport,78382,(361) 729-6831,Non-NSSF,"['Public', 'Outdoor', 'Commercial Range']",[],['Shotguns'],[],[],#
4952,Defender Outdoors,2900 Shotts Street,TX,Fort Worth,76107,(817) 935-8377,NSSF,"['Public', 'Indoor', 'Commercial Range', 'Handicap accessible', 'Public Access', 'Memberships Available', 'Host Events Open To Public/Non-Members']","['Clubhouse/Lounge/Lodge', 'Equipment Rentals', 'Food Service/Snacks', 'Hunter Education', 'Instruction Available', 'Retail Store', ""Women's Programs"", 'Youth Programs']","['Handguns', 'Rifles']",['Handgun/Smallbore Rifle: 75 ft'],[],http://www.defenderoutdoors.com
8938,Eagle Gun Range,14400 Midway Rd,TX,Farmers Branch,75244,972-353-4867,NSSF,"['Public', 'Indoor', 'Commercial Range', 'Handicap accessible', 'Public Access', 'Memberships Available']","['Equipment Rentals', 'Instruction Available', 'Retail Store', 'Youth Programs']","['Handguns', 'Rifles', 'Shotguns']","['Handgun/Smallbore Rifle: 75 ft', 'Center-Fire Rifle: 75 ft']",['Precision Pistol'],http://www.eaglegunrangetx.com
4064,The Gun Zone,2405 Interstate 30 Ste. B,TX,Mesquite,75150,(214) 486-9663,NSSF,"['Public', 'Indoor', 'Commercial Range', 'Handicap accessible', 'Public Access', 'Memberships Available']",[],['Handguns'],['Handgun/Smallbore Rifle: 50 ft'],[],#
11410,Bullseye Range and Guns,1151 South Cedar Ridge Drive,TX,Duncanville,75137,(972) 780-1807,NSSF,"['Public', 'Indoor', 'Commercial Range', 'Handicap accessible', 'Public Access', 'Memberships Available', 'Host Events Open To Public/Non-Members']","['Equipment Rentals', 'Instruction Available', 'Retail Store']",['Handguns'],['Handgun/Smallbore Rifle: 75 ft'],[],http://bullseyerandg.net
7341,Shoot Smart,2440 W. Main Street,TX,Grand Prairie,75050,(972) 641-2335,NSSF,"['Public', 'Indoor', 'Commercial Range', 'Handicap accessible', 'Public Access', 'Memberships Available', 'Host Events Open To Public/Non-Members']","['Clubhouse/Lounge/Lodge', 'Equipment Rentals', 'Food Service/Snacks', 'Instruction Available', 'Retail Store', ""Women's Programs"", 'Youth Programs']","['Handguns', 'Rifles']","['Handgun/Smallbore Rifle: 50 ft', 'Center-Fire Rifle: 50 ft']","['Practical/Action Pistol', 'Rimfire Challenge']",http://www.shootsmart.com
6844,Bass Pro Shop num 037,5001 Bass Pro Drive,TX,Garland,75043,(469) 221-2600,NSSF,"['Public', 'Indoor', 'Commercial Range']",[],['Archery Indoor'],[],[],http://www.basspro.com/webapp/wcs/stores/servlet/CFPageC?storeId=10151&catalogId=10001&langId=-1&appID=94&storeID=39
1760,Bass Pro Shop num 005,2501 Bass Pro Drive,TX,Grapevine,76051-2097,(972) 724-2018,NSSF,"['Public', 'Indoor', 'Commercial Range']",[],['Archery Indoor'],[],[],http://www.basspro.com/webapp/wcs/stores/servlet/CFPageC?storeId=10151&catalogId=10001&langId=-1&appID=94&storeID=18
10587,Range USA - Lewisville,1915 South Stemmons Freeway,TX,Lewisville,75067,(469) 630-6189,NSSF,"['Public', 'Indoor', 'Handicap accessible', 'Public Access', 'Memberships Available', 'Host Events Open To Public/Non-Members']","['Equipment Rentals', 'Instruction Available', 'Retail Store']","['Handguns', 'Rifles']","['Handgun/Smallbore Rifle: 75 ft', 'Center-Fire Rifle: 75 ft']",[],https://rangeusa.com/
11589,Texas Gun Experience,1901 South Main Street,TX,Grapevine,76051,(817) 285-0664,NSSF,"['Public', 'Indoor', 'Commercial Range', ""Gun/Sportsman's Club"", 'Handicap accessible', 'Public Access', 'Members Only', 'Memberships Available', 'Host Events Open To Public/Non-Members']","['Clubhouse/Lounge/Lodge', 'Equipment Rentals', 'Food Service/Snacks', 'Hunter Education', 'Instruction Available', 'Picnic Area', 'Retail Store', ""Women's Programs"", 'Youth Programs']","['Handguns', 'Rifles']","['Handgun/Smallbore Rifle: 50 yd/mtr', 'Center-Fire Rifle: 50 yd/mtr']",[],http://www.texasgunexperience.com
8937,Eagle Gun Range,491 W Valley Ridge Blvd,TX,Lewisville,75057,972-353-4867,NSSF,"['Public', 'Indoor', 'Commercial Range', 'Handicap accessible', 'Public Access', 'Memberships Available', 'Host Events Open To Public/Non-Members']","['Equipment Rentals', 'Instruction Available', 'Retail Store', 'Youth Programs']","['Handguns', 'Rifles', 'Shotguns']","['Handgun/Smallbore Rifle: 75 ft', 'Center-Fire Rifle: 75 ft']",[],http://www.eaglegunrangetx.com
10060,Range USA - Arlington,5661 S. Cooper St,TX,Arlington,76017,(682) 712-0104,NSSF,"['Public', 'Indoor', 'Commercial Range', 'Handicap accessible', 'Public Access', 'Memberships Available', 'Host Events Open To Public/Non-Members']","['Clubhouse/Lounge/Lodge', 'Equipment Rentals', 'Instruction Available', 'Retail Store', ""Women's Programs""]","['Handguns', 'Rifles']",[],[],https://rangeusa.com/
11725,Texas Legends Gun Range and Training Center LLC,1499 Central Expressway North,TX,Allen,75013,(469) 675-8803,NSSF,"['Public', 'Indoor', 'Commercial Range', 'Handicap accessible', 'Public Access', 'Memberships Available', 'Host Events Open To Public/Non-Members']","['Clubhouse/Lounge/Lodge', 'Equipment Rentals', 'Food Service/Snacks', 'Instruction Available', 'Lodging Available', 'Retail Store']","['Handguns', 'Rifles', 'Shotguns']","['Handgun/Smallbore Rifle: 50 yd/mtr', 'Center-Fire Rifle: 50 yd/mtr']","['Practical/Action Pistol', 'Precision Pistol']",http://www.texaslegendsguns.com
11848,GRITR Sports & Outdoors,7901 26 Boulevard,TX,North Richland Hills,76180,(800) 486-7497,NSSF,"['Public', 'Indoor', 'Commercial Range', ""Gun/Sportsman's Club"", 'Handicap accessible', 'Public Access', 'Memberships Available', 'Host Events Open To Public/Non-Members']","['Equipment Rentals', 'Food Service/Snacks', 'Instruction Available', 'Junior Rifle', 'Retail Store', ""Women's Programs"", 'Youth Programs']","['Handguns', 'Rifles', 'Archery Indoor']","['Handgun/Smallbore Rifle: 75 ft', 'Center-Fire Rifle: 75 ft']","['3 Gun/Multi Gun', 'Bench Rest', 'Practical/Action Pistol', 'Rimfire Challenge']",http://range.gritrsports.com
1811,"Winchester Gallery, Inc.",6062 A East Lancaster,TX,Fort Worth,76112,(817) 496-9391,NSSF,"['Public', 'Indoor', 'Commercial Range', 'Handicap accessible']",['Retail Store'],[],[],[],http://winchestergallery.com/
8418,Range USA - North Richland Hills,6201 NE Loop 820,TX,North Richland Hill,76180,(682) 400-2100,NSSF,"['Public', 'Commercial Range', 'Handicap accessible', 'Public Access', 'Memberships Available', 'Host Events Open To Public/Non-Members']","['Clubhouse/Lounge/Lodge', 'Equipment Rentals', 'Instruction Available', 'Retail Store', ""Women's Programs""]","['Handguns', 'Rifles']","['Handgun/Smallbore Rifle: 50 ft', 'Center-Fire Rifle: 50 ft']",[],https://rangeusa.com/
5496,Shoot Smart,10305 North Freeway,TX,Fort Worth,76177,(817) 984-8020,NSSF,"['Public', 'Indoor', 'Commercial Range', 'Handicap accessible', 'Public Access', 'Memberships Available', 'Host Events Open To Public/Non-Members']","['Clubhouse/Lounge/Lodge', 'Equipment Rentals', 'Instruction Available', 'Retail Store', ""Women's Programs"", 'Youth Programs']","['Handguns', 'Rifles']","['Handgun/Smallbore Rifle: 50 ft', 'Center-Fire Rifle: 50 ft']","['Practical/Action Pistol', 'Rimfire Challenge']",http://www.shootsmart.com
4964,Quail Creek Range,13814 FM1171,TX,Northlake,76262,(940) 648-3356,NSSF,"['Public', 'Outdoor', 'Commercial Range', 'Law enforcement', 'Handicap accessible', 'Public Access', 'Host Events Open To Public/Non-Members']","['Instruction Available', 'Retail Store']","['Handguns', 'Rifles', 'Shotguns']","['Handgun/Smallbore Rifle: 100 yd/mtr', 'Center-Fire Rifle: 100 yd/mtr']",[],http://www.quailcreekrange.com
7723,"B-Tactical, LLC",2975 W IH30,TX,Caddo Mills,75135,(903) 441-2017,NSSF,"['Public', 'Outdoor', 'Commercial Range', 'Law enforcement', 'Municipal Facility', 'Military Facility', 'Public Access']","['Equipment Rentals', 'Hunter Education', 'Instruction Available', ""Women's Programs""]","['Rifles', 'Archery Outdoor 3D']",['Center-Fire Rifle: 500 yd/mtr'],[],http://www.b-tactical.com
7269,Lone Star Guns Gallery & Gear,321 Interstate 20 West,TX,Weatherford,76087,(817) 599-9275,NSSF,"['Public', 'Indoor', 'Commercial Range', 'Public Access', 'Memberships Available']","['Hunter Education', 'Instruction Available', 'Retail Store', ""Women's Programs"", 'Youth Programs']","['Handguns', 'Rifles', 'Shotguns']","['Handgun/Smallbore Rifle: 75 ft', 'Center-Fire Rifle: 75 ft']",[],http://lonestargunsgallerygear.com
10045,5H Shooting Sports,19105 Country Road 4235,TX,Frankston,75763,903-876-2772,NSSF,"['Public', 'Outdoor', 'Commercial Range', 'Handicap accessible', 'Public Access', 'Memberships Available', 'Host Events Open To Public/Non-Members']","['Clubhouse/Lounge/Lodge', 'Equipment Rentals', 'Food Service/Snacks', 'Hunter Education', 'Instruction Available', 'Picnic Area', 'Retail Store', ""Women's Programs"", 'Youth Programs']",['Shotguns'],[],"['Skeet Competition', 'Sporting Clays/FITASC', 'Trap Competition']",http://www.5houtdoors.com
11327,High Caliber Gun Range,7475 Central East Freeway,TX,Wichita Falls,76305,(940) 432-5556,NSSF,"['Public', 'Indoor', 'Commercial Range', 'Handicap accessible', 'Public Access', 'Memberships Available', 'Host Events Open To Public/Non-Members']","['Equipment Rentals', 'Instruction Available', 'Retail Store']","['Handguns', 'Rifles']","['Handgun/Smallbore Rifle: 75 ft', 'Center-Fire Rifle: 75 ft']",[],http://highcalibergunrange.com
10788,Texarkana Gun Barn & Range,1601 County Road 1214,TX,Texarkana,75501,(903) 671-2222,NSSF,"['Public', 'Indoor', 'Commercial Range', 'Handicap accessible', 'Public Access', 'Memberships Available', 'Host Events Open To Public/Non-Members']","['Food Service/Snacks', 'Instruction Available', 'Retail Store']",['Handguns'],"['Handgun/Smallbore Rifle: 75 ft', 'Center-Fire Rifle: 75 ft']","['Practical/Action Pistol', 'Precision Pistol', 'Rimfire Challenge', 'Smallbore']",http://www.texarkanagunbarnandrange.com
5450,Elm Fork Shooting Sports,10751 Luna Road,TX,Dallas,75220,(972) 556-0103,Non-NSSF,"['Public', 'Outdoor', 'Commercial Range', 'Law enforcement', 'Municipal Facility', 'Military Facility', 'Handicap accessible', 'Public Access']","['Clubhouse/Lounge/Lodge', 'Equipment Rentals', 'Food Service/Snacks', 'Hunter Education', 'Instruction Available', 'Lodging Available', 'Picnic Area', 'Retail Store', ""Women's Programs"", 'Youth Programs']","['Handguns', 'Rifles', 'Shotguns', 'Archery Outdoor Field', 'Archery Outdoor 3D']","['Handgun/Smallbore Rifle: 50 yd/mtr', 'Center-Fire Rifle: 100 yd/mtr']","['3D Archery', 'Airgun', 'Practical/Action Pistol', 'Skeet Competition', 'Sporting Clays/FITASC', 'Trap Competition']",http://www.elmfork.com
1658,DFW Gun Range & Training Center,1607 W Mockingbird Ln,TX,Dallas,75235-5008,(214) 630-4866,Non-NSSF,"['Public', 'Indoor', 'Commercial Range', 'Handicap accessible']","['Clubhouse/Lounge/Lodge', 'Equipment Rentals', 'Food Service/Snacks', 'Instruction Available', 'Retail Store']","['Handguns', 'Rifles', 'Shotguns']","['Handgun/Smallbore Rifle: 75 ft', 'Center-Fire Rifle: 75 ft']",['Precision Pistol'],http://www.dfwgun.com
3881,"Dallas Muzzle Loading Gun Club, Inc",9204 Heatherdale Dr,TX,Dallas,75243,(214) 341-9421,Non-NSSF,"['Private', 'Outdoor', ""Gun/Sportsman's Club"", 'Members Only']",[],[],[],[],#
10416,Lake Highlands Shooting Center,10757 Mapleridge Drive,TX,Dallas,75238,(214) 343-3494,Non-NSSF,"['Public', 'Indoor', 'Commercial Range', 'Handicap accessible', 'Public Access', 'Memberships Available', 'Host Events Open To Public/Non-Members']","['Clubhouse/Lounge/Lodge', 'Equipment Rentals', 'Instruction Available', 'Retail Store']","['Rifles', 'Shotguns']",['Center-Fire Rifle: 50 ft'],[],http://www.lhshootingcenter.com
2392,Texins Archery Club,10751 Luna Rd,TX,Dallas,75220,(214) 960-4088,Non-NSSF,"['Private', 'Outdoor', ""Gun/Sportsman's Club"", 'Members Only']",[],"['Shotguns', 'Archery Outdoor Field', 'Archery Outdoor 3D']",[],['3D Archery'],http://www.dallasarchery.com/index.php?section=1
2118,Target Master Indoor Shooting Center,1717 South Jupiter,TX,Garland,75042,(214) 343-4545,Non-NSSF,"['Public', 'Indoor', 'Commercial Range', 'Handicap accessible', 'Memberships Available']","['Equipment Rentals', 'Instruction Available', 'Retail Store']","['Handguns', 'Rifles', 'Shotguns']",['Handgun/Smallbore Rifle: 75 ft'],[],http://www.targetmasters.com
6695,Irving Bowhunters Assn.,4425 Longleaf Dr.,TX,Garland,75042,(214) 272-2041,Non-NSSF,"['Public', 'Outdoor', 'Commercial Range', 'Members Only', 'Memberships Available']","['Instruction Available', 'Picnic Area']",['Archery Outdoor Field'],[],[],http://www.ibatx.org
4167,Dallas Pistol Club,1830 W Beltline Rd.,TX,Carrollton,75006,(214) 701-7242,Non-NSSF,"['Private', 'Outdoor', ""Gun/Sportsman's Club"", 'Handicap accessible', 'Members Only', 'Memberships Available', 'Host Events Open To Public/Non-Members']","['Clubhouse/Lounge/Lodge', 'Instruction Available', ""Women's Programs"", 'Youth Programs']",['Handguns'],['Handgun/Smallbore Rifle: 100 yd/mtr'],"['Airgun', 'Practical/Action Pistol', 'Precision Pistol']",http://www.dallaspistolclub.com
4270,Grand Prairie Gun Club,2330 Lower Tarrant Road,TX,Grand Prairie,75050,(972) 641-9940,Non-NSSF,"['Public', 'Outdoor', ""Gun/Sportsman's Club"", 'Handicap accessible', 'Members Only', 'Memberships Available']","['Clubhouse/Lounge/Lodge', 'Hunter Education', 'Instruction Available', 'Picnic Area', 'Youth Programs']","['Handguns', 'Rifles', 'Shotguns', 'Archery Outdoor 3D']","['Handgun/Smallbore Rifle: 50 yd/mtr', 'Center-Fire Rifle: 200 yd/mtr']","['Airgun', 'Handgun Metallic Silhouette', 'Skeet Competition', 'Trap Competition']",http://www.gpgc.net
4905,Texas Archery Academy,600 Accent Dr Suite B,TX,Plano,75075,(214) 827-7000,Non-NSSF,"['Public', 'Indoor', 'Municipal Facility', 'Handicap accessible', 'Public Access', 'Memberships Available', 'Host Events Open To Public/Non-Members']","['Clubhouse/Lounge/Lodge', 'Equipment Rentals', 'Food Service/Snacks', 'Hunter Education', 'Instruction Available']","['Archery Outdoor Field', 'Archery Outdoor 3D']",[],[],http://www.texasarcheryacademy.org
2192,Garland Public Shooting Range,2606 Pleasant Valley Rd.,TX,Garland,75040,(972) 495-5330,Non-NSSF,"['Public', 'Outdoor', 'Commercial Range', ""Gun/Sportsman's Club"", 'Handicap accessible', 'Public Access', 'Memberships Available']","['Clubhouse/Lounge/Lodge', 'Equipment Rentals', 'Instruction Available', 'Picnic Area', 'Retail Store']","['Rifles', 'Shotguns']",['Center-Fire Rifle: 100 yd/mtr'],[],http://www.garlandpublicshootingrange.com
4286,"Bullet Trap, Inc.",2608 Avenue K,TX,Plano,75074,(972) 881-0372,Non-NSSF,"['Public', 'Indoor', 'Commercial Range', 'Handicap accessible', 'Members Only']","['Equipment Rentals', 'Instruction Available', 'Retail Store']","['Handguns', 'Rifles']","['Handgun/Smallbore Rifle: 75 ft', 'Center-Fire Rifle: 75 ft']",[],http://www.bullettrapinc.com
7676,Sportsman Shooting Center,1960 Enchanted Way,TX,Grapevine,76051,(469) 222-6431,Non-NSSF,"['Public', 'Indoor', ""Gun/Sportsman's Club"", 'Handicap accessible', 'Public Access', 'Host Events Open To Public/Non-Members']","['Clubhouse/Lounge/Lodge', 'Equipment Rentals', 'Food Service/Snacks', 'Instruction Available', 'Junior Rifle', 'Retail Store', ""Women's Programs"", 'Youth Programs']",['Rifles'],[],[],http://www.sportsmanshootingcenter.com/
5980,"Gibson's Outpsot & Shooting Range, Inc.",1712 Lawson Rd,TX,Mesquite,75181-1932,(972) 222-8127,Non-NSSF,"['Public', 'Outdoor', 'Commercial Range', 'Handicap accessible']","['Instruction Available', 'Retail Store']","['Handguns', 'Rifles']","['Handgun/Smallbore Rifle: 200 yd/mtr', 'Center-Fire Rifle: 200 yd/mtr']",[],#
6081,Lonestar Gun Range & Resort,1570 Lawson Rd,TX,Mesquite,75181,(972) 360-3140,Non-NSSF,"['Public', 'Outdoor', ""Gun/Sportsman's Club"", 'Handicap accessible', 'Public Access', 'Memberships Available', 'Host Events Open To Public/Non-Members']","['Camper/RV Sites', 'Clubhouse/Lounge/Lodge', 'Equipment Rentals', 'Food Service/Snacks', 'Hunter Education', 'Instruction Available', 'Lodging Available', 'Picnic Area']","['Handguns', 'Rifles', 'Shotguns']","['Handgun/Smallbore Rifle: 500 yd/mtr', 'Center-Fire Rifle: 500 yd/mtr']","['3D Archery', '3 Gun/Multi Gun', 'Bench Rest', 'Handgun Metallic Silhouette', 'Hi-Power Rifle Matches', 'Muzzle Loading Events', 'Practical/Action Pistol', 'Precision Pistol', 'Rifle Metallic Silhouette', 'Rimfire Challenge', 'Skeet Competition', 'Smallbore', 'Sporting Clays/FITASC']",http://www.lonestargunclub.com
6964,U.T.A. Police Range,UNKNOWN,TX,Arlington,76019,(817) 273-3381,Non-NSSF,"['Private', 'Indoor', 'Law enforcement']",[],[],[],[],#
4840,Fusion Security and Tactical Enterprises,8975 Fm 740 South,TX,Forney,75126,(469) 334-9107,Non-NSSF,"['Private', 'Outdoor', 'Commercial Range', 'Law enforcement', 'Handicap accessible', 'Members Only', 'Memberships Available', 'Host Events Open To Public/Non-Members']","['Camper/RV Sites', 'Equipment Rentals', 'Food Service/Snacks', 'Hunter Education', 'Instruction Available', 'Junior Rifle', 'Retail Store', ""Women's Programs"", 'Youth Programs']","['Handguns', 'Rifles', 'Shotguns', 'Archery Outdoor Field', 'Archery Outdoor 3D']","['Handgun/Smallbore Rifle: 300 yd/mtr', 'Center-Fire Rifle: 500 yd/mtr']","['3 Gun/Multi Gun', 'Airgun', 'Bench Rest', 'Handgun Metallic Silhouette', 'Hi-Power Rifle Matches', 'Practical/Action Pistol', 'Precision Pistol', 'Rifle Metallic Silhouette', 'Rimfire Challenge']",http://www.fusiongunrange.com
11440,CYA Guns & Ammo,206 East US Highway 80,TX,Forney,75126,(972) 279-4292,Non-NSSF,"['Public', 'Indoor', 'Commercial Range', 'Handicap accessible', 'Public Access', 'Memberships Available', 'Host Events Open To Public/Non-Members']","['Equipment Rentals', 'Food Service/Snacks', 'Instruction Available', 'Retail Store']","['Handguns', 'Rifles', 'Shotguns']","['Handgun/Smallbore Rifle: 75 ft', 'Center-Fire Rifle: 75 ft']",['Precision Pistol'],http://www.cyaguns.com
1743,Dallas Gun Club,3601 IH35 South,TX,Lewisville,75029,(972) 462-0043,Non-NSSF,"['Private', 'Outdoor', ""Gun/Sportsman's Club"", 'Handicap accessible', 'Public Access', 'Members Only']","['Clubhouse/Lounge/Lodge', 'Equipment Rentals', 'Food Service/Snacks', 'Instruction Available', 'Lodging Available', 'Picnic Area', 'Retail Store']","['Handguns', 'Rifles', 'Shotguns']","['Handgun/Smallbore Rifle: 50 yd/mtr', 'Center-Fire Rifle: 100 yd/mtr']","['Skeet Competition', 'Trap Competition']",http://www.dallasgunclub.com
5443,TDSA (Texas Defensive Shooting Academy),1125 Wolf Springs Road,TX,Ferris,75125,(972) 217-1182,Non-NSSF,"['Private', 'Outdoor', 'Commercial Range', 'Law enforcement', 'Handicap accessible', 'Members Only', 'Memberships Available', 'Host Events Open To Public/Non-Members']","['Instruction Available', ""Women's Programs""]","['Handguns', 'Rifles']","['Handgun/Smallbore Rifle: 50 yd/mtr', 'Center-Fire Rifle: 300 yd/mtr']",['3 Gun/Multi Gun'],http://www.tdsa.net
4398,Desoto Gun Club (of Texas),470 W Sterrett Road,TX,Wacahachie,75167,(972) 576-3338,Non-NSSF,"['Private', 'Outdoor', ""Gun/Sportsman's Club""]","['Instruction Available', 'Picnic Area', ""Women's Programs""]",['Shotguns'],[],[],http://www.desotogunclubtx.com
5741,Graham Skeet Club Inc.,FM 1171,TX,Graham,76450,(940) 549-8833,Non-NSSF,"['Private', 'Outdoor', ""Gun/Sportsman's Club"", 'Members Only', 'Memberships Available']",[],['Shotguns'],[],[],#
7891,Frisco Gun Club,6565 Eldorado Pkwy,TX,Frisco,75033,(214) 618-4144,Non-NSSF,"['Public', 'Indoor', 'Commercial Range', ""Gun/Sportsman's Club"", 'Handicap accessible', 'Public Access', 'Memberships Available', 'Host Events Open To Public/Non-Members']","['Clubhouse/Lounge/Lodge', 'Equipment Rentals', 'Food Service/Snacks', 'Hunter Education', 'Instruction Available', 'Junior Rifle', 'Retail Store', ""Women's Programs"", 'Youth Programs']","['Handguns', 'Rifles', 'Shotguns']",['Handgun/Smallbore Rifle: 75 ft'],['Bench Rest'],http://www.friscogunclub.com
6692,Denton County Sports Assn.,409 Copper Canyon Rd.,TX,Argyle,76226,(972) 949-4180,Non-NSSF,"['Private', 'Outdoor', ""Gun/Sportsman's Club"", 'Members Only', 'Memberships Available']","['Equipment Rentals', 'Hunter Education', 'Instruction Available', ""Women's Programs""]",[],[],[],http://www.dentoncountysports.com
5326,The Shooting Gallery,6062A E Lancaster Ave,TX,Fort Worth,76112-6547,(817) 496-9900,Non-NSSF,"['Public', 'Indoor', 'Commercial Range', 'Handicap accessible', 'Public Access', 'Memberships Available']","['Clubhouse/Lounge/Lodge', 'Equipment Rentals', 'Food Service/Snacks', 'Instruction Available', 'Retail Store']","['Handguns', 'Rifles']","['Handgun/Smallbore Rifle: 75 ft', 'Center-Fire Rifle: 75 ft']",[],http://www.winchestergallery.com
7875,Lee's Gun Repair & Range,369 Parker Rd,TX,Palmer,75152,(972) 845-2081,Non-NSSF,"['Public', 'Outdoor', 'Commercial Range', 'Handicap accessible', 'Public Access', 'Host Events Open To Public/Non-Members']",[],"['Handguns', 'Rifles', 'Archery Outdoor Field']","['Handgun/Smallbore Rifle: 100 yd/mtr', 'Center-Fire Rifle: 100 yd/mtr']",['Airgun'],#
4055,Haltom City Rifle & Pistol,2100 Minnis Dr Highway 21 & Minnis Dr.,TX,Haltom City,76117-5369,(817) 834-8498,Non-NSSF,"['Private', 'Indoor/Outdoor', ""Gun/Sportsman's Club"", 'Handicap accessible', 'Members Only', 'Memberships Available']","['Clubhouse/Lounge/Lodge', 'Hunter Education', 'Instruction Available', 'Junior Rifle', 'Youth Programs']","['Handguns', 'Rifles']","['Handgun/Smallbore Rifle: 200 yd/mtr', 'Center-Fire Rifle: 200 yd/mtr']","['Airgun', 'Handgun Metallic Silhouette', 'Rifle Metallic Silhouette', 'Smallbore']",http://www.haltomcityrpc.org
11783,Txgunrange.com,5761 W U.S. 287,TX,Midlothian,76065,(469) 487-4810,Non-NSSF,"['Public', 'Outdoor', 'Commercial Range', 'Law enforcement', 'Handicap accessible', 'Public Access', 'Host Events Open To Public/Non-Members']","['Retail Store', ""Women's Programs""]","['Handguns', 'Rifles', 'Shotguns']","['Handgun/Smallbore Rifle: 100 yd/mtr', 'Center-Fire Rifle: 100 yd/mtr']",[],http://www.txgunrange.com
11965,The Compound Nevada,6710 Act Industries Cir,TX,Nevada,75173,(972) 853-0602,Non-NSSF,"['Public', 'Outdoor', 'Commercial Range', 'Handicap accessible', 'Public Access', 'Memberships Available', 'Host Events Open To Public/Non-Members']","['Equipment Rentals', 'Food Service/Snacks', 'Hunter Education', 'Instruction Available', 'Retail Store', ""Women's Programs"", 'Youth Programs']","['Handguns', 'Rifles']","['Handgun/Smallbore Rifle: 50 yd/mtr', 'Center-Fire Rifle: 100 yd/mtr']",['Airgun'],http://www.tcatrc.com
6106,Armadillo Gun Store & Range,6710 Act Industries Cir,TX,Nevada,75173,(972) 853-0602,Non-NSSF,"['Public', 'Outdoor', 'Commercial Range', 'Handicap accessible', 'Public Access', 'Memberships Available', 'Host Events Open To Public/Non-Members']","['Equipment Rentals', 'Food Service/Snacks', 'Hunter Education', 'Instruction Available', 'Retail Store', ""Women's Programs"", 'Youth Programs']","['Handguns', 'Rifles']","['Handgun/Smallbore Rifle: 50 yd/mtr', 'Center-Fire Rifle: 100 yd/mtr']","['Airgun', 'Bench Rest', 'Rimfire Challenge']",http://www.armadilloguns.com
11797,The Range in McKinney,415 Industrial Boulevard,TX,McKinney,75069,(972) 330-4415,Non-NSSF,"['Public', 'Indoor', 'Commercial Range', 'Handicap accessible', 'Public Access', 'Memberships Available', 'Host Events Open To Public/Non-Members']","['Food Service/Snacks', 'Instruction Available', 'Junior Rifle', 'Retail Store']","['Handguns', 'Rifles']","['Handgun/Smallbore Rifle: 75 ft', 'Center-Fire Rifle: 75 ft']",['Rimfire Challenge'],http://www.therangeinmckinney.com
4399,"Rockwall Gun Club, Inc",15900 TX Hwy 205,TX,Terrell,75160,(972) 215-6902,Non-NSSF,"['Private', 'Outdoor', 'Commercial Range']","['Clubhouse/Lounge/Lodge', 'Equipment Rentals', 'Food Service/Snacks', 'Hunter Education', 'Instruction Available', 'Junior Rifle', 'Retail Store', ""Women's Programs"", 'Youth Programs']","['Handguns', 'Rifles', 'Shotguns', 'Archery Outdoor Field']","['Handgun/Smallbore Rifle: 500 yd/mtr', 'Handgun/Smallbore Rifle: 75 ft', 'Center-Fire Rifle: 500 yd/mtr', 'Center-Fire Rifle: 75 ft']",[],http://www.rockwallgunclub.com
5822,North Texas Shooters Association,2906 Pottery Trail,TX,Corinth,76210,(214) 794-8006,Non-NSSF,"['Private', 'Outdoor', 'Commercial Range']","['Camper/RV Sites', 'Instruction Available']",['Shotguns'],[],[],http://www.shootntsa.com
7628,North East Texas Tactical,5701 FM 2578,TX,Terrell,75160,(817) 681-6457,Non-NSSF,"['Public', 'Outdoor', ""Gun/Sportsman's Club"", 'Members Only', 'Memberships Available']","['Clubhouse/Lounge/Lodge', 'Equipment Rentals', 'Food Service/Snacks', 'Instruction Available', 'Retail Store', ""Women's Programs"", 'Youth Programs']","['Handguns', 'Rifles']","['Handgun/Smallbore Rifle: 100 yd/mtr', 'Center-Fire Rifle: 500 yd/mtr']","['Hi-Power Rifle Matches', 'Practical/Action Pistol']",http://www.northeasttexastactical.com
6934,Denton County Archers,Highway 380,TX,Aubrey,76227,(817) 365-2677,Non-NSSF,"['Private', 'Indoor/Outdoor', ""Gun/Sportsman's Club"", 'Members Only', 'Memberships Available']",['Picnic Area'],"['Archery Indoor', 'Archery Outdoor Field', 'Archery Outdoor 3D']",[],['3D Archery'],http://dentoncountyarchers.com/
7686,"Firearms Training Fort Worth/2A Freedom Shooting Co, LLC",4886 Kennedale New Hope Rd,TX,Fort Worth,76140,(469) 826-3839,Non-NSSF,"['Private', 'Outdoor', 'Commercial Range', 'Law enforcement', 'Handicap accessible']","['Equipment Rentals', 'Food Service/Snacks', 'Instruction Available', 'Picnic Area', 'Retail Store', ""Women's Programs"", 'Youth Programs']","['Handguns', 'Rifles', 'Shotguns', 'Archery Outdoor Field']","['Handgun/Smallbore Rifle: 200 yd/mtr', 'Center-Fire Rifle: 200 yd/mtr']","['3 Gun/Multi Gun', 'Airgun', 'Bench Rest', 'Handgun Metallic Silhouette', 'Practical/Action Pistol', 'Rimfire Challenge']",http://www.firearmstrainingfortworth.com
10710,Pecan Ridge Outdoor Center,8930 Farm to Market Road 1390,TX,Scurry,75158,(214) 402-7836,Non-NSSF,"['Public', 'Outdoor', ""Gun/Sportsman's Club"", 'Public Access', 'Members Only', 'Memberships Available', 'Host Events Open To Public/Non-Members']",['Instruction Available'],"['Handguns', 'Rifles', 'Shotguns', 'Archery Outdoor 3D']","['Handgun/Smallbore Rifle: 100 yd/mtr', 'Center-Fire Rifle: 100 yd/mtr']",[],http://pecanridgeodc.com
6929,Arlington Sportsmans Club Inc.,11500 CR 525,TX,Mansfield,76009,(817) 473-0581,Non-NSSF,"['Private', 'Outdoor', ""Gun/Sportsman's Club"", 'Members Only', 'Memberships Available']","['Clubhouse/Lounge/Lodge', 'Hunter Education', 'Instruction Available', 'Picnic Area']","['Rifles', 'Shotguns', 'Archery Outdoor Field', 'Archery Outdoor 3D']",['Center-Fire Rifle: 200 yd/mtr'],"['3D Archery', 'Cowboy Action Shooting', 'Handgun Metallic Silhouette', 'Skeet Competition', 'Sporting Clays/FITASC', 'Trap Competition']",http://www.arlingtonsportsman.com/
1510,Alpine Shooting Range,5482 Shelby Rd,TX,Ft. Worth,76140,(817) 478-6613,Non-NSSF,"['Public', 'Outdoor', 'Commercial Range', 'Handicap accessible', 'Public Access']","['Clubhouse/Lounge/Lodge', 'Hunter Education', 'Instruction Available', 'Picnic Area', 'Retail Store']","['Handguns', 'Rifles', 'Shotguns', 'Archery Outdoor 3D']","['Handgun/Smallbore Rifle: 50 yd/mtr', 'Center-Fire Rifle: 100 yd/mtr']",['Sporting Clays/FITASC'],http://www.alpinerange.com
11971,Northlake Shooting Sports,13055 Cleveland Gibbs Road,TX,Northlake,76262,(817) 296-6774,Non-NSSF,"['Public', 'Outdoor', 'Commercial Range', 'Handicap accessible', 'Public Access', 'Memberships Available', 'Host Events Open To Public/Non-Members']","['Equipment Rentals', 'Food Service/Snacks', 'Instruction Available', 'Picnic Area', 'Retail Store', ""Women's Programs"", 'Youth Programs']",['Shotguns'],[],"['Skeet Competition', 'Sporting Clays/FITASC', 'Trap Competition']",#
4904,Target Time,5321 FM 1187,TX,Burleson,76028,(817) 563-4200,Non-NSSF,"['Private', 'Indoor', 'Commercial Range', 'Law enforcement', 'Municipal Facility', 'Handicap accessible', 'Public Access', 'Host Events Open To Public/Non-Members']","['Equipment Rentals', 'Food Service/Snacks', 'Hunter Education', 'Instruction Available', 'Junior Rifle', 'Retail Store', ""Women's Programs"", 'Youth Programs']","['Handguns', 'Rifles']","['Handgun/Smallbore Rifle: 75 ft', 'Center-Fire Rifle: 75 ft']",[],http://www.targettimetexas.com
10962,407 Gun Club,831 Farm to Market Road 407,TX,Argyle,76226,(940) 240-1555,Non-NSSF,"['Public', 'Indoor/Outdoor', 'Law enforcement', ""Gun/Sportsman's Club"", 'Handicap accessible', 'Public Access', 'Memberships Available', 'Host Events Open To Public/Non-Members']","['Clubhouse/Lounge/Lodge', 'Instruction Available', 'Picnic Area', 'Retail Store']","['Handguns', 'Rifles', 'Archery Outdoor Field', 'Archery Outdoor 3D']","['Handgun/Smallbore Rifle: 50 yd/mtr', 'Center-Fire Rifle: 100 yd/mtr']",[],http://www.407gunclub.com
7623,Proactive Defense,I-35W at FM1171,TX,Northlake,76262,(817) 919-7990,Non-NSSF,"['Private', 'Outdoor', 'Commercial Range', 'Law enforcement', 'Municipal Facility', ""Gun/Sportsman's Club"", 'Military Facility', 'Public Access', 'Memberships Available', 'Host Events Open To Public/Non-Members']","['Equipment Rentals', 'Hunter Education', 'Instruction Available', 'Junior Rifle', 'Picnic Area', 'Retail Store', ""Women's Programs"", 'Youth Programs']","['Handguns', 'Rifles', 'Shotguns', 'Archery Outdoor Field']","['Handgun/Smallbore Rifle: 50 yd/mtr', 'Center-Fire Rifle: 50 yd/mtr']","['3 Gun/Multi Gun', 'Bench Rest', 'Cowboy Action Shooting', 'Handgun Metallic Silhouette', 'Hi-Power Rifle Matches', 'Muzzle Loading Events', 'Practical/Action Pistol', 'Precision Pistol', 'Rimfire Challenge', 'Smallbore']",http://www.proactivedefense.net
9814,Trigger Time Ranch,2341 NW State Hwy 11,TX,Leonard,75452,214-876-8919,Non-NSSF,"['Private', 'Outdoor', 'Law enforcement', 'Municipal Facility', ""Gun/Sportsman's Club"", 'Members Only', 'Memberships Available', 'Host Events Open To Public/Non-Members']","['Clubhouse/Lounge/Lodge', 'Equipment Rentals', 'Instruction Available', 'Picnic Area', ""Women's Programs"", 'Youth Programs']","['Handguns', 'Rifles']","['Handgun/Smallbore Rifle: 50 yd/mtr', 'Center-Fire Rifle: 100 yd/mtr']",[],http://www.triggertimeranch.com
3440,Little Big Bore,500 Northridge St,TX,Denton,76201-0827,,Non-NSSF,"['Private', 'Outdoor', ""Gun/Sportsman's Club"", 'Members Only']",[],[],[],[],#
7728,Poetry Shooting Club LLC,20495 N. State Hwy 34,TX,Terrell,75161,(214) 728-2755,Non-NSSF,"['Private', 'Outdoor', 'Hunting Preserve', 'Public Access', 'Memberships Available', 'Host Events Open To Public/Non-Members']","['Camper/RV Sites', 'Equipment Rentals', 'Instruction Available', 'Picnic Area', 'Youth Programs']","['Rifles', 'Archery Outdoor Field']",['Center-Fire Rifle: 500 yd/mtr'],['Airgun'],http://www.poetryshootingclub.com
4896,Ammo Depot,4725 FM 36 South,TX,Caddo Mills,75135,(903) 527-6123,Non-NSSF,"['Public', 'Indoor', 'Commercial Range', 'Handicap accessible', 'Public Access', 'Host Events Open To Public/Non-Members']","['Clubhouse/Lounge/Lodge', 'Food Service/Snacks', 'Instruction Available', 'Retail Store']","['Handguns', 'Rifles', 'Shotguns']","['Handgun/Smallbore Rifle: 50 ft', 'Center-Fire Rifle: 50 ft']",['Airgun'],#
7518,"Terrell Rifle & Pistol Club, Inc.",17405 County Road 345,TX,Terrell,75161,(720) 979-4209,Non-NSSF,"['Private', 'Outdoor', ""Gun/Sportsman's Club"", 'Handicap accessible', 'Members Only', 'Memberships Available']",[],[],[],[],http://www.terrellriflepistolclub.org/
1800,Elk Castle Shooting Sports,8240 West Freeway,TX,Fort Worth,76108,(817) 246-4622,Non-NSSF,"['Public', 'Indoor', 'Commercial Range', 'Law enforcement', 'Handicap accessible']","['Equipment Rentals', 'Instruction Available', 'Retail Store', ""Women's Programs"", 'Youth Programs']","['Handguns', 'Rifles']","['Handgun/Smallbore Rifle: 50 ft', 'Center-Fire Rifle: 50 ft']",[],http://www.elkcastle.com
5285,Off Duty Armory,2865 SW Wilshire Blvd,TX,Burleson,76028-6333,(817) 295-3373,Non-NSSF,"['Public', 'Indoor', 'Commercial Range', 'Law enforcement', 'Handicap accessible', 'Public Access']","['Equipment Rentals', 'Instruction Available', 'Retail Store']",['Handguns'],['Handgun/Smallbore Rifle: 75 ft'],[],http://www.offdutyarmory.com
2223,Fort Worth Trap and Skeet Club,1064 Fm 2871,TX,Fort Worth,76126-9567,(817) 244-9878,Non-NSSF,"['Private', 'Outdoor', 'Commercial Range', 'Handicap accessible', 'Memberships Available']","['Camper/RV Sites', 'Clubhouse/Lounge/Lodge', 'Food Service/Snacks', 'Instruction Available']",['Shotguns'],[],"['Skeet Competition', 'Trap Competition']",http://www.claytargetsonline.com/club.php/1825
4943,Special Operations Systems LLC,11641 S Interstate 35 W,TX,Grandview,76050-3522,(888) 281-7811,Non-NSSF,"['Private', 'Outdoor', 'Commercial Range', 'Law enforcement', 'Military Facility', 'Handicap accessible', 'Public Access', 'Host Events Open To Public/Non-Members']","['Instruction Available', 'Picnic Area', 'Retail Store']","['Handguns', 'Rifles', 'Shotguns']","['Handgun/Smallbore Rifle: 300 yd/mtr', 'Center-Fire Rifle: 300 yd/mtr']",[],http://www.specopsystems.com
6913,Fort Wolters Range (KD),Route 1 Box 488J,TX,Azle,76020,(817) 444-4844,Non-NSSF,"['Private', 'Outdoor', ""Gun/Sportsman's Club"", 'Memberships Available']",[],[],[],['Rifle Metallic Silhouette'],#
2588,Top-Flight Hunting Preserve,1164 County Road 102,TX,Columbus,78934,(979) 732-9196,Non-NSSF,"['Public', 'Outdoor', 'Commercial Range']",['Lodging Available'],[],[],[],http://www.topflighthunting.com
7542,VX Marksmanship LLC,376 County Road 4004,TX,Decatur,76234,(817) 851-2618,Non-NSSF,"['Private', 'Outdoor', 'Law enforcement', ""Gun/Sportsman's Club"", 'Military Facility', 'Handicap accessible', 'Public Access', 'Memberships Available']","['Camper/RV Sites', 'Clubhouse/Lounge/Lodge', 'Equipment Rentals', 'Food Service/Snacks', 'Instruction Available', 'Junior Rifle', 'Lodging Available', 'Picnic Area', ""Women's Programs""]","['Handguns', 'Rifles', 'Shotguns', 'Archery Outdoor Field']","['Handgun/Smallbore Rifle: 500 yd/mtr', 'Center-Fire Rifle: 500 yd/mtr']","['Bench Rest', 'Cowboy Action Shooting', 'Handgun Metallic Silhouette', 'Hi-Power Rifle Matches', 'Muzzle Loading Events', 'Precision Pistol', 'Rifle Metallic Silhouette', 'Skeet Competition', 'Smallbore']",http://www.vxmarksmanship.com
8006,Mission160 Gun Club,6040 Highway 160,TX,Whitewright,75491,972-978-1103,Non-NSSF,"['Private', 'Outdoor', ""Gun/Sportsman's Club"", 'Handicap accessible', 'Members Only', 'Memberships Available', 'Host Events Open To Public/Non-Members']","['Instruction Available', 'Picnic Area']","['Handguns', 'Shotguns']",['Handgun/Smallbore Rifle: 75 ft'],['Practical/Action Pistol'],http://mission160.com
4348,"Jacobs Plain Gun Club, Inc.",6734 Fm 118,TX,Greenville,75401-6171,(903) 455-2264,Non-NSSF,"['Public', 'Outdoor', 'Commercial Range', 'Handicap accessible', 'Public Access']","['Clubhouse/Lounge/Lodge', 'Equipment Rentals', 'Food Service/Snacks', 'Hunter Education', 'Instruction Available', 'Lodging Available', 'Picnic Area', 'Retail Store', ""Women's Programs"", 'Youth Programs']","['Handguns', 'Rifles', 'Shotguns', 'Archery Outdoor 3D']","['Handgun/Smallbore Rifle: 50 yd/mtr', 'Center-Fire Rifle: 100 yd/mtr']","['Cowboy Action Shooting', 'Handgun Metallic Silhouette', 'Practical/Action Pistol']",http://www.jacobsplain.com
8830,Jacob's Plain Gun Club,6734 FM 118,TX,Greenville,75401,(214) 592-6068,Non-NSSF,"['Private', 'Outdoor', 'Commercial Range', ""Gun/Sportsman's Club"", 'Handicap accessible', 'Public Access', 'Members Only', 'Memberships Available', 'Host Events Open To Public/Non-Members']","['Camper/RV Sites', ""Women's Programs"", 'Youth Programs']","['Handguns', 'Rifles', 'Archery Outdoor Field']","['Handgun/Smallbore Rifle: 100 yd/mtr', 'Center-Fire Rifle: 100 yd/mtr']","['3 Gun/Multi Gun', 'Cowboy Action Shooting', 'Hi-Power Rifle Matches', 'Practical/Action Pistol', 'Rimfire Challenge']",http://www.jacobsplaingunclub.com
7250,Texas Pistol Academy,2552 Rose Hill Rd.,TX,Whitewright,75491,(903) 364-2076,Non-NSSF,"['Public', 'Indoor/Outdoor', 'Commercial Range', 'Handicap accessible', 'Public Access']",['Instruction Available'],[],[],[],http://www.texaspistol.com
3982,Big Rock Shooting Resort,112 E Market St,TX,Mabank,75147-2307,(903) 887-6791,Non-NSSF,"['Private', 'Outdoor', ""Gun/Sportsman's Club"", 'Members Only']",[],['Shotguns'],[],[],#
10343,"On Target Ranges No. 1, LLC",2116 Northwest 0100,TX,Corsicana,75110,(903) 229-0886,Non-NSSF,"['Public', 'Outdoor', 'Commercial Range', 'Public Access', 'Host Events Open To Public/Non-Members']","['Equipment Rentals', 'Instruction Available', 'Retail Store', ""Women's Programs"", 'Youth Programs']","['Rifles', 'Shotguns', 'Archery Outdoor Field']",['Center-Fire Rifle: 50 yd/mtr'],[],http://www.ontargetranges.com
5731,Fossil Pointe Sporting Grounds,7282 N. FM 51,TX,Decatur,76234,(940) 393-6402,Non-NSSF,"['Public', 'Outdoor', 'Commercial Range', 'Handicap accessible', 'Public Access']","['Camper/RV Sites', 'Clubhouse/Lounge/Lodge', 'Instruction Available', 'Lodging Available']","['Handguns', 'Rifles', 'Shotguns']","['Handgun/Smallbore Rifle: 50 yd/mtr', 'Center-Fire Rifle: 200 yd/mtr']",['Sporting Clays/FITASC'],http://www.fossilpointe.net
5861,East Texas Sporting Clays,552 Van Zandt County Road 2142,TX,Wills Point,75169,(903) 848-0357,Non-NSSF,"['Public', 'Outdoor', 'Commercial Range']","['Clubhouse/Lounge/Lodge', 'Equipment Rentals', 'Food Service/Snacks', 'Lodging Available', 'Retail Store']","['Shotguns', 'Archery Outdoor 3D']",[],[],http://www.crumpleranch.com
5027,Triple C Tactical Training LLC,14333 Cleburne Hwy,TX,Cresson,76035,(214) 504-4761,Non-NSSF,"['Private', 'Outdoor', 'Commercial Range', 'Handicap accessible', 'Memberships Available', 'Host Events Open To Public/Non-Members']",['Picnic Area'],"['Handguns', 'Rifles']","['Handgun/Smallbore Rifle: 200 yd/mtr', 'Center-Fire Rifle: 200 yd/mtr']","['3 Gun/Multi Gun', 'Practical/Action Pistol', 'Precision Pistol']",http://www.triplectacticaltraining.com
1905,Upland Bird Country,1720 S Highway 287,TX,Corsicana,75151,(903) 872-5663,Non-NSSF,"['Public', 'Outdoor', 'Hunting Preserve', 'Handicap accessible']","['Camper/RV Sites', 'Clubhouse/Lounge/Lodge', 'Instruction Available', 'Lodging Available', 'Picnic Area']",['Shotguns'],[],[],http://www.uplandbird.com
7435,Big Rock Gun Club,VZCR 2901 1 Mile East of FM 316,TX,Eustace,75124,(972) 644-7981,Non-NSSF,"['Private', 'Outdoor', ""Gun/Sportsman's Club"", 'Handicap accessible', 'Members Only', 'Memberships Available']","['Instruction Available', 'Junior Rifle', 'Picnic Area', 'Youth Programs']","['Handguns', 'Rifles', 'Archery Outdoor Field']","['Handgun/Smallbore Rifle: 50 yd/mtr', 'Center-Fire Rifle: 500 yd/mtr']",['Airgun'],http://www.brgc.net/
4435,J-Bar-C Shooting Range,SR 22 Rt 2 Box 679,TX,Whitney,76692-4989,(254) 694-4806,Non-NSSF,"['Public', 'Outdoor', 'Commercial Range', 'Handicap accessible']",[],['Archery Outdoor Field'],[],[],#
6919,Allens Gunsmithing,RR 1 Box 207D-1,TX,Savoy,75479,(903) 965-7732,Non-NSSF,"['Public', 'Outdoor', 'Commercial Range']",[],[],[],[],#
4102,"Red River Firearms, LLC",2926 Texoma Pkwy,TX,Sherman,75090-1906,(903) 893-8449,Non-NSSF,"['Public', 'Indoor', 'Commercial Range', 'Law enforcement', ""Gun/Sportsman's Club"", 'Handicap accessible', 'Public Access', 'Memberships Available']","['Clubhouse/Lounge/Lodge', 'Equipment Rentals', 'Food Service/Snacks', 'Hunter Education', 'Instruction Available', 'Retail Store', ""Women's Programs"", 'Youth Programs']",['Handguns'],['Handgun/Smallbore Rifle: 75 ft'],[],http://www.rrfeast.com/
7583,Denison Sporting Clays,1747 Desvoignes Rd,TX,Denison,75021,(903) 647-5265,Non-NSSF,"['Public', 'Outdoor', 'Commercial Range', ""Gun/Sportsman's Club"", 'Public Access', 'Memberships Available']","['Equipment Rentals', 'Food Service/Snacks', 'Hunter Education', 'Instruction Available', 'Junior Rifle', 'Picnic Area', ""Women's Programs"", 'Youth Programs']",['Shotguns'],[],[],#
11054,Double Diamond Gun Range,2065 U.S. 277,TX,Anson,79501,(325) 823-4867,NSSF,"['Public', 'Indoor', 'Commercial Range', 'Handicap accessible', 'Public Access', 'Memberships Available', 'Host Events Open To Public/Non-Members']","['Equipment Rentals', 'Instruction Available', 'Retail Store']","['Handguns', 'Rifles']","['Handgun/Smallbore Rifle: 75 ft', 'Center-Fire Rifle: 75 ft']",[],#
4979,Pirates Den Sports Center Indoor Range,304 N Park St,TX,Granbury,76048,(817) 573-5125,Non-NSSF,"['Public', 'Indoor', 'Commercial Range', 'Handicap accessible', 'Public Access', 'Memberships Available', 'Host Events Open To Public/Non-Members']",[],[],[],[],http://www.piratesdensports.com
7313,Weatherford Gun Club,PO Box 211,TX,Dennis,76439,(817) 596-8656,Non-NSSF,"['Private', 'Outdoor', ""Gun/Sportsman's Club""]",[],[],[],[],#
3684,Parker County Sportsman Club,6700 N. Advance Rd,TX,Poolville,76086-0424,,Non-NSSF,"['Private', 'Indoor/Outdoor', ""Gun/Sportsman's Club"", 'Members Only']",[],['Archery Outdoor Field'],[],[],http://www.parkersportsman.com
3339,Brazos River Gun and Archery,PO Box 224,TX,Mineral Wells,76068-0224,(940) 325-0234,Non-NSSF,"['Private', 'Outdoor', ""Gun/Sportsman's Club"", 'Members Only']",[],['Shotguns'],[],[],http://brgac.org/
6931,Bise Brothers Shooting Range,UNKNOWN,TX,Glen Rose,76043,(817) 897-3663,Non-NSSF,"['Public', 'Outdoor', 'Commercial Range', 'Memberships Available']",[],"['Shotguns', 'Archery Outdoor Field']",[],[],#
6055,Way Out West Shooting Center,16400 281 South,TX,Santo,76472,(254) 413-5416,Non-NSSF,"['Public', 'Outdoor', 'Commercial Range', 'Handicap accessible', 'Public Access', 'Host Events Open To Public/Non-Members']",[],"['Handguns', 'Rifles', 'Shotguns', 'Archery Outdoor Field']","['Handgun/Smallbore Rifle: 200 yd/mtr', 'Center-Fire Rifle: 200 yd/mtr']",['Airgun'],https://www.facebook.com/wayoutwestsc/
3630,Lone Star Sporting Clays,3355 W Highway 67,TX,Glen Rose,76043-5810,(254) 897-2918,Non-NSSF,"['Public', 'Outdoor', 'Commercial Range', ""Gun/Sportsman's Club"", 'Handicap accessible', 'Public Access']","['Clubhouse/Lounge/Lodge', 'Equipment Rentals', 'Food Service/Snacks', 'Instruction Available', 'Picnic Area', ""Women's Programs"", 'Youth Programs']",['Shotguns'],[],['Sporting Clays/FITASC'],http://www.lonestarsportingclays.com
6710,Wades Shooting Range,FM 1749,TX,Bowie,76230,(817) 872-2449,Non-NSSF,"['Private', 'Outdoor', ""Gun/Sportsman's Club""]",[],[],[],[],#
6454,Rough Creek Lodge,5165 County Road 2013 P.O. Box 2400,TX,Glen Rose,75043,(888) 670-1223,Non-NSSF,"['Private', 'Outdoor', 'Commercial Range', 'Hunting Preserve', 'Public Access']","['Clubhouse/Lounge/Lodge', 'Food Service/Snacks', 'Instruction Available', 'Lodging Available']","['Rifles', 'Shotguns']",['Center-Fire Rifle: 500 yd/mtr'],[],http://www.roughcreek.com
10014,Gun Runner Shooting Sports,2763 FM 1125,TX,Bowie,76230,940-343-7603,Non-NSSF,"['Private', 'Outdoor', ""Gun/Sportsman's Club"", 'Handicap accessible', 'Members Only', 'Memberships Available', 'Host Events Open To Public/Non-Members']","['Equipment Rentals', 'Instruction Available', 'Picnic Area']","['Handguns', 'Rifles', 'Archery Outdoor Field']","['Handgun/Smallbore Rifle: 100 yd/mtr', 'Center-Fire Rifle: 100 yd/mtr']","['3D Archery', '3 Gun/Multi Gun', 'Airgun', 'Handgun Metallic Silhouette', 'Practical/Action Pistol', 'Precision Pistol', 'Rimfire Challenge']",http://gr-ss.com
7772,Nichols Guns,10525 Leopard St,TX,Corpus Christi,78410-2601,(361) 241-4362,NSSF,"['Public', 'Indoor', 'Commercial Range', 'Handicap accessible', 'Memberships Available', 'Host Events Open To Public/Non-Members']","['Instruction Available', 'Retail Store', ""Women's Programs""]","['Handguns', 'Rifles']","['Handgun/Smallbore Rifle: 75 ft', 'Center-Fire Rifle: 75 ft']",[],http://www.nichols-guns.com/
11390,"Mission Skeet & Trap Club, Inc.",1306 S. Conway,TX,Mission,78572,(956) 583-5996,NSSF,"['Public', 'Outdoor', ""Gun/Sportsman's Club"", 'Handicap accessible', 'Public Access', 'Memberships Available', 'Host Events Open To Public/Non-Members']","['Clubhouse/Lounge/Lodge', 'Hunter Education', 'Instruction Available', 'Picnic Area', ""Women's Programs"", 'Youth Programs']","['Handguns', 'Rifles', 'Shotguns', 'Archery Outdoor 3D']",[],"['3D Archery', 'Skeet Competition', 'Sporting Clays/FITASC', 'Trap Competition']",http://www.missionskeetandtrap.com
4318,Sheridan Outfitters Inc dba The Sharp Shooter,5515 S Staples St,TX,Corpus Christi,78411-5356,(361) 980-1190,Non-NSSF,"['Public', 'Indoor', 'Commercial Range', 'Public Access']","['Instruction Available', 'Retail Store', ""Women's Programs"", 'Youth Programs']","['Handguns', 'Rifles', 'Shotguns']",['Handgun/Smallbore Rifle: 50 ft'],"['Practical/Action Pistol', 'Precision Pistol', 'Smallbore']",http://www.thesharpshooter.com
4986,The Sharp Shooter,5515 S Staples St,TX,Corpus Christi,78411,(361) 980-1190,Non-NSSF,"['Public', 'Indoor', 'Commercial Range', 'Handicap accessible', 'Public Access', 'Memberships Available', 'Host Events Open To Public/Non-Members']","['Equipment Rentals', 'Food Service/Snacks', 'Hunter Education', 'Instruction Available', 'Retail Store', ""Women's Programs"", 'Youth Programs']","['Rifles', 'Shotguns']",[],[],http://www.thesharpshooter.com
4939,Spartan Defense,2832 fm 763,TX,Corpus Christi,78415,(361) 420-0245,Non-NSSF,"['Private', 'Indoor/Outdoor', 'Commercial Range', ""Gun/Sportsman's Club"", 'Handicap accessible', 'Public Access', 'Members Only', 'Memberships Available', 'Host Events Open To Public/Non-Members']","['Clubhouse/Lounge/Lodge', 'Equipment Rentals', 'Food Service/Snacks', 'Instruction Available']","['Handguns', 'Rifles', 'Shotguns', 'Archery Outdoor Field']","['Handgun/Smallbore Rifle: 200 yd/mtr', 'Handgun/Smallbore Rifle: 100 yd/mtr', 'Center-Fire Rifle: 200 yd/mtr', 'Center-Fire Rifle: 50 ft']","['Cowboy Action Shooting', 'Handgun Metallic Silhouette', 'Precision Pistol', 'Rimfire Challenge', 'Trap Competition']",http://www.spartandefense.com/
5713,Corpus Christi Pistol and Rifle Club,2832 FM 763,TX,Corpus Christi,78415,(361) 852-1212,Non-NSSF,"['Public', 'Outdoor', 'Commercial Range']","['Camper/RV Sites', 'Clubhouse/Lounge/Lodge', 'Instruction Available', ""Women's Programs"", 'Youth Programs']","['Shotguns', 'Archery Indoor']",[],[],http://www.ccpistolrifleclub.com
6916,San Patricio 4-H Shooting Sports,Route 2 Box 223,TX,Taft,78390,(512) 528-3280,Non-NSSF,"['Private', 'Outdoor', ""Gun/Sportsman's Club"", 'Members Only', 'Memberships Available']","['Instruction Available', 'Picnic Area']","['Shotguns', 'Archery Outdoor Field']",[],"['Handgun Metallic Silhouette', 'Rifle Metallic Silhouette']",#
6715,Starry Shooting Range,Route 1 Box 104-C,TX,Corpus Christi,78414,(361) 992-1935,Non-NSSF,"['Public', 'Outdoor', 'Commercial Range']","['Clubhouse/Lounge/Lodge', 'Instruction Available']","['Shotguns', 'Archery Outdoor Field']",[],[],#
6713,Schwenkes Rifle & Pistol Range,R.R. 1 Box 698,TX,Aransas Pass,78336,(361) 758-2679,Non-NSSF,"['Private', 'Outdoor', 'Commercial Range', ""Gun/Sportsman's Club"", 'Handicap accessible', 'Members Only']",[],['Rifles'],['Center-Fire Rifle: 300 yd/mtr'],[],#
3780,4-H Range,Fairgrounds,TX,Refugio,78377,,Non-NSSF,"['Private', 'Outdoor', ""Gun/Sportsman's Club"", 'Members Only']",[],[],[],[],#
6714,R.O.T.C. Range,ROTC Bldg. Engineer Ave.,TX,Kingsville,78363,(512) 595-3201,Non-NSSF,"['Private', 'Indoor', ""Gun/Sportsman's Club"", 'Members Only']",['Instruction Available'],[],[],[],#
5883,B Bar B Ranch Inn,325 E. CR 2215,TX,Kingsville,78363,(361) 296-3331,Non-NSSF,"['Public', 'Outdoor', 'Commercial Range']","['Food Service/Snacks', 'Lodging Available']",[],[],[],http://www.b-bar-b.com/
4143,InFlight Outfitters,1031 FM 534,TX,Dinero,78350,(361) 547-0495,Non-NSSF,"['Public', 'Outdoor', 'Hunting Preserve']","['Food Service/Snacks', 'Lodging Available', 'Picnic Area']",[],[],[],http://inflightoutfitters.com
2898,Hickman's Gamebird Hunting,PO Box 1871,TX,Beeville,78104-1871,(512) 362-2473,Non-NSSF,"['Public', 'Outdoor', 'Commercial Range']",['Clubhouse/Lounge/Lodge'],['Shotguns'],[],[],#
6711,Coleys Shooting Range,FM 351,TX,Beeville,78102,(512) 362-1496,Non-NSSF,"['Private', 'Outdoor', ""Gun/Sportsman's Club""]",[],[],[],[],#
6956,Sheriffs Range,UNKNOWN,TX,George West,78022,(512) 449-2271,Non-NSSF,"['Private', 'Outdoor', 'Law enforcement']",[],[],[],[],#
6937,Goliad County Fairgrounds,UNKNOWN,TX,Goliad,77963,(512) 645-8204,Non-NSSF,"['Private', 'Indoor', ""Gun/Sportsman's Club""]",[],['Archery Indoor'],[],[],#
4031,Goliad 4-H Shotgun Club,PO Box 67,TX,Fannin,77960-0067,(512) 645-2928,Non-NSSF,"['Public', 'Outdoor', ""Gun/Sportsman's Club""]",[],['Shotguns'],[],[],#
2775,Brooks Co 4H Jr Rifle Club,Couthouse Annex,TX,Falfurrias,78355,,Non-NSSF,"['Private', 'Outdoor', ""Gun/Sportsman's Club"", 'Members Only']",[],[],[],[],#
5710,Coastal Sporting Clays,2684 State Hwy 238,TX,Port Lavaca,77979,(361) 652-2678,Non-NSSF,"['Public', 'Outdoor', 'Commercial Range']",[],['Shotguns'],[],[],http://www.coastalsportingclays.com
6682,City of Port Lavaca Police Department,201 N. Colorado St.,TX,Port Lavaca,77979,(512) 552-3788,Non-NSSF,"['Private', 'Outdoor', 'Law enforcement']",[],[],[],[],#
3770,Bay Gun Club,826 Westwood Dr,TX,Port Lavaca,77979-2130,,Non-NSSF,"['Private', 'Outdoor', ""Gun/Sportsman's Club"", 'Members Only']",[],[],[],[],#
3076,Victoria Archery Club,1308 E Mistletoe Ave,TX,Victoria,77901-3491,,Non-NSSF,"['Private', 'Outdoor', ""Gun/Sportsman's Club"", 'Members Only']",[],[],[],[],#
6696,Bois De Arc Gun Range,501 Ivanhoe,TX,Victoria,77901,(512) 578-6991,Non-NSSF,"['Private', 'Outdoor', ""Gun/Sportsman's Club""]",[],[],[],[],#
5394,Victoria Skeet and Trap Club,2616 Perimeter Road PO Box 4116,TX,Victoria,77903,(361) 573-4867,Non-NSSF,"['Private', 'Outdoor', 'Municipal Facility', ""Gun/Sportsman's Club"", 'Handicap accessible']","['Clubhouse/Lounge/Lodge', 'Picnic Area', ""Women's Programs"", 'Youth Programs']",['Shotguns'],[],"['Skeet Competition', 'Trap Competition']",http://www.victoriaskeetandtrapclub.com
6449,74 Ranch Resort,12200 FM 791 West,TX,Campbellton,78008,(830) 579-7474,Non-NSSF,"['Public', 'Outdoor', 'Commercial Range', 'Public Access']","['Clubhouse/Lounge/Lodge', 'Food Service/Snacks', 'Instruction Available', 'Lodging Available', 'Picnic Area']",['Shotguns'],[],[],http://www.74ranch.com
2897,"Cuero Gun Club, Inc.",Hwy 1447,TX,Cuero,77954,(888) 846-8745,Non-NSSF,"['Private', 'Outdoor', 'Commercial Range', 'Members Only', 'Memberships Available']","['Clubhouse/Lounge/Lodge', 'Hunter Education', 'Instruction Available', 'Junior Rifle', ""Women's Programs"", 'Youth Programs']","['Rifles', 'Shotguns']",['Center-Fire Rifle: 100 yd/mtr'],"['Bench Rest', 'Practical/Action Pistol', 'Skeet Competition', 'Trap Competition']",http://www.cuerogunclub.webs.com
3369,El Canelo Ranch,1 Canelo Ranch Rd PO Box 487,TX,Raymondville,78580,(956) 607-7200,Non-NSSF,"['Public', 'Outdoor', 'Hunting Preserve']","['Clubhouse/Lounge/Lodge', 'Food Service/Snacks', 'Lodging Available', 'Picnic Area', ""Women's Programs""]",[],[],[],http://www.elcaneloranch.com
7469,Lozano Shooting Ranger/Texas Gun Club,5.5 Miles W 1017,TX,Linn,78563,(956) 739-1177,Non-NSSF,"['Public', 'Outdoor', 'Commercial Range', ""Gun/Sportsman's Club"", 'Handicap accessible', 'Public Access', 'Memberships Available']","['Camper/RV Sites', 'Clubhouse/Lounge/Lodge', 'Equipment Rentals', 'Food Service/Snacks', 'Instruction Available', 'Picnic Area', 'Youth Programs']","['Handguns', 'Rifles', 'Shotguns', 'Archery Outdoor 3D']","['Handgun/Smallbore Rifle: 100 yd/mtr', 'Center-Fire Rifle: 500 yd/mtr']","['3D Archery', 'Handgun Metallic Silhouette', 'Hi-Power Rifle Matches', 'Skeet Competition', 'Sporting Clays/FITASC', 'Trap Competition']",#
4391,La Media Sportsman's,Chapa Rd.,TX,Linn,78563,(956) 845-6600,Non-NSSF,"['Public', 'Outdoor', 'Commercial Range']","['Clubhouse/Lounge/Lodge', 'Lodging Available']",['Shotguns'],[],[],http://www.lamedialodge.com
6967,Wilson County Sheriffs Reserve Range,UNKNOWN,TX,Floresville,781114,(210) 393-2535,Non-NSSF,"['Private', 'Outdoor', 'Law enforcement']",['Instruction Available'],[],[],['Handgun Metallic Silhouette'],#
6426,"Saenz Ranch/S & G Tactical Training, Inc.",Saenz Ranch 1017 Farm Road,TX,Hebbronville,78361,(956) 763-0607,Non-NSSF,"['Public', 'Outdoor', 'Commercial Range']","['Equipment Rentals', 'Instruction Available']","['Handguns', 'Rifles', 'Shotguns']","['Handgun/Smallbore Rifle: 300 yd/mtr', 'Center-Fire Rifle: 200 yd/mtr']",[],#
4390,Rio Grande Valley Shooting Center,PO Box 465,TX,Rio Hondo,78583-0465,(956) 748-3626,Non-NSSF,"['Public', 'Outdoor', 'Commercial Range']",[],"['Shotguns', 'Archery Outdoor Field']",[],[],#
6965,Valley Gun Club,PO Box 1303,TX,Harlingen,78551,(956) 687-9371,Non-NSSF,"['Private', 'Outdoor', ""Gun/Sportsman's Club"", 'Members Only', 'Memberships Available']",[],"['Handguns', 'Rifles']","['Handgun/Smallbore Rifle: 50 yd/mtr', 'Center-Fire Rifle: 200 yd/mtr']","['Handgun Metallic Silhouette', 'Rifle Metallic Silhouette']",#
2060,Los Cuernos Ranch,PO Box 697,TX,Cotulla,78014-0697,(210) 676-3317,Non-NSSF,"['Public', 'Outdoor', 'Commercial Range', 'Handicap accessible']",['Equipment Rentals'],['Shotguns'],[],[],#
10666,A Place to Shoot,13250 Pleasanton Road,TX,San Antonio,78221,(210) 628-1888,Non-NSSF,"['Public', 'Outdoor', 'Commercial Range', 'Handicap accessible', 'Public Access', 'Host Events Open To Public/Non-Members']","['Hunter Education', 'Instruction Available', 'Picnic Area', 'Retail Store']","['Handguns', 'Rifles', 'Shotguns', 'Archery Outdoor Field']","['Handgun/Smallbore Rifle: 100 yd/mtr', 'Center-Fire Rifle: 100 yd/mtr']",['Cowboy Action Shooting'],http://www.aplacetoshoot.com
6950,Pharr Rifle & Pistol Club,PO Box 3551,TX,McAllen,78502,(210) 380-9926,Non-NSSF,"['Private', 'Outdoor', ""Gun/Sportsman's Club"", 'Members Only', 'Memberships Available']",['Instruction Available'],[],[],['Muzzle Loading Events'],http://pasc.bclaunch.net/prpc/index.htm
7599,Point Blank Sporting Goods,407 N. Jackson,TX,Pharr,78577,(956) 992-8799,Non-NSSF,"['Public', 'Indoor', 'Commercial Range', 'Handicap accessible', 'Public Access', 'Memberships Available']","['Food Service/Snacks', 'Hunter Education', 'Instruction Available', 'Retail Store', ""Women's Programs"", 'Youth Programs']","['Handguns', 'Rifles', 'Archery Indoor']","['Handgun/Smallbore Rifle: 75 ft', 'Center-Fire Rifle: 75 ft']",['3D Archery'],http://www.pointblanksg.com
5247,Alamo Gun Club,2-1/2 Miles South Tower Road,TX,Alamo,78516,(956) 702-3474,Non-NSSF,"['Private', 'Outdoor', ""Gun/Sportsman's Club"", 'Handicap accessible', 'Members Only']",[],['Rifles'],['Center-Fire Rifle: 50 yd/mtr'],[],#
4755,Shooter's Alley,703 W 2 Mile Line,TX,Mission,78574,(956) 580-1717,Non-NSSF,"['Public', 'Indoor', 'Commercial Range', 'Handicap accessible', 'Public Access', 'Memberships Available']","['Equipment Rentals', 'Food Service/Snacks', 'Instruction Available', 'Junior Rifle', 'Retail Store', 'Youth Programs']","['Handguns', 'Rifles']","['Handgun/Smallbore Rifle: 75 ft', 'Center-Fire Rifle: 75 ft']",['Airgun'],http://www.shootersalley.net
3308,U Ks Border Patrol,2301 S Main St,TX,McAllen,78503-3147,,Non-NSSF,"['Public', 'Outdoor']",[],[],[],[],#
6455,Sandy Oaks Ranch,IH 35 South 1480,TX,Devine,78016,(830) 663-5005,Non-NSSF,"['Public', 'Outdoor', 'Hunting Preserve', 'Memberships Available']","['Clubhouse/Lounge/Lodge', 'Instruction Available']","['Shotguns', 'Archery Outdoor Field']",[],"['3D Archery', 'Sporting Clays/FITASC']",http://www.sandyoaksranch.com
7784,South Texas Tactical,2100 Village Center Dr,TX,Brownsville,78526-4398,(956) 572-4476,Non-NSSF,"['Public', 'Indoor', 'Commercial Range', 'Law enforcement', 'Handicap accessible', 'Public Access', 'Memberships Available', 'Host Events Open To Public/Non-Members']","['Equipment Rentals', 'Instruction Available', 'Retail Store', ""Women's Programs""]","['Handguns', 'Rifles']","['Handgun/Smallbore Rifle: 75 ft', 'Center-Fire Rifle: 75 ft']",[],#
7012,"Massey's Gun Shop & Range, LLC",1 Massey Way,TX,Brownsville,78521,(956) 346-6950,Non-NSSF,"['Public', 'Indoor/Outdoor', 'Commercial Range', 'Handicap accessible', 'Public Access', 'Memberships Available']","['Hunter Education', 'Instruction Available', 'Junior Rifle', 'Picnic Area', ""Women's Programs"", 'Youth Programs']","['Handguns', 'Rifles', 'Shotguns']","['Handgun/Smallbore Rifle: 300 yd/mtr', 'Center-Fire Rifle: 300 yd/mtr']","['Handgun Metallic Silhouette', 'Hi-Power Rifle Matches', 'Precision Pistol', 'Rifle Metallic Silhouette']",http://www.masseysgunshoprange.com/
6175,South Texas Shooting Complex Inc.,4610 San Bernardo Ste C-2,TX,Laredo,78041,(361) 586-4281,Non-NSSF,"['Public', 'Outdoor', 'Commercial Range', ""Gun/Sportsman's Club"", 'Public Access', 'Memberships Available']","['Clubhouse/Lounge/Lodge', ""Women's Programs"", 'Youth Programs']",['Shotguns'],[],"['Skeet Competition', 'Sporting Clays/FITASC', 'Trap Competition']",http://www.texasshootingcomplex.com
5353,Blackhawk Shooting Range,12135 Jarratt Road,TX,Atascosa,78002,(210) 622-9620,Non-NSSF,"['Public', 'Outdoor', 'Commercial Range', 'Law enforcement', 'Public Access', 'Memberships Available', 'Host Events Open To Public/Non-Members']",[],"['Handguns', 'Rifles']","['Handgun/Smallbore Rifle: 50 yd/mtr', 'Center-Fire Rifle: 100 yd/mtr']",['Practical/Action Pistol'],http://www.blackhawkshootingrange.com/BlackhawkShootingRange/Welcome.html
5707,Club Deportivo De Cazadores Monterrey S.C.,1211 San Dario Ave #840,TX,Laredo,78040,,Non-NSSF,"['Public', 'Outdoor', ""Gun/Sportsman's Club""]",[],['Shotguns'],[],[],#
5791,Loma Alta Skeet & Trap Inc,500 Old Isabel Port Rd,TX,Brownsville,78526,(956) 371-7436,Non-NSSF,"['Public', 'Outdoor', 'Commercial Range', 'Members Only', 'Memberships Available']",[],['Shotguns'],[],[],#
6968,Zapata County Sheriff's Department,UNKNOWN,TX,Zapata,78076,(210) 765-9960,Non-NSSF,"['Private', 'Outdoor', 'Law enforcement']",[],[],[],[],#
6670,Meyers Rifle & Pistol Range,100 Aguirre,TX,Rio Grande City,78582,(210) 487-4699,Non-NSSF,"['Private', 'Outdoor', ""Gun/Sportsman's Club""]",[],[],[],[],#
6671,Starr County Sheriffs Dept.,100 E. 6th St.,TX,Rio Grande City,78582,(210) 487-5571,Non-NSSF,"['Private', 'Outdoor', 'Law enforcement']",[],[],[],[],#
4544,Bullet Hole Shooting Range,2715 Grosenbacher Rd,TX,San Antonio,78245-3601,(210) 679-6781,Non-NSSF,"['Public', 'Outdoor', 'Commercial Range', 'Handicap accessible', 'Public Access', 'Memberships Available']","['Equipment Rentals', 'Food Service/Snacks', 'Hunter Education', 'Instruction Available', 'Retail Store', 'Youth Programs']","['Handguns', 'Rifles', 'Shotguns']","['Handgun/Smallbore Rifle: 100 yd/mtr', 'Center-Fire Rifle: 300 yd/mtr']","['Airgun', 'Practical/Action Pistol']",http://www.bullethole.com
7319,National Shooting Complex,5931 Roft Rd,TX,San Antonio,78253-9261,(210) 688-3371,Non-NSSF,"['Public', 'Outdoor', 'Commercial Range', 'Handicap accessible', 'Public Access']","['Clubhouse/Lounge/Lodge', 'Equipment Rentals', 'Instruction Available', 'Lodging Available', 'Picnic Area']","['Handguns', 'Shotguns', 'Archery Outdoor Field']",['Handgun/Smallbore Rifle: 50 yd/mtr'],[],http://www.nationalshootingcomplex.com
6712,Wintergarden Rod & Gun Club,Hwy. 183 N.,TX,Carrizo Springs,78834,(210) 876-3458,Non-NSSF,"['Private', 'Outdoor', ""Gun/Sportsman's Club""]",[],[],[],[],#
6095,Trevino Shooting Range,186 Molina St Trevino Ranch,TX,Eagle Pass,78852,(830) 213-0157,Non-NSSF,"['Public', 'Outdoor', 'Commercial Range', 'Host Events Open To Public/Non-Members']",[],"['Handguns', 'Rifles', 'Shotguns', 'Archery Outdoor Field']","['Handgun/Smallbore Rifle: 200 yd/mtr', 'Center-Fire Rifle: 200 yd/mtr']",['Airgun'],#
3928,Star Ranch,PO Box 338,TX,La Pryor,78872-0338,(830) 365-4405,Non-NSSF,"['Private', 'Outdoor', ""Gun/Sportsman's Club"", 'Members Only']",[],[],[],[],#
11033,Hidden Meadows in Hopedale,427 Weyrich Road,TX,Eagle Pass,78852,(830) 231-9559,Non-NSSF,"['Public', 'Outdoor', 'Commercial Range', 'Handicap accessible', 'Public Access', 'Memberships Available', 'Host Events Open To Public/Non-Members']","['Equipment Rentals', 'Picnic Area']","['Handguns', 'Rifles', 'Shotguns', 'Archery Outdoor 3D']","['Handgun/Smallbore Rifle: 50 yd/mtr', 'Center-Fire Rifle: 50 yd/mtr']","['3D Archery', 'Precision Pistol']",#
7673,Gun Central,6010 Gateway East Blvd,TX,El Paso,79905,(915) 778-4867,NSSF,"['Public', 'Indoor', 'Commercial Range', ""Gun/Sportsman's Club"", 'Handicap accessible', 'Public Access', 'Memberships Available']","['Camper/RV Sites', 'Equipment Rentals', 'Junior Rifle', 'Retail Store', ""Women's Programs"", 'Youth Programs']","['Handguns', 'Rifles', 'Archery Indoor']","['Handgun/Smallbore Rifle: 50 ft', 'Center-Fire Rifle: 50 ft']",['Airgun'],#
2408,Ysleta Gun Club,18501 Indian Hills,TX,El Paso,79926-6134,(915) 855-0737,Non-NSSF,"['Public', 'Outdoor', ""Gun/Sportsman's Club""]",[],"['Handguns', 'Rifles']","['Handgun/Smallbore Rifle: 50 yd/mtr', 'Center-Fire Rifle: 50 yd/mtr']","['Handgun Metallic Silhouette', 'Rifle Metallic Silhouette']",#
4649,"Sportsman's Elite, LLC",4520 Doniphan Dr,TX,El Paso,79922,(915) 587-4867,Non-NSSF,"['Public', 'Indoor', 'Commercial Range', ""Gun/Sportsman's Club"", 'Handicap accessible', 'Public Access', 'Memberships Available', 'Host Events Open To Public/Non-Members']","['Clubhouse/Lounge/Lodge', 'Equipment Rentals', 'Food Service/Snacks', 'Hunter Education', 'Instruction Available', 'Retail Store', ""Women's Programs""]","['Handguns', 'Rifles', 'Archery Outdoor 3D']","['Handgun/Smallbore Rifle: 75 ft', 'Center-Fire Rifle: 75 ft']","['3D Archery', '3 Gun/Multi Gun', 'Airgun', 'Bench Rest', 'Practical/Action Pistol', 'Precision Pistol', 'Rimfire Challenge', 'Smallbore']",http://www.sportsmanseliteep.com/
6341,Fort Bliss Rod And Gun Club,"Bldg. 3730, Roy Johnson Lane east of Railroad Drive and Deer Street",TX,El Paso,79906-0118,(915) 568-2983,Non-NSSF,"['Public', 'Indoor/Outdoor', 'Commercial Range', ""Gun/Sportsman's Club"", 'Military Facility', 'Handicap accessible', 'Public Access', 'Memberships Available']","['Clubhouse/Lounge/Lodge', 'Food Service/Snacks', 'Hunter Education', 'Instruction Available', 'Junior Rifle', 'Picnic Area', 'Retail Store', ""Women's Programs"", 'Youth Programs']","['Handguns', 'Rifles', 'Shotguns', 'Archery Outdoor Field', 'Archery Outdoor 3D']","['Handgun/Smallbore Rifle: 500 yd/mtr', 'Center-Fire Rifle: 500 yd/mtr']","['Cowboy Action Shooting', 'Handgun Metallic Silhouette', 'Hi-Power Rifle Matches', 'Muzzle Loading Events', 'Practical/Action Pistol', 'Precision Pistol', 'Rifle Metallic Silhouette', 'Rimfire Challenge', 'Skeet Competition', 'Smallbore', 'Sporting Clays/FITASC', 'Trap Competition']",http://www.blissmwr.com/rodandgun/
4252,El Paso Skeet and Trap Club,9817 Alameda Ave,TX,El Paso,79927-2833,(915) 859-7325,Non-NSSF,"['Public', 'Outdoor', 'Commercial Range', ""Gun/Sportsman's Club""]","['Camper/RV Sites', 'Clubhouse/Lounge/Lodge', 'Hunter Education', 'Instruction Available', 'Picnic Area', 'Retail Store', ""Women's Programs"", 'Youth Programs']",['Shotguns'],[],"['Skeet Competition', 'Trap Competition']",http://www.shootelpaso.com
7351,Tactical Ranch,5300 Hueco Tanks Rd,TX,El Paso,79938,(915) 855-8056,Non-NSSF,"['Public', 'Outdoor', 'Commercial Range', 'Law enforcement', 'Municipal Facility', ""Gun/Sportsman's Club"", 'Public Access', 'Members Only', 'Memberships Available', 'Host Events Open To Public/Non-Members']","['Clubhouse/Lounge/Lodge', 'Equipment Rentals', 'Instruction Available', 'Picnic Area', ""Women's Programs""]","['Handguns', 'Rifles', 'Shotguns']","['Handgun/Smallbore Rifle: 500 yd/mtr', 'Center-Fire Rifle: 500 yd/mtr']","['3 Gun/Multi Gun', 'Handgun Metallic Silhouette', 'Hi-Power Rifle Matches', 'Precision Pistol', 'Smallbore']",http://www.tacticalranch.com
5540,Van Horn Shooting Range,14460 Frontage Rd,TX,Van Horn,79855,(432) 207-0873,Non-NSSF,"['Public', 'Outdoor', 'Commercial Range', 'Law enforcement', ""Gun/Sportsman's Club"", 'Public Access', 'Memberships Available', 'Host Events Open To Public/Non-Members']","['Instruction Available', ""Women's Programs"", 'Youth Programs']","['Handguns', 'Rifles', 'Shotguns']","['Handgun/Smallbore Rifle: 50 yd/mtr', 'Center-Fire Rifle: 200 yd/mtr']",[],#
6215,Uvalde Gun Club,Sul Ross Rd,TX,Uvalde,78802,(830) 591-7980,Non-NSSF,"['Private', 'Outdoor', ""Gun/Sportsman's Club"", 'Members Only', 'Memberships Available']",[],['Shotguns'],[],[],#
5655,Aerial Targeting Systems,2730 County Road 400,TX,Uvalde,78801,(830) 591-7860,Non-NSSF,"['Public', 'Outdoor', 'Commercial Range']",[],['Shotguns'],[],[],#
4507,Bandera Gun Club,809 Ranch Road 1077,TX,Bandera,78003-4246,(830) 796-4610,Non-NSSF,"['Public', 'Outdoor', 'Commercial Range', ""Gun/Sportsman's Club"", 'Public Access', 'Memberships Available']","['Clubhouse/Lounge/Lodge', 'Equipment Rentals', 'Food Service/Snacks', 'Instruction Available', 'Retail Store']","['Handguns', 'Rifles', 'Shotguns']","['Handgun/Smallbore Rifle: 100 yd/mtr', 'Center-Fire Rifle: 100 yd/mtr']","['Bench Rest', 'Rifle Metallic Silhouette', 'Skeet Competition', 'Trap Competition']",http://www.banderagunclub.com
11779,Legendary Shooting Sports LLC,101 Slaton Drive,TX,Nash,75569,(903) 336-6139,NSSF,"['Public', 'Indoor', 'Commercial Range', 'Law enforcement', 'Municipal Facility', ""Gun/Sportsman's Club"", 'Handicap accessible', 'Public Access', 'Memberships Available', 'Host Events Open To Public/Non-Members']","['Equipment Rentals', 'Instruction Available', 'Retail Store', ""Women's Programs""]","['Handguns', 'Rifles']","['Handgun/Smallbore Rifle: 75 ft', 'Center-Fire Rifle: 75 ft']",[],http://www.legendaryshootingsports.com
7823,6S Ranch,8159 County Rd 313W,TX,Lindale,75771,(903) 539-1297,Non-NSSF,"['Public', 'Outdoor', ""Gun/Sportsman's Club"", 'Handicap accessible', 'Public Access', 'Memberships Available']",['Clubhouse/Lounge/Lodge'],['Shotguns'],[],[],http://www.6-s-ranch.com
7753,Turkey Hill Sprotsmans Club,367 County Road 2231,TX,Mineola,75773,(903) 569-5604,Non-NSSF,"['Private', 'Outdoor', ""Gun/Sportsman's Club"", 'Handicap accessible', 'Members Only', 'Memberships Available']","['Clubhouse/Lounge/Lodge', 'Food Service/Snacks', 'Instruction Available', 'Picnic Area']","['Handguns', 'Rifles', 'Shotguns']","['Handgun/Smallbore Rifle: 100 yd/mtr', 'Center-Fire Rifle: 50 yd/mtr']","['Airgun', 'Trap Competition']",http://www.turkeyhillsportsmansclub.org
4146,Rose City Flying Clays,8474 County Road 485,TX,Tyler,75706,(903) 597-3345,Non-NSSF,"['Public', 'Outdoor', 'Commercial Range', 'Public Access']","['Camper/RV Sites', 'Instruction Available']",['Shotguns'],[],[],http://www.rosecityflyingclays.com
11240,Buffalo Creek Trap Club,5858 State Highway 64,TX,Ben Wheeler,75754,(903) 852-6192,Non-NSSF,"['Public', 'Outdoor', ""Gun/Sportsman's Club"", 'Handicap accessible', 'Public Access', 'Memberships Available', 'Host Events Open To Public/Non-Members']","['Camper/RV Sites', 'Clubhouse/Lounge/Lodge', 'Food Service/Snacks', 'Instruction Available', 'Picnic Area', 'Retail Store']","['Rifles', 'Shotguns']","['Handgun/Smallbore Rifle: 50 yd/mtr', 'Center-Fire Rifle: 1000 yd/mtr']","['Skeet Competition', 'Trap Competition']",http://5858 Hwy 64
5606,Nomads Tactical,8480 CR 3408,TX,Chandler,75758,(903) 617-9777,Non-NSSF,"['Public', 'Outdoor', 'Commercial Range', ""Gun/Sportsman's Club"", 'Public Access', 'Memberships Available', 'Host Events Open To Public/Non-Members']","['Equipment Rentals', 'Food Service/Snacks', 'Hunter Education', 'Instruction Available', 'Junior Rifle', 'Picnic Area', 'Retail Store', ""Women's Programs"", 'Youth Programs']","['Handguns', 'Rifles']","['Handgun/Smallbore Rifle: 100 yd/mtr', 'Center-Fire Rifle: 500 yd/mtr']",['Airgun'],http://www.nomadstactical.com
1906,Prairie Creek Sporting Clays,15250 CR 3111,TX,Gladewater,75647,(903) 845-6431,Non-NSSF,"['Public', 'Outdoor', 'Commercial Range']","['Camper/RV Sites', 'Clubhouse/Lounge/Lodge', 'Equipment Rentals', 'Instruction Available', 'Lodging Available', 'Picnic Area', ""Women's Programs""]",['Shotguns'],[],[],http://www.prairiecreekranch.net
7275,Winnsboro Gun Club,County Rd 4403,TX,Winnsboro,75494,(903) 850-0311,Non-NSSF,"['Private', 'Outdoor', ""Gun/Sportsman's Club"", 'Handicap accessible', 'Members Only', 'Memberships Available']",[],"['Handguns', 'Rifles', 'Shotguns', 'Archery Outdoor Field']","['Handgun/Smallbore Rifle: 100 yd/mtr', 'Center-Fire Rifle: 100 yd/mtr']","['Airgun', 'Handgun Metallic Silhouette', 'Practical/Action Pistol', 'Precision Pistol']",#
6939,Harold Dodgen Memorial Range,CR 4303,TX,Winnsboro,75494,(903) 967-7420,Non-NSSF,"['Private', 'Outdoor', ""Gun/Sportsman's Club"", 'Memberships Available']",['Instruction Available'],"['Handguns', 'Rifles', 'Shotguns']","['Handgun/Smallbore Rifle: 100 yd/mtr', 'Center-Fire Rifle: 100 yd/mtr']","['Handgun Metallic Silhouette', 'Rifle Metallic Silhouette', 'Trap Competition']",#
5577,J & K's Trigger & Bow Shooting Sports LLC,9963 South Hwy 154,TX,Sulphur Springs,75482,(903) 366-1085,Non-NSSF,"['Public', 'Outdoor', 'Commercial Range', 'Handicap accessible', 'Public Access', 'Memberships Available', 'Host Events Open To Public/Non-Members']","['Equipment Rentals', 'Hunter Education', 'Instruction Available', ""Women's Programs""]","['Handguns', 'Rifles', 'Shotguns', 'Archery Outdoor Field', 'Archery Outdoor 3D']","['Handgun/Smallbore Rifle: 50 yd/mtr', 'Center-Fire Rifle: 100 yd/mtr']","['3D Archery', 'Bench Rest', 'Precision Pistol', 'Skeet Competition', 'Trap Competition']",http://www.triggerandbow.com
3330,White Oak Bass Club,1807 S Lake Harris Rd,TX,White Oak,75693-2312,,Non-NSSF,"['Private', 'Outdoor', ""Gun/Sportsman's Club"", 'Members Only']",[],[],[],[],#
1654,"East Texas Rifle & Pistol Club, Inc.",1045 FM 2011,TX,Longview,75603,(903) 212-7468,Non-NSSF,"['Private', 'Outdoor', ""Gun/Sportsman's Club"", 'Handicap accessible', 'Members Only', 'Memberships Available']","['Instruction Available', 'Picnic Area', 'Youth Programs']","['Handguns', 'Rifles', 'Shotguns', 'Archery Outdoor Field']","['Handgun/Smallbore Rifle: 100 yd/mtr', 'Center-Fire Rifle: 300 yd/mtr']","['Muzzle Loading Events', 'Practical/Action Pistol', 'Precision Pistol', 'Smallbore', 'Trap Competition']",http://www.etrpc.com
3135,Texas Eastman Rod and Gun,PO Box 7444,TX,Longview,75607-7444,,Non-NSSF,"['Private', 'Outdoor', ""Gun/Sportsman's Club"", 'Members Only']",[],[],[],[],#
6960,TERC Gun Club,UNKNOWN,TX,Longview,75607,(903) 327-3600,Non-NSSF,"['Private', 'Outdoor', ""Gun/Sportsman's Club"", 'Members Only']",[],['Shotguns'],[],['Handgun Metallic Silhouette'],#
7192,Skidmore Shooting Range,F.M. 2152 (Greenwood Rd.) 1.6 Mile N of I-30,TX,Skidmore,78389,(903) 572-3175,Non-NSSF,"['Public', 'Outdoor', 'Commercial Range', 'Public Access']",[],['Shotguns'],[],[],http://www.angelfire.com/planet/shootrange/
2668,Woods and Waters Club,RR 7 Box 181A,TX,Sulphur Springs,75482-9647,,Non-NSSF,"['Private', 'Outdoor', ""Gun/Sportsman's Club"", 'Members Only']",[],[],[],[],#
10511,Top Shot Indoor Range and Guns,5685 East Loop 281,TX,Longview,75602,(903) 236-7468,Non-NSSF,"['Public', 'Indoor', 'Commercial Range', 'Handicap accessible', 'Public Access', 'Memberships Available', 'Host Events Open To Public/Non-Members']","['Equipment Rentals', 'Instruction Available', 'Retail Store']","['Handguns', 'Rifles', 'Shotguns', 'Archery Indoor']","['Handgun/Smallbore Rifle: 75 ft', 'Center-Fire Rifle: 75 ft']",[],http://shop.topshotindoorrange.com/
2249,Northeast Texas Gun Club,206 Chester St,TX,Mount Pleasant,75455-5704,(214) 572-7586,Non-NSSF,"['Private', 'Outdoor', 'Commercial Range', 'Members Only', 'Memberships Available']",[],['Shotguns'],[],[],#
6689,Titus County Sheriffs Dept. Range,304 S. Van Buren,TX,Mt. Pleasant,75455,(903) 572-4818,Non-NSSF,"['Private', 'Outdoor', 'Law enforcement']","['Clubhouse/Lounge/Lodge', 'Instruction Available']",[],[],['Handgun Metallic Silhouette'],#
6946,Lone Star Gun Club,PO Box 0102,TX,Lone Star,75668,(903) 656-2668,Non-NSSF,"['Private', 'Outdoor', ""Gun/Sportsman's Club"", 'Members Only', 'Memberships Available']",[],"['Handguns', 'Rifles', 'Shotguns']","['Handgun/Smallbore Rifle: 50 yd/mtr', 'Center-Fire Rifle: 200 yd/mtr']",[],#
6154,Running N Ranch,PO Box 175,TX,Laneville,75667,(903) 863-2183,Non-NSSF,"['Private', 'Outdoor', ""Gun/Sportsman's Club"", 'Members Only']",[],['Shotguns'],[],[],#
6918,Cherokee County Peace Officers Range,Route 5 Box 275,TX,Rusk,75785,(903) 683-2271,Non-NSSF,"['Private', 'Outdoor', ""Gun/Sportsman's Club""]",[],[],[],[],#
7190,Big Woods Sporting Clays,14809 West FM 321,TX,Tennessee Colony,75861,(903) 391-1112,Non-NSSF,"['Private', 'Outdoor', 'Commercial Range', 'Public Access']","['Equipment Rentals', 'Instruction Available', 'Lodging Available']",['Shotguns'],[],[],http://www.bigwoods.ws
11467,Green's Guns and Range,1654 James Marshall Rd,TX,Marshall,75670,(903) 938-0738,Non-NSSF,"['Private', 'Outdoor', 'Commercial Range', 'Public Access', 'Memberships Available']",['Retail Store'],"['Handguns', 'Rifles']",['Center-Fire Rifle: 200 yd/mtr'],['Airgun'],http://greensguns.com
10594,Bullseye Marshall,5371 U.S. 59,TX,Marshall,75670,(903) 578-0465,Non-NSSF,"['Public', 'Outdoor', 'Commercial Range', 'Handicap accessible', 'Public Access', 'Host Events Open To Public/Non-Members']","['Camper/RV Sites', 'Equipment Rentals', 'Instruction Available', 'Retail Store', ""Women's Programs""]","['Handguns', 'Rifles', 'Shotguns', 'Archery Outdoor Field']","['Handgun/Smallbore Rifle: 100 yd/mtr', 'Center-Fire Rifle: 100 yd/mtr']",[],https://www.facebook.com/pg/BullseyeMarshall/about/?ref=page_internal
6146,Robinson Range,CR 131,TX,Fairfield,75840,(903) 389-4190,Non-NSSF,"['Public', 'Outdoor', 'Commercial Range', 'Members Only', 'Memberships Available']",[],['Shotguns'],[],[],#
2585,Nacogdoches Practical Shooters League,RR 2 Box 241e,TX,Alto,75925-9604,(936) 637-5688,Non-NSSF,"['Private', 'Outdoor', ""Gun/Sportsman's Club""]",[],[],[],[],#
5444,Tahco Gunworks,562 Hwy 75 N,TX,Fairfield,75840,(903) 851-4449,Non-NSSF,"['Private', 'Outdoor', 'Commercial Range', 'Law enforcement', 'Handicap accessible', 'Memberships Available', 'Host Events Open To Public/Non-Members']","['Instruction Available', 'Picnic Area', ""Women's Programs"", 'Youth Programs']","['Handguns', 'Rifles', 'Shotguns']","['Handgun/Smallbore Rifle: 100 yd/mtr', 'Center-Fire Rifle: 200 yd/mtr']",[],#
5287,Oakwood Outlaws,337 W. Us Hwy. 79,TX,Oakwood,75855-9801,(903) 545-2252,Non-NSSF,"['Private', 'Outdoor', ""Gun/Sportsman's Club"", 'Handicap accessible', 'Public Access', 'Members Only']",[],[],[],['Cowboy Action Shooting'],http://www.oakwoodoutlaws.org
9075,Paris Skeet and Trap Club,4630 FM 79,TX,Paris,75460,903-495-0422,Non-NSSF,"['Public', 'Outdoor', 'Commercial Range', 'Public Access', 'Memberships Available']",[],['Shotguns'],[],[],#
3638,Brown Dog Sporting Clays,PO Box 157,TX,Elysian Fields,75642-0157,(903) 633-2334,Non-NSSF,"['Public', 'Outdoor', 'Commercial Range']",[],['Shotguns'],[],[],#
2586,Nacogdoches Skeet Club,891 CR 810,TX,Nacogdoches,75964,(936) 564-2950,Non-NSSF,"['Private', 'Outdoor', 'Commercial Range', ""Gun/Sportsman's Club"", 'Public Access']",[],['Shotguns'],[],[],#
7527,Rick's Gun Shop & CHL,139 FM 196,TX,Pattonville,75468,(903) 740-4867,Non-NSSF,"['Public', 'Outdoor', 'Commercial Range', 'Handicap accessible', 'Public Access', 'Members Only', 'Memberships Available']","['Equipment Rentals', 'Instruction Available', 'Retail Store']",['Handguns'],['Handgun/Smallbore Rifle: 50 yd/mtr'],['Handgun Metallic Silhouette'],http://www.ricksgunshop.org
2007,Longhorn Gun Club,101 Lamar Avenue,TX,Paris,75460,(903) 784-3328,Non-NSSF,"['Public', 'Outdoor', ""Gun/Sportsman's Club""]",[],['Shotguns'],[],[],#
6947,Maxey Rifleman Gun Club,2 Miles from Loop 286 Just off of FM 79,TX,Paris,75460,(903) 784-2508,Non-NSSF,"['Private', 'Outdoor', ""Gun/Sportsman's Club"", 'Members Only', 'Memberships Available']","['Instruction Available', 'Junior Rifle']",[],[],[],http://www.maxeygunclub.com/index.cfm
6949,"Panola County Gun Club, Inc.",FM 2517,TX,Carthage,75633,,Non-NSSF,"['Private', 'Outdoor', ""Gun/Sportsman's Club"", 'Handicap accessible', 'Members Only', 'Memberships Available']",['Instruction Available'],"['Handguns', 'Rifles']","['Handgun/Smallbore Rifle: 50 yd/mtr', 'Center-Fire Rifle: 500 yd/mtr']",['Hi-Power Rifle Matches'],http://epcgc.com/?page_id=23
8987,Lubbock Shooting Complex,1475 CR1,TX,Lubbock,79407,806-863-3318,NSSF,"['Public', 'Outdoor', 'Commercial Range', 'Handicap accessible', 'Public Access', 'Memberships Available', 'Host Events Open To Public/Non-Members']","['Camper/RV Sites', 'Clubhouse/Lounge/Lodge', 'Equipment Rentals', 'Food Service/Snacks', 'Instruction Available', 'Picnic Area', 'Retail Store', ""Women's Programs"", 'Youth Programs']","['Handguns', 'Rifles', 'Shotguns']","['Handgun/Smallbore Rifle: 50 ft', 'Center-Fire Rifle: 100 yd/mtr']","['Hi-Power Rifle Matches', 'Practical/Action Pistol', 'Skeet Competition', 'Sporting Clays/FITASC']",http://www.Lubbockshootingcomplex.com
5585,41 Lead Farm Shooting Range,3001 194th Street,TX,Lubbock,79424,(806) 370-0456,NSSF,"['Public', 'Outdoor', 'Commercial Range', ""Gun/Sportsman's Club"", 'Handicap accessible', 'Public Access', 'Host Events Open To Public/Non-Members']","['Instruction Available', 'Picnic Area', ""Women's Programs"", 'Youth Programs']","['Handguns', 'Rifles']","['Handgun/Smallbore Rifle: 100 yd/mtr', 'Center-Fire Rifle: 100 yd/mtr']","['3 Gun/Multi Gun', 'Airgun', 'Practical/Action Pistol']",#
6928,Amarillo Municipal Range,UNKNOWN,TX,Amarillo,79186,(806) 378-3036,Non-NSSF,"['Public', 'Outdoor', 'Commercial Range', 'Hunting Preserve', 'Public Access', 'Memberships Available']","['Clubhouse/Lounge/Lodge', 'Equipment Rentals', 'Food Service/Snacks', 'Instruction Available']","['Handguns', 'Rifles', 'Shotguns', 'Archery Outdoor Field']","['Handgun/Smallbore Rifle: 200 yd/mtr', 'Center-Fire Rifle: 200 yd/mtr']","['Handgun Metallic Silhouette', 'Hi-Power Rifle Matches', 'Rifle Metallic Silhouette']",#
7581,Lets Shoot Gun Club,2309 Line Ave,TX,Amarillo,79118,(806) 373-2060,Non-NSSF,"['Private', 'Indoor', ""Gun/Sportsman's Club"", 'Handicap accessible', 'Members Only', 'Memberships Available']",['Clubhouse/Lounge/Lodge'],['Rifles'],['Center-Fire Rifle: 50 ft'],"['Practical/Action Pistol', 'Smallbore']",http://letsshootgunclub.com/
6705,Amarillo Rifle & Pistol Club,7650 North Western,TX,Amarillo,79107,(806) 355-3180,Non-NSSF,"['Private', 'Outdoor', ""Gun/Sportsman's Club""]","['Hunter Education', 'Instruction Available', 'Junior Rifle', ""Women's Programs"", 'Youth Programs']","['Handguns', 'Rifles']","['Handgun/Smallbore Rifle: 50 yd/mtr', 'Center-Fire Rifle: 50 yd/mtr']","['Bench Rest', 'Smallbore']",http://www.amarillorpc.com
3604,Amarillo Gun Club,4501 South Osage Street PO Box 30064,TX,Amarillo,79120-0064,(806) 372-0678,Non-NSSF,"['Public', 'Outdoor', 'Commercial Range', ""Gun/Sportsman's Club"", 'Handicap accessible', 'Memberships Available']","['Clubhouse/Lounge/Lodge', 'Equipment Rentals', 'Instruction Available', 'Picnic Area']",['Shotguns'],[],[],http://www.amarillogunclub.org
7014,Amarillo Shooting Complex,16700 Bezner Rd,TX,Amarillo,79124,(806) 359-2086,Non-NSSF,"['Public', 'Outdoor', 'Law enforcement', 'Municipal Facility', 'Handicap accessible', 'Public Access', 'Memberships Available']","['Hunter Education', 'Instruction Available']","['Handguns', 'Rifles']","['Handgun/Smallbore Rifle: 50 yd/mtr', 'Center-Fire Rifle: 200 yd/mtr']",[],http://police.amerillo.gov/?page.id=33
5761,High Performance Targets Skeet Club,7703 Baughman Drive,TX,Amarillo,79121,(806) 358-1303,Non-NSSF,"['Public', 'Outdoor', ""Gun/Sportsman's Club""]",[],['Shotguns'],[],[],#
6701,Randall County Sheriffs Dept.,601 16th St.,TX,Canyon,79015,(806) 655-2573,Non-NSSF,"['Private', 'Outdoor', 'Law enforcement']",[],[],[],[],#
6944,The Department of Interior,UNKNOWN,TX,Fritch,79036,(806) 857-0302,Non-NSSF,"['Private', 'Outdoor', 'Law enforcement']",[],[],[],[],#
4059,Hereford Gun Club,E. Hwy. 60,TX,Hereford,79045,(806) 364-8052,Non-NSSF,"['Public', 'Outdoor', ""Gun/Sportsman's Club""]",[],['Shotguns'],[],[],#
6686,Deaf Smith County Sheriff's Department,235 E 3rd St Rm 102,TX,Hereford,79045,(806) 364-2311,Non-NSSF,"['Private', 'Outdoor', 'Law enforcement']",[],[],[],[],#
6685,Hereford Pistol Range,212 N. Lee,TX,Hereford,79045,(806) 363-7120,Non-NSSF,"['Private', 'Outdoor', ""Gun/Sportsman's Club""]",[],[],[],['Handgun Metallic Silhouette'],#
6683,Tulia Police Dept.,201 N. Maxwell,TX,Tulia,79088,(806) 995-3555,Non-NSSF,"['Private', 'Outdoor', 'Law enforcement']",[],[],[],[],#
6698,Tule Lake Shooting Range,510 W. Broadway,TX,Tulia,79088,(806) 668-4618,Non-NSSF,"['Public', 'Indoor/Outdoor', 'Commercial Range']",['Clubhouse/Lounge/Lodge'],['Shotguns'],[],[],#
6707,Pampa Rifle & Pistol Club,PO Box 145,TX,Pampa,79065,,Non-NSSF,"['Private', 'Indoor/Outdoor', ""Gun/Sportsman's Club"", 'Members Only', 'Memberships Available']",[],"['Handguns', 'Rifles']","['Handgun/Smallbore Rifle: 50 yd/mtr', 'Handgun/Smallbore Rifle: 50 ft', 'Center-Fire Rifle: 300 yd/mtr']","['Bench Rest', 'Cowboy Action Shooting', 'Handgun Metallic Silhouette']",http://pamparifleandpistolclubinc.com/index.html
6948,Pampa Trap & Skeet,UNKNOWN,TX,Pampa,79065,(806) 669-6851,Non-NSSF,"['Private', 'Outdoor', ""Gun/Sportsman's Club""]",[],[],[],[],#
6708,Castro County Peace Officers Assn. Range,Courthouse,TX,Dimmit,79027,(806) 647-3311,Non-NSSF,"['Private', 'Outdoor', ""Gun/Sportsman's Club"", 'Memberships Available']",[],[],[],['Rifle Metallic Silhouette'],#
6681,City of Dimmitt,200 E. Jones,TX,Dimmitt,79027,(806) 647-4545,Non-NSSF,"['Private', 'Outdoor', ""Gun/Sportsman's Club""]",[],[],[],[],#
2759,Donley Co 4H Jr Rifle Club,PO Box 613,TX,Clarendon,79226-0613,,Non-NSSF,"['Private', 'Outdoor', ""Gun/Sportsman's Club"", 'Members Only']",[],[],[],[],#
7300,Texas Panhandle Pheasant Hunts,1102 Commerce St,TX,Silverton,79257,(806) 823-2193,Non-NSSF,"['Public', 'Outdoor', 'Hunting Preserve', 'Public Access']",[],[],[],[],http://www.texaspanhandlepheasantshunts.com
6673,Friona City Police Department,102 E. 8th,TX,Friona,79035,(806) 250-2711,Non-NSSF,"['Private', 'Outdoor', 'Law enforcement']",[],[],[],[],#
6704,Hartley County Firing Range,701 Texas Blvd.,TX,Dalhart,79022,(806) 249-2081,Non-NSSF,"['Private', 'Outdoor', ""Gun/Sportsman's Club""]",['Instruction Available'],[],[],[],#
6674,Plainview Police Dept.,108 West 9th,TX,Plainview,79072,(806) 296-1182,Non-NSSF,"['Private', 'Outdoor', 'Law enforcement']",[],[],[],[],#
5154,Columbia Street Pistol Range,312 N Columbia St,TX,Plainview,79072-8912,(806) 296-9277,Non-NSSF,"['Public', 'Indoor', 'Commercial Range']",[],"['Handguns', 'Rifles', 'Archery Indoor']","['Handgun/Smallbore Rifle: 50 ft', 'Center-Fire Rifle: 50 ft']",[],#
6789,Hale County Sheriffs Department,1900 S Columbia St,TX,Plainview,79072-9340,(806) 296-2724,Non-NSSF,"['Private', 'Outdoor', 'Law enforcement']",[],[],[],[],#
6957,Stratford Gun Club,UNKNOWN,TX,Stratford,79084,(806) 727-4636,Non-NSSF,"['Private', 'Outdoor', ""Gun/Sportsman's Club""]",[],[],[],[],#
6958,Stratford Rifle & Pistol Club,UNKNOWN,TX,Stratford,79084,(806) 396-5380,Non-NSSF,"['Private', 'Indoor', ""Gun/Sportsman's Club"", 'Members Only', 'Memberships Available']",['Instruction Available'],[],[],[],#
3707,Old Show Barn,Couthouse,TX,Canadian,79014,,Non-NSSF,"['Private', 'Outdoor', ""Gun/Sportsman's Club"", 'Members Only']",[],[],[],[],#
7872,Dos Amigos Sporting Clays Inc,1882 FM 2060,TX,Abernathy,79311,(806) 328-5259,Non-NSSF,"['Public', 'Outdoor', ""Gun/Sportsman's Club"", 'Handicap accessible', 'Public Access', 'Memberships Available', 'Host Events Open To Public/Non-Members']","['Clubhouse/Lounge/Lodge', 'Equipment Rentals', 'Instruction Available']",['Shotguns'],[],['Sporting Clays/FITASC'],http://www.dosamigosshooting.com
1520,Lamb Co. 4-H Shooting Club,4025 N Us Highway 385,TX,Littlefield,79339-7125,(806) 385-3753,Non-NSSF,"['Public', 'Outdoor']",[],[],[],[],#
6776,Pheasants Galore,4025 N. Hwy. 385,TX,Littlefield,79339,(806) 385-3073,Non-NSSF,"['Public', 'Outdoor', 'Hunting Preserve']",[],[],[],[],#
2168,Perryton Rifle & Pistol Club,2410 S Fordham Dr,TX,Perryton,79070-5426,(806) 435-4856,Non-NSSF,"['Private', 'Outdoor', 'Commercial Range', ""Gun/Sportsman's Club"", 'Members Only', 'Memberships Available']",[],[],[],"['Handgun Metallic Silhouette', 'Practical/Action Pistol', 'Rifle Metallic Silhouette']",#
6922,Childress Anglers and Sportsman Club,Rt. 1 Box 284,TX,Childress,79201,(817) 937-2102,Non-NSSF,"['Private', 'Outdoor', ""Gun/Sportsman's Club""]",[],[],[],[],#
11912,Half Cocked Range,1297 County Road 15,TX,Childress,79201,(940) 585-9497,Non-NSSF,"['Public', 'Outdoor', 'Commercial Range', ""Gun/Sportsman's Club"", 'Handicap accessible', 'Public Access', 'Memberships Available', 'Host Events Open To Public/Non-Members']","['Hunter Education', 'Instruction Available', 'Picnic Area', 'Retail Store', ""Women's Programs"", 'Youth Programs']","['Handguns', 'Rifles', 'Shotguns']","['Handgun/Smallbore Rifle: 300 yd/mtr', 'Center-Fire Rifle: 500 yd/mtr']",[],http://Halfcockedrange.com
7418,Booker Americans,2 1/2 Miles East of Booker on SH 15,TX,Booker,79005,(806) 202-5988,Non-NSSF,"['Private', 'Outdoor', ""Gun/Sportsman's Club"", 'Handicap accessible', 'Members Only', 'Memberships Available']",['Hunter Education'],"['Handguns', 'Rifles', 'Shotguns', 'Archery Outdoor Field']","['Handgun/Smallbore Rifle: 100 yd/mtr', 'Center-Fire Rifle: 100 yd/mtr']","['Airgun', 'Skeet Competition', 'Trap Competition']",http://www.bookeramericans.com
5515,Lubbock Indoor Archery Too,320 19th Street,TX,Lubbock,79401,(806) 763-5300,Non-NSSF,"['Public', 'Indoor', 'Commercial Range', 'Handicap accessible', 'Public Access', 'Memberships Available', 'Host Events Open To Public/Non-Members']",[],['Archery Indoor'],[],[],http://www.LubbockIndoorArchery.com
10096,Lone Star Shooting Sports,6020 43rd St,TX,Lubbock,79407,,Non-NSSF,"['Public', 'Indoor', 'Commercial Range', 'Handicap accessible', 'Public Access', 'Memberships Available', 'Host Events Open To Public/Non-Members']","['Clubhouse/Lounge/Lodge', 'Equipment Rentals', 'Food Service/Snacks', 'Hunter Education', 'Instruction Available', 'Retail Store', ""Women's Programs"", 'Youth Programs']",['Handguns'],['Handgun/Smallbore Rifle: 75 ft'],"['Handgun Metallic Silhouette', 'Rimfire Challenge']",http://LoneStarShootingSports.com
2204,Patriot Firearms & Family Shooting Center,5840 49th St,TX,Lubbock,79424-1102,(806) 796-2858,Non-NSSF,"['Public', 'Indoor', 'Commercial Range', 'Handicap accessible', 'Memberships Available']","['Clubhouse/Lounge/Lodge', 'Equipment Rentals', 'Food Service/Snacks', 'Instruction Available', 'Retail Store']","['Handguns', 'Shotguns']",['Handgun/Smallbore Rifle: 75 ft'],"['Handgun Metallic Silhouette', 'Practical/Action Pistol']",http://www.patriotfirearms.com
4936,Rustic River Ranch,24000 FM 104,TX,Childress,79201,(940) 537-4460,Non-NSSF,"['Public', 'Outdoor', 'Hunting Preserve']",[],[],[],[],http://rusticriverranch.com
6938,Hardeman County Sheriff Dept.,UNKNOWN,TX,Hardeman,79252,(817) 663-5374,Non-NSSF,"['Private', 'Outdoor', 'Law enforcement']",[],[],[],[],#
1808,Rock Hill Arms & Mercantile,3459 FM 104,TX,Quanah,79252,(940) 663-6180,Non-NSSF,"['Public', 'Outdoor', 'Commercial Range', 'Handicap accessible']","['Equipment Rentals', 'Hunter Education', 'Instruction Available', 'Retail Store', ""Women's Programs""]","['Handguns', 'Rifles', 'Shotguns', 'Archery Outdoor Field']","['Handgun/Smallbore Rifle: 100 yd/mtr', 'Center-Fire Rifle: 200 yd/mtr']","['Cowboy Action Shooting', 'Practical/Action Pistol', 'Trap Competition']",http://www.rockhillarms.com/
10495,Circle Bar Ranch Shooting Range,4911 Farm to Market 1756,TX,Crowell,79227,(940) 655-8038,Non-NSSF,"['Private', 'Outdoor', 'Handicap accessible', 'Public Access']","['Camper/RV Sites', 'Lodging Available']","['Handguns', 'Rifles', 'Shotguns', 'Archery Outdoor Field']","['Handgun/Smallbore Rifle: 100 yd/mtr', 'Center-Fire Rifle: 100 yd/mtr']",[],http://www.thecirclebarranch.com
3880,Denison Rod & Gun Club,HWY 84 North,TX,Denison,75020-5235,,Non-NSSF,"['Private', 'Outdoor', ""Gun/Sportsman's Club"", 'Members Only']",[],[],[],[],#
