Shooting range ID,Name,Street address,State,City,Zip code,Phone number,NSSF Member,Facility Details,Services,Shooting Available,Distance,Competition,Website
11705,"Kings Gun Center, LLC",426 Park Ave,CA,Hanford,93230-4496,(559) 585-2000,NSSF,"['Public', 'Indoor', 'Commercial Range', ""Gun/Sportsman's Club"", 'Handicap accessible', 'Public Access', 'Memberships Available', 'Host Events Open To Public/Non-Members']","['Food Service/Snacks', 'Hunter Education', 'Instruction Available', 'Retail Store', ""Women's Programs"", 'Youth Programs']","['Handguns', 'Rifles', 'Archery Indoor']","['Handgun/Smallbore Rifle: 75 ft', 'Center-Fire Rifle: 75 ft']",[],http://www.kingsguncenter.com
6394,Bear Mountain Sports,8032 Di Miller Dr Unit D,CA,Bakersfield,93307-8335,(661) 366-2666,NSSF,"['Public', 'Indoor', 'Commercial Range', 'Public Access']","['Instruction Available', 'Retail Store']",['Archery Indoor'],[],[],http://www.bearmntsports.com
7790,"Lytle Creek Firing Line, Inc",Western Terminus of USFS Road 3N06 12 miles off I15 at end of pavement,CA,Lytle Creek,92358,(951) 782-7438,NSSF,"['Public', 'Outdoor', 'Law enforcement', ""Gun/Sportsman's Club"", 'Handicap accessible', 'Public Access', 'Host Events Open To Public/Non-Members']",['Instruction Available'],"['Handguns', 'Rifles', 'Shotguns', 'Archery Outdoor Field']","['Handgun/Smallbore Rifle: 300 yd/mtr', 'Center-Fire Rifle: 300 yd/mtr']",[],http://www.lytlecreekrange.com
11329,Route 66 Shooting Sports Park,15810 Cajon Boulevard,CA,San Bernardino,92407,(909) 880-0093,NSSF,"['Public', 'Outdoor', 'Commercial Range', 'Handicap accessible', 'Public Access', 'Memberships Available']","['Equipment Rentals', 'Food Service/Snacks', 'Instruction Available', 'Retail Store']","['Handguns', 'Rifles', 'Shotguns']","['Handgun/Smallbore Rifle: 100 yd/mtr', 'Center-Fire Rifle: 100 yd/mtr']","['Cowboy Action Shooting', 'Muzzle Loading Events', 'Practical/Action Pistol']",https://r66ssp.com
1700,West End Gun Club,1N33 County Fire Rd,CA,Devore,91764,(909) 781-4486,NSSF,"['Private', 'Outdoor', ""Gun/Sportsman's Club"", 'Handicap accessible', 'Members Only', 'Memberships Available']","['Junior Rifle', 'Retail Store', 'Youth Programs']","['Handguns', 'Rifles', 'Shotguns']","['Handgun/Smallbore Rifle: 100 yd/mtr', 'Center-Fire Rifle: 500 yd/mtr']","['3 Gun/Multi Gun', 'Cowboy Action Shooting', 'Practical/Action Pistol', 'Rifle Metallic Silhouette', 'Skeet Competition', 'Trap Competition']",http://www.wegc.org
4241,"Angeles Shooting Ranges, Inc.",12651 Little Tujunga Canyon Rd,CA,Lake View Terrace,91342,(818) 899-2255,NSSF,"['Public', 'Outdoor', 'Commercial Range', 'Handicap accessible', 'Public Access', 'Memberships Available']","['Equipment Rentals', 'Food Service/Snacks', 'Instruction Available', 'Picnic Area', 'Retail Store']","['Handguns', 'Rifles', 'Shotguns']","['Handgun/Smallbore Rifle: 100 yd/mtr', 'Center-Fire Rifle: 500 yd/mtr']","['Airgun', 'Bench Rest', 'Handgun Metallic Silhouette', 'Practical/Action Pistol', 'Precision Pistol', 'Rifle Metallic Silhouette', 'Sporting Clays/FITASC']",http://www.angelesranges.com
7733,Oak Tree Gun Club,23121 Coltrane Ave.,CA,Newhall,91321,(661) 259-7441,NSSF,"['Public', 'Outdoor', ""Gun/Sportsman's Club"", 'Handicap accessible', 'Public Access']","['Clubhouse/Lounge/Lodge', 'Equipment Rentals', 'Food Service/Snacks', 'Hunter Education', 'Instruction Available', 'Picnic Area', 'Retail Store', ""Women's Programs"", 'Youth Programs']","['Handguns', 'Rifles', 'Shotguns']","['Handgun/Smallbore Rifle: 50 yd/mtr', 'Center-Fire Rifle: 100 yd/mtr']","['3D Archery', '3 Gun/Multi Gun', 'Handgun Metallic Silhouette', 'Practical/Action Pistol', 'Skeet Competition', 'Sporting Clays/FITASC', 'Trap Competition']",http://www.oaktreegunclub.com/
7398,ISI Shootists,6700 Holser Canyon Road,CA,Piru,93040,(661) 269-2245,NSSF,"['Private', 'Outdoor', ""Gun/Sportsman's Club"", 'Public Access', 'Members Only', 'Memberships Available']",['Instruction Available'],[],[],['Practical/Action Pistol'],http://www.isishootists.com/
4154,Bass Pro Shop num 049,7777 Victoria Gardens Lane,CA,Rancho Cucamonga,91739,(909) 922-5500,NSSF,"['Public', 'Indoor', 'Commercial Range', 'Handicap accessible', 'Public Access']","['Food Service/Snacks', 'Hunter Education', 'Retail Store']","['Handguns', 'Archery Indoor']",['Handgun/Smallbore Rifle: 50 ft'],[],http://www.basspro.com/webapp/wcs/stores/servlet/CFPage?storeId=10151&catalogId=10001&langId=-1&appID=94&storeID=52
6005,The Target Range & Gun Store,16140 Cohasset St.,CA,Van Nuys,91406,(818) 787-4373,NSSF,"['Public', 'Indoor', 'Commercial Range', 'Law enforcement', 'Handicap accessible', 'Public Access', 'Memberships Available']","['Clubhouse/Lounge/Lodge', 'Equipment Rentals', 'Food Service/Snacks', 'Instruction Available', 'Retail Store']","['Handguns', 'Rifles', 'Shotguns']","['Handgun/Smallbore Rifle: 50 ft', 'Center-Fire Rifle: 50 ft']",[],http://www.thetargetrange.com
9193,Field Time Target & Training,8230 Electric Ave,CA,Stanton,90680,(714) 677-2841,NSSF,"['Public', 'Indoor', 'Commercial Range', 'Law enforcement', 'Handicap accessible', 'Public Access', 'Memberships Available', 'Host Events Open To Public/Non-Members']","['Equipment Rentals', 'Instruction Available', 'Junior Rifle', 'Retail Store', ""Women's Programs"", 'Youth Programs']","['Handguns', 'Rifles', 'Shotguns']","['Handgun/Smallbore Rifle: 50 ft', 'Center-Fire Rifle: 50 ft']","['3 Gun/Multi Gun', 'Practical/Action Pistol', 'Precision Pistol']",http://www.fieldtimetargetandtraining.com
11737,Elite CCW and Firearm Training,18183 Euclid Street,CA,Fountain Valley,92708,(714) 600-3120,NSSF,"['Private', 'Indoor', 'Commercial Range', 'Handicap accessible', 'Members Only', 'Memberships Available', 'Host Events Open To Public/Non-Members']","['Instruction Available', 'Retail Store', ""Women's Programs"", 'Youth Programs']",['Handguns'],['Handgun/Smallbore Rifle: 50 ft'],[],https://eliteccwtraining.com/
7685,"Artemis Group, LLC dba Artemis Defense Institute",11 Spectrum Pointe Dr,CA,Lake Forest,92630,(949) 305-6586,NSSF,"['Public', 'Indoor', 'Commercial Range', 'Law enforcement', 'Handicap accessible', 'Public Access', 'Memberships Available']","['Instruction Available', 'Retail Store']",[],[],[],http://www.artemisdefenseinstitute.com
11242,"Santa Maria Gun Club, Inc.",3150 Telephone Rd,CA,Santa Maria,93454-9675,(805) 925-6673,NSSF,"['Public', 'Indoor/Outdoor', 'Commercial Range', ""Gun/Sportsman's Club"", 'Handicap accessible', 'Public Access', 'Memberships Available', 'Host Events Open To Public/Non-Members']","['Clubhouse/Lounge/Lodge', 'Instruction Available', 'Youth Programs']","['Handguns', 'Shotguns', 'Archery Indoor', 'Archery Outdoor Field', 'Archery Outdoor 3D']",['Handgun/Smallbore Rifle: 75 ft'],['Trap Competition'],http://www.santamariagunclub.org/index.html
4866,Sage Shooting Facility,Old Gravel Pit Brown Road,CA,Ridgecrest,93555,(760) 375-9690,Non-NSSF,"['Public', 'Outdoor', 'Commercial Range', 'Law enforcement', ""Gun/Sportsman's Club"", 'Handicap accessible', 'Public Access', 'Memberships Available', 'Host Events Open To Public/Non-Members']","['Camper/RV Sites', 'Equipment Rentals', 'Food Service/Snacks', 'Picnic Area', 'Youth Programs']","['Handguns', 'Rifles', 'Shotguns', 'Archery Outdoor Field']","['Handgun/Smallbore Rifle: 500 yd/mtr', 'Center-Fire Rifle: 500 yd/mtr']","['3 Gun/Multi Gun', 'Hi-Power Rifle Matches', 'Rimfire Challenge']",#
1609,Ridgecrest Gun Range Association,5136 Wiknich Rd,CA,Ridgecrest,93555-3921,(760) 375-1004,Non-NSSF,"['Public', 'Outdoor', 'Law enforcement', 'Municipal Facility', ""Gun/Sportsman's Club"", 'Handicap accessible', 'Public Access', 'Memberships Available', 'Host Events Open To Public/Non-Members']","['Camper/RV Sites', 'Clubhouse/Lounge/Lodge', 'Hunter Education', 'Instruction Available', 'Junior Rifle', 'Lodging Available', 'Picnic Area', ""Women's Programs"", 'Youth Programs']","['Handguns', 'Rifles', 'Shotguns', 'Archery Outdoor Field']","['Handgun/Smallbore Rifle: 500 yd/mtr', 'Handgun/Smallbore Rifle: 50 ft', 'Center-Fire Rifle: 500 yd/mtr']","['Airgun', 'Bench Rest', 'Cowboy Action Shooting', 'Handgun Metallic Silhouette', 'Hi-Power Rifle Matches', 'Muzzle Loading Events', 'Practical/Action Pistol', 'Precision Pistol', 'Rifle Metallic Silhouette', 'Smallbore']",http://www.rgra.org
4786,Indian Wells Valley S&TC,2150 Clodt Rd,CA,Inyokern,93527,(619) 377-4961,Non-NSSF,"['Public', 'Outdoor', 'Commercial Range', 'Public Access', 'Memberships Available']",['Food Service/Snacks'],['Shotguns'],[],[],http://www.cgsta.com/central/indianwells.htm
4588,KERN RIVER VALLEY GUN ASSN TARGET RANGE,Cyrus Canyon Rd,CA,Kernsville,93238,(760) 376-2461,Non-NSSF,"['Public', 'Outdoor', ""Gun/Sportsman's Club"", 'Handicap accessible', 'Public Access', 'Memberships Available']","['Instruction Available', ""Women's Programs""]","['Handguns', 'Rifles', 'Shotguns']","['Handgun/Smallbore Rifle: 500 yd/mtr', 'Center-Fire Rifle: 500 yd/mtr']","['Bench Rest', 'Smallbore', 'Sporting Clays/FITASC']",#
3483,Tehachapi Sportsmans Club,Sand Cyn Rd & Hwy 58,CA,Tehachapi,93581-0496,(661) 972-2970,Non-NSSF,"['Public', 'Outdoor', ""Gun/Sportsman's Club"", 'Handicap accessible', 'Public Access', 'Memberships Available']","['Instruction Available', ""Women's Programs"", 'Youth Programs']","['Handguns', 'Rifles', 'Shotguns', 'Archery Outdoor Field']","['Handgun/Smallbore Rifle: 300 yd/mtr', 'Center-Fire Rifle: 300 yd/mtr']","['Bench Rest', 'Smallbore', 'Sporting Clays/FITASC']",http://www.tehachapisportsmanclub.com
6082,The Trap Range,14866 United St,CA,Mojave,93501,(661) 342-7703,Non-NSSF,"['Public', 'Outdoor', 'Commercial Range', ""Gun/Sportsman's Club"", 'Handicap accessible', 'Public Access', 'Host Events Open To Public/Non-Members']","['Camper/RV Sites', 'Clubhouse/Lounge/Lodge', 'Instruction Available', 'Picnic Area', 'Youth Programs']","['Shotguns', 'Archery Outdoor Field']",[],"['Skeet Competition', 'Trap Competition']",#
5723,Edwards AFB Rod & Gun Club,95 SPTG/SVGO 210 Adams Way,CA,Edwards Afb,93524,(661) 275-8727,Non-NSSF,"['Public', 'Outdoor', 'Commercial Range', 'Handicap accessible', 'Public Access', 'Memberships Available']",[],['Shotguns'],[],[],http://edwardsfss.com/wordpress/recreation/outdoor-recreation/rod-and-gun-club
7240,The Gun Shop,44633 Sierra Highway,CA,Lancaster,93534-3543,(805) 942-7026,Non-NSSF,"['Public', 'Indoor', 'Commercial Range', 'Public Access']",['Retail Store'],['Handguns'],['Handgun/Smallbore Rifle: 50 ft'],[],#
10272,5 Dogs Range,20238 Woody Road,CA,Bakersfield,93308,(661) 399-7296,Non-NSSF,"['Private', 'Outdoor', 'Commercial Range', 'Handicap accessible', 'Members Only', 'Memberships Available', 'Host Events Open To Public/Non-Members']","['Camper/RV Sites', 'Clubhouse/Lounge/Lodge', 'Food Service/Snacks', 'Hunter Education', 'Instruction Available', 'Junior Rifle', 'Picnic Area', 'Retail Store', ""Women's Programs"", 'Youth Programs']","['Handguns', 'Rifles', 'Shotguns', 'Archery Outdoor Field']","['Handgun/Smallbore Rifle: 100 yd/mtr', 'Center-Fire Rifle: 100 yd/mtr']","['Cowboy Action Shooting', 'Handgun Metallic Silhouette', 'Hi-Power Rifle Matches', 'Muzzle Loading Events', 'Practical/Action Pistol', 'Precision Pistol', 'Rifle Metallic Silhouette', 'Rimfire Challenge', 'Sporting Clays/FITASC']",http://5dogsrange.com/
3603,Whiteside Sporting Clays,45408 160th St. W.,CA,Lancaster,93536,(661) 724-1291,Non-NSSF,"['Private', 'Outdoor', 'Commercial Range', ""Gun/Sportsman's Club"", 'Handicap accessible', 'Public Access', 'Memberships Available']","['Clubhouse/Lounge/Lodge', 'Equipment Rentals', 'Instruction Available']",['Shotguns'],[],[],http://www.avschunt.com
2852,Palmdale Fin and Feather Club,600 E. Ave S.,CA,Palmdale,93550,(661) 947-2884,Non-NSSF,"['Public', 'Outdoor', ""Gun/Sportsman's Club"", 'Members Only', 'Memberships Available']",[],['Shotguns'],[],[],http://palmdalefinandfeatherclub.com/
11416,Apple Valley Gun Club,16699 Stoddard Wells Rd,CA,Victorville,92392,(760) 245-8702,Non-NSSF,"['Private', 'Indoor/Outdoor', ""Gun/Sportsman's Club"", 'Handicap accessible', 'Members Only', 'Memberships Available', 'Host Events Open To Public/Non-Members']","['Clubhouse/Lounge/Lodge', 'Food Service/Snacks', 'Hunter Education', 'Instruction Available', 'Junior Rifle', 'Picnic Area', 'Retail Store', ""Women's Programs"", 'Youth Programs']","['Handguns', 'Rifles', 'Shotguns', 'Archery Outdoor Field', 'Archery Outdoor 3D']","['Handgun/Smallbore Rifle: 100 yd/mtr', 'Handgun/Smallbore Rifle: 50 ft', 'Center-Fire Rifle: 300 yd/mtr']","['3D Archery', '3 Gun/Multi Gun', 'Bench Rest', 'Handgun Metallic Silhouette', 'Hi-Power Rifle Matches', 'Muzzle Loading Events', 'Practical/Action Pistol', 'Precision Pistol', 'Rifle Metallic Silhouette', 'Smallbore', 'Trap Competition']",http://www.applevalleygunclub.com
11400,The Training Center,2523 Mohawk Street,CA,Bakersfield,93308,(661) 323-4512,Non-NSSF,"['Public', 'Indoor', 'Commercial Range', ""Gun/Sportsman's Club"", 'Handicap accessible', 'Public Access', 'Memberships Available', 'Host Events Open To Public/Non-Members']","['Equipment Rentals', 'Hunter Education', 'Instruction Available', 'Junior Rifle', 'Retail Store', ""Women's Programs"", 'Youth Programs']","['Handguns', 'Archery Indoor', 'Archery Outdoor Field']",['Handgun/Smallbore Rifle: 75 ft'],['Airgun'],http://www.trainingrange.com
1582,"Second Amendment Sports, Inc.",2523 Mohawk Street,CA,Bakersfield,93308,(661) 323-4512,Non-NSSF,"['Public', 'Indoor', 'Commercial Range', ""Gun/Sportsman's Club"", 'Handicap accessible', 'Public Access', 'Memberships Available', 'Host Events Open To Public/Non-Members']","['Equipment Rentals', 'Hunter Education', 'Instruction Available', 'Junior Rifle', 'Retail Store', ""Women's Programs"", 'Youth Programs']","['Handguns', 'Archery Indoor', 'Archery Outdoor Field']",['Handgun/Smallbore Rifle: 75 ft'],['Airgun'],http://www.2ndamendmentsports.com
5259,Guns & Roosters Hunting Club,2300 N Lime,CA,Porterville,93257,(559) 798-1966,Non-NSSF,"['Public', 'Outdoor', 'Hunting Preserve', 'Handicap accessible', 'Public Access', 'Memberships Available', 'Host Events Open To Public/Non-Members']",[],[],[],[],http://www.gunsandroostershunting.com
11446,Aegis Authority LLC,13212 Tawya Road,CA,Apple Valley,92308,(626) 347-0801,Non-NSSF,"['Public', 'Outdoor', 'Commercial Range', 'Public Access', 'Memberships Available', 'Host Events Open To Public/Non-Members']","['Instruction Available', 'Picnic Area', 'Retail Store', ""Women's Programs""]","['Handguns', 'Rifles', 'Shotguns']","['Handgun/Smallbore Rifle: 100 yd/mtr', 'Center-Fire Rifle: 100 yd/mtr']","['3 Gun/Multi Gun', 'Bench Rest', 'Cowboy Action Shooting', 'Handgun Metallic Silhouette', 'Muzzle Loading Events', 'Practical/Action Pistol', 'Precision Pistol', 'Rimfire Challenge', 'Smallbore', 'Sporting Clays/FITASC']",https://aegisauthority.com/
11408,The Training Center - West Bakersfield,12556 Jomani Drive,CA,Bakersfield,93312,(661) 588-4867,Non-NSSF,"['Public', 'Indoor', 'Commercial Range', ""Gun/Sportsman's Club"", 'Handicap accessible', 'Public Access', 'Memberships Available', 'Host Events Open To Public/Non-Members']","['Instruction Available', 'Junior Rifle', 'Retail Store', ""Women's Programs""]","['Handguns', 'Rifles', 'Archery Indoor']","['Handgun/Smallbore Rifle: 75 ft', 'Center-Fire Rifle: 75 ft']",[],http://www.traingingrange.com
1581,A Place To Shoot,33951 San Francisquito Canyon Road,CA,Saugus,91350,(661) 296-5552,Non-NSSF,"['Public', 'Outdoor', 'Law enforcement', ""Gun/Sportsman's Club"", 'Handicap accessible', 'Public Access', 'Memberships Available', 'Host Events Open To Public/Non-Members']","['Equipment Rentals', 'Instruction Available', 'Retail Store', ""Women's Programs"", 'Youth Programs']","['Handguns', 'Rifles', 'Shotguns']","['Handgun/Smallbore Rifle: 50 yd/mtr', 'Center-Fire Rifle: 50 yd/mtr']",['Cowboy Action Shooting'],http://www.aplacetoshoot.net
4054,Lucerne Valley Lions Club Shooting Range,30200 Del Oro Road,CA,Lucerne Valley,92356-0401,(760) 248-7670,Non-NSSF,"['Public', 'Outdoor', ""Gun/Sportsman's Club"", 'Handicap accessible', 'Public Access']","['Food Service/Snacks', 'Instruction Available', 'Junior Rifle', 'Picnic Area', ""Women's Programs"", 'Youth Programs']","['Handguns', 'Rifles', 'Shotguns']","['Handgun/Smallbore Rifle: 50 yd/mtr', 'Center-Fire Rifle: 200 yd/mtr']","['Airgun', 'Cowboy Action Shooting', 'Handgun Metallic Silhouette', 'Muzzle Loading Events', 'Practical/Action Pistol', 'Trap Competition']",http://www.lvlionsclub.com/publicshootingrange.htm
1885,North Hollywood Sportsman's Club,30769 San Francisquito Canyon Rd,CA,Santa Clarita,91390,(661) 296-9893,Non-NSSF,"['Private', 'Outdoor', ""Gun/Sportsman's Club"", 'Handicap accessible', 'Members Only', 'Memberships Available']",[],['Shotguns'],[],"['Skeet Competition', 'Trap Competition']",http://www.northhollywoodsportsmans.club/
4397,Burbank Rifle & Revolver Club,36200 Paradise Ranch Road North End of Paradise Ranch Road,CA,Castaic,91384,(310) 676-3300,Non-NSSF,"['Private', 'Outdoor', ""Gun/Sportsman's Club"", 'Members Only', 'Host Events Open To Public/Non-Members']","['Instruction Available', 'Picnic Area']","['Handguns', 'Rifles']","['Handgun/Smallbore Rifle: 500 yd/mtr', 'Center-Fire Rifle: 500 yd/mtr']",['Hi-Power Rifle Matches'],http://www.brrc.org
6908,Kern County Gun Club,12450 Shotgun Road,CA,Bakersfield,93311,(661) 765-5818,Non-NSSF,"['Public', 'Outdoor', ""Gun/Sportsman's Club"", 'Handicap accessible', 'Public Access', 'Memberships Available']","['Camper/RV Sites', 'Youth Programs']",['Shotguns'],[],[],http://www.kerncountygunclub.com
1950,Rankin Field Weapons Range,20000 County Road 140,CA,Tulare,93274,(559) 684-8853,Non-NSSF,"['Public', 'Outdoor', 'Commercial Range', 'Law enforcement', 'Handicap accessible', 'Public Access', 'Memberships Available', 'Host Events Open To Public/Non-Members']","['Clubhouse/Lounge/Lodge', 'Food Service/Snacks', 'Instruction Available', 'Picnic Area', 'Youth Programs']","['Handguns', 'Rifles']","['Handgun/Smallbore Rifle: 50 yd/mtr', 'Center-Fire Rifle: 200 yd/mtr']","['Bench Rest', 'Cowboy Action Shooting', 'Practical/Action Pistol', 'Precision Pistol', 'Smallbore']",http://www.rankinfield.org
4276,Burro Canyon Shooting Park,22100 East Fork Road,CA,Azusa,91702,(626) 910-1344,Non-NSSF,"['Public', 'Outdoor', 'Commercial Range', ""Gun/Sportsman's Club"", 'Handicap accessible', 'Public Access', 'Memberships Available', 'Host Events Open To Public/Non-Members']","['Food Service/Snacks', 'Instruction Available', 'Picnic Area', 'Retail Store', ""Women's Programs"", 'Youth Programs']","['Handguns', 'Rifles', 'Shotguns']","['Handgun/Smallbore Rifle: 100 yd/mtr', 'Center-Fire Rifle: 200 yd/mtr']",[],http://www.burrocanyon.com
3355,Arrowhead Fish and Game,Highway 173,CA,Lake Arrowhead,92352-0567,(909) 337-7000,Non-NSSF,"['Private', 'Indoor/Outdoor', ""Gun/Sportsman's Club"", 'Members Only', 'Memberships Available', 'Host Events Open To Public/Non-Members']","['Instruction Available', 'Picnic Area']","['Rifles', 'Shotguns', 'Archery Outdoor Field']","['Center-Fire Rifle: 50 yd/mtr', 'Center-Fire Rifle: 50 ft']",['Practical/Action Pistol'],http://www.arrowheadfishandgame.com/home/
6352,Los Angeles Silhouette Club,12651 Little Tujunga Canyon Road,CA,Lake View Terrace,91310,(818) 899-2255,Non-NSSF,"['Public', 'Outdoor', 'Commercial Range', 'Handicap accessible', 'Public Access']","['Clubhouse/Lounge/Lodge', 'Food Service/Snacks', 'Instruction Available', 'Junior Rifle', 'Lodging Available', 'Picnic Area', 'Retail Store']","['Handguns', 'Rifles']","['Handgun/Smallbore Rifle: 200 yd/mtr', 'Center-Fire Rifle: 200 yd/mtr']","['Airgun', 'Handgun Metallic Silhouette', 'Rifle Metallic Silhouette']",http://www.lasc.us
3631,Moore-N-Moore Sporting Clays,12651 Little Tujunga Canyon Rd,CA,Sylmar,91342-6311,(818) 890-4788,Non-NSSF,"['Public', 'Outdoor', 'Commercial Range', 'Handicap accessible', 'Public Access', 'Memberships Available']","['Clubhouse/Lounge/Lodge', 'Equipment Rentals', 'Instruction Available']","['Handguns', 'Rifles', 'Shotguns']","['Handgun/Smallbore Rifle: 50 yd/mtr', 'Center-Fire Rifle: 500 yd/mtr']",['Handgun Metallic Silhouette'],http://www.moorenmoore.com
3381,Thompson Piru Gun Range,6700 Holser Canyon Road,CA,Castaic,91384,(805) 521-1177,Non-NSSF,"['Public', 'Outdoor', 'Commercial Range', 'Handicap accessible', 'Public Access']","['Instruction Available', 'Junior Rifle']","['Handguns', 'Rifles']","['Handgun/Smallbore Rifle: 500 yd/mtr', 'Center-Fire Rifle: 500 yd/mtr']","['Airgun', 'Cowboy Action Shooting', 'Handgun Metallic Silhouette', 'Hi-Power Rifle Matches', 'Muzzle Loading Events', 'Practical/Action Pistol', 'Precision Pistol', 'Rimfire Challenge', 'Smallbore']",http://www.pirugunrange.com
2045,Burbank Muzzleloaders,Holser Canyon,CA,Piru,93023-4149,(323) 666-6012,Non-NSSF,"['Public', 'Outdoor', 'Commercial Range', ""Gun/Sportsman's Club"", 'Members Only', 'Memberships Available']",['Clubhouse/Lounge/Lodge'],[],[],[],http://burbankmuzzleloaders.com/index.php?option=com_frontpage&Itemid=1
7428,California Wheel Burners,6700 Holser Canyon Rd,CA,Piru,93040,(805) 581-1145,Non-NSSF,"['Private', 'Outdoor', ""Gun/Sportsman's Club"", 'Public Access', 'Members Only', 'Memberships Available', 'Host Events Open To Public/Non-Members']",[],[],[],"['Practical/Action Pistol', 'Rimfire Challenge']",http://www.cawheelburners.com/
11131,California Tactical Academy,5822 Holser Canyon Road,CA,Piru,93040,(805) 398-0003,Non-NSSF,"['Public', 'Outdoor', 'Commercial Range', 'Law enforcement', 'Municipal Facility', ""Gun/Sportsman's Club"", 'Military Facility', 'Hunting Preserve', 'Handicap accessible', 'Public Access', 'Memberships Available', 'Host Events Open To Public/Non-Members']","['Equipment Rentals', 'Hunter Education', 'Instruction Available', 'Junior Rifle', 'Picnic Area', 'Retail Store', ""Women's Programs"", 'Youth Programs']","['Handguns', 'Rifles', 'Shotguns', 'Archery Outdoor Field']","['Handgun/Smallbore Rifle: 100 yd/mtr', 'Center-Fire Rifle: 1000 yd/mtr']","['3 Gun/Multi Gun', 'Bench Rest', 'Cowboy Action Shooting', 'Handgun Metallic Silhouette', 'Hi-Power Rifle Matches', 'Muzzle Loading Events', 'Practical/Action Pistol', 'Precision Pistol', 'Rifle Metallic Silhouette', 'Rimfire Challenge', 'Smallbore']",http://www.ctala.com
3602,Wingmaster Gun Club,12600 Bell Rd,CA,Wasco,93280-9626,(805) 758-2100,Non-NSSF,"['Public', 'Outdoor', 'Commercial Range']",[],['Shotguns'],[],[],#
3601,Taft Sportsmens Club & Junior Division,Petroleum Club Road,CA,Taft,93268,(661) 745-0416,Non-NSSF,"['Private', 'Outdoor', ""Gun/Sportsman's Club"", 'Handicap accessible', 'Members Only', 'Memberships Available', 'Host Events Open To Public/Non-Members']",['Youth Programs'],['Rifles'],['Center-Fire Rifle: 50 yd/mtr'],"['Airgun', 'Smallbore']",http://www.taftsc.com
4159,Double Tap Shooting,11025 Balboa Ave Ste D,CA,Granada Hills,91344,(818) 363-1777,Non-NSSF,"['Public', 'Outdoor', 'Commercial Range', 'Handicap accessible', 'Public Access']","['Clubhouse/Lounge/Lodge', 'Equipment Rentals', 'Food Service/Snacks', 'Hunter Education', 'Instruction Available', 'Picnic Area', 'Retail Store']","['Handguns', 'Rifles']","['Handgun/Smallbore Rifle: 50 yd/mtr', 'Center-Fire Rifle: 100 yd/mtr']",['Skeet Competition'],http://www.doubletapshooting.com
3514,Big Bear Valley Sportsmans Club,North Shore at Division,CA,Big Bear Lake,92315,(909) 585-4686,Non-NSSF,"['Public', 'Outdoor', ""Gun/Sportsman's Club"", 'Handicap accessible', 'Public Access', 'Memberships Available']",['Instruction Available'],"['Handguns', 'Rifles', 'Shotguns']","['Handgun/Smallbore Rifle: 50 yd/mtr', 'Center-Fire Rifle: 100 yd/mtr']","['Airgun', 'Muzzle Loading Events']",http://www.bbvsc.org/home.html
6328,Firing Line Indoor Shooting Range-Burbank,1060 N Lake St,CA,Burbank,91502-1624,(818) 954-9810,Non-NSSF,"['Public', 'Indoor', 'Commercial Range', 'Handicap accessible', 'Public Access', 'Memberships Available', 'Host Events Open To Public/Non-Members']","['Clubhouse/Lounge/Lodge', 'Equipment Rentals', 'Instruction Available', 'Retail Store']",[],[],[],http://www.firingline.net
4150,Rancho Magnum Range,9049 9th Street,CA,Rancho Cucamonga,91730-7005,(909) 987-1299,Non-NSSF,"['Public', 'Indoor', 'Commercial Range', 'Handicap accessible', 'Public Access', 'Memberships Available', 'Host Events Open To Public/Non-Members']","['Equipment Rentals', 'Instruction Available', 'Retail Store']",['Handguns'],['Handgun/Smallbore Rifle: 50 ft'],"['Precision Pistol', 'Smallbore']",http://www.magnumrange.com/
2628,Highland Park Sportsmen,2035 Colorado Blvd,CA,Eagle Rock,90650-1822,(323) 254-0763,Non-NSSF,"['Public', 'Outdoor', ""Gun/Sportsman's Club"", 'Public Access']",[],['Shotguns'],[],"['Hi-Power Rifle Matches', 'Smallbore']",http://www.highlandparksportsmensclub.com/index.htm
4757,Elk River Training Center,16117 Covello St,CA,Van Nuys,91406,(818) 906-3754,Non-NSSF,"['Public', 'Indoor', 'Commercial Range', 'Handicap accessible', 'Public Access']",[],[],[],[],http://www.elkrivertrainingcenter.com
4082,Valley Pro  Range,8300 Enadia Way,CA,North Hills,91343,(818) 794-4113,Non-NSSF,"['Public', 'Indoor/Outdoor', 'Law enforcement', 'Handicap accessible', 'Memberships Available']","['Clubhouse/Lounge/Lodge', 'Equipment Rentals', 'Retail Store']","['Handguns', 'Rifles', 'Shotguns']","['Handgun/Smallbore Rifle: 100 yd/mtr', 'Handgun/Smallbore Rifle: 100 yd/mtr', 'Center-Fire Rifle: 500 yd/mtr']","['Practical/Action Pistol', 'Precision Pistol']",#
4285,Magnum Range,766 S Lugo Ave,CA,San Bernardino,92408-2236,(909) 884-5584,Non-NSSF,"['Public', 'Indoor', 'Commercial Range', 'Law enforcement', 'Handicap accessible', 'Public Access']","['Clubhouse/Lounge/Lodge', 'Equipment Rentals', 'Instruction Available', ""Women's Programs""]","['Handguns', 'Rifles', 'Shotguns', 'Archery Indoor']","['Handgun/Smallbore Rifle: 50 ft', 'Center-Fire Rifle: 50 ft']",['Practical/Action Pistol'],http://www.davesmagnumrange.com
3906,Dale Wimp Rifle Range,7398 Avenue 328,CA,Visalia,93279-0105,(559) 651-3063,Non-NSSF,"['Public', 'Outdoor', ""Gun/Sportsman's Club"", 'Handicap accessible', 'Public Access']",[],"['Handguns', 'Rifles']","['Handgun/Smallbore Rifle: 200 yd/mtr', 'Center-Fire Rifle: 200 yd/mtr']","['Cowboy Action Shooting', 'Muzzle Loading Events', 'Rifle Metallic Silhouette', 'Smallbore']",https://www.facebook.com/pages/Dale-Wimp-Rifle-Range/188184374533099
4212,Tulare County Trap Club,7394 Ave 328,CA,Visalia,93292,(559) 999-2067,Non-NSSF,"['Public', 'Outdoor', ""Gun/Sportsman's Club"", 'Public Access', 'Memberships Available']",[],['Shotguns'],[],[],http://www.tularecountytrapclub.com/
6138,Redlands Shooting Park,2125 N. Orange St,CA,Redlands,92373,(909) 335-8844,Non-NSSF,"['Public', 'Outdoor', 'Commercial Range', ""Gun/Sportsman's Club"", 'Handicap accessible', 'Public Access', 'Memberships Available', 'Host Events Open To Public/Non-Members']","['Camper/RV Sites', 'Clubhouse/Lounge/Lodge', 'Equipment Rentals', 'Instruction Available', 'Retail Store', ""Women's Programs""]",['Shotguns'],[],"['Skeet Competition', 'Sporting Clays/FITASC', 'Trap Competition']",http://www.redlandsshootingpark.com
9092,The Compound Movie Ranch & Training Facility,11000 Happy Camp Road,CA,Moorpark,93012,(805) 369-9665,Non-NSSF,"['Private', 'Outdoor', 'Commercial Range', 'Law enforcement', ""Gun/Sportsman's Club"", 'Military Facility', 'Handicap accessible', 'Public Access', 'Members Only', 'Memberships Available', 'Host Events Open To Public/Non-Members']","['Camper/RV Sites', 'Clubhouse/Lounge/Lodge', 'Equipment Rentals', 'Food Service/Snacks', 'Instruction Available', 'Junior Rifle', 'Picnic Area', 'Retail Store', ""Women's Programs"", 'Youth Programs']","['Handguns', 'Rifles', 'Shotguns', 'Archery Outdoor Field']","['Handgun/Smallbore Rifle: 100 yd/mtr', 'Center-Fire Rifle: 100 yd/mtr']",[],http://www.thecompoundus.com
5478,Woods Archery Range,1434 Santa Anita Ave,CA,South El Monte,91733,(626) 582-8898,Non-NSSF,"['Public', 'Indoor', 'Commercial Range', 'Law enforcement', 'Handicap accessible', 'Public Access']","['Equipment Rentals', 'Hunter Education', 'Retail Store']",['Archery Indoor'],[],[],http://www.thecrossbowstore.com
1514,Triple B Clays Shotgun Sports Park,831 N Rosemead Blvd,CA,South El Monte,91733-4211,(626) 579-5201,Non-NSSF,"['Public', 'Outdoor', 'Commercial Range', 'Handicap accessible', 'Public Access', 'Memberships Available']","['Camper/RV Sites', 'Clubhouse/Lounge/Lodge', 'Equipment Rentals', 'Food Service/Snacks', 'Hunter Education', 'Instruction Available', 'Lodging Available', 'Picnic Area', 'Retail Store', ""Women's Programs"", 'Youth Programs']",['Shotguns'],[],"['Skeet Competition', 'Sporting Clays/FITASC', 'Trap Competition']",http://www.triplebclays.com
4576,"Los Angeles Rifle & Revolver Club, Inc.",1700 N Loma aVE Whittier Narrows Recreation Area,CA,So El Monte,91733,(714) 612-4585,Non-NSSF,"['Public', 'Outdoor', ""Gun/Sportsman's Club"", 'Handicap accessible', 'Public Access', 'Memberships Available']","['Clubhouse/Lounge/Lodge', 'Instruction Available', 'Picnic Area']",['Handguns'],['Handgun/Smallbore Rifle: 100 yd/mtr'],"['Airgun', 'Smallbore']",http://www.larrclub.org
5178,La Puente Firing Range,16418 Valley Blvd,CA,La Puente,91744-5547,(626) 330-8336,Non-NSSF,"['Public', 'Indoor', 'Commercial Range', 'Handicap accessible', 'Public Access', 'Memberships Available']","['Equipment Rentals', 'Food Service/Snacks', 'Instruction Available', 'Retail Store']",['Handguns'],['Handgun/Smallbore Rifle: 75 ft'],[],http://www.lpfr.com
7184,Firearms Training Academy,1375 W 6tth Street,CA,Los Angeles,90063,(213) 622-9201,Non-NSSF,"['Public', 'Indoor/Outdoor', 'Commercial Range', 'Law enforcement', 'Handicap accessible', 'Public Access']","['Food Service/Snacks', 'Hunter Education', 'Instruction Available']",[],[],['Precision Pistol'],http://www.firearmsacademy.net/index.html
6371,Riverside Archery,1919 Atlas Dr,CA,Riverside,92501-1736,(909) 684-9192,Non-NSSF,"['Public', 'Indoor', 'Commercial Range', 'Handicap accessible', 'Public Access']","['Instruction Available', 'Retail Store']",['Archery Indoor'],[],[],http://www.riversidearcheryca.net/index.html
4302,Los Angeles Gun Club,1375 East 6th Street Unit 7,CA,Los Angeles,90021,(213) 612-0931,Non-NSSF,"['Public', 'Indoor', 'Commercial Range', 'Handicap accessible', 'Public Access']","['Clubhouse/Lounge/Lodge', 'Equipment Rentals', 'Food Service/Snacks', 'Instruction Available', 'Retail Store']","['Handguns', 'Rifles', 'Shotguns']","['Handgun/Smallbore Rifle: 50 ft', 'Center-Fire Rifle: 50 ft']",[],http://www.thelosangelesgunclub.com
1583,Prado Olympic Shooting Park,17501 Pomona Rincon Road,CA,Chino,91708,(909) 597-4794,Non-NSSF,"['Public', 'Outdoor', 'Commercial Range', 'Handicap accessible', 'Public Access']","['Hunter Education', 'Instruction Available', ""Women's Programs""]",['Shotguns'],[],"['Airgun', 'Bench Rest', 'Precision Pistol']",http://www.shootprado.com
7075,Oranco Bowmen Archery Range,17504 Pomona Rincon Rd,CA,Chino,91708-9286,(909) 597-7582,Non-NSSF,"['Private', 'Outdoor', ""Gun/Sportsman's Club"", 'Members Only', 'Memberships Available']","['Clubhouse/Lounge/Lodge', 'Instruction Available']",['Archery Outdoor Field'],[],['3D Archery'],http://www.orancobowmen.org
6399,Firearms Training Associates,14995 River Road,CA,Corona,92880,(714) 701-9918,Non-NSSF,"['Public', 'Indoor/Outdoor', 'Commercial Range', 'Public Access']","['Food Service/Snacks', 'Hunter Education', 'Instruction Available', ""Women's Programs""]",[],[],['Precision Pistol'],http://www.ftatv.com
7070,Mike Raahauge Shooting Enterprises,14995 River Rd,CA,Corona,92880,(760) 636-9441,Non-NSSF,"['Public', 'Outdoor', 'Commercial Range', 'Law enforcement', 'Municipal Facility', ""Gun/Sportsman's Club"", 'Hunting Preserve', 'Handicap accessible', 'Public Access', 'Memberships Available']","['Clubhouse/Lounge/Lodge', 'Equipment Rentals', 'Food Service/Snacks', 'Hunter Education', 'Instruction Available', 'Junior Rifle', 'Picnic Area', 'Retail Store', 'Youth Programs']","['Handguns', 'Rifles', 'Shotguns', 'Archery Outdoor Field']","['Handgun/Smallbore Rifle: 50 yd/mtr', 'Center-Fire Rifle: 100 yd/mtr']","['Cowboy Action Shooting', 'Handgun Metallic Silhouette', 'Hi-Power Rifle Matches', 'Muzzle Loading Events', 'Practical/Action Pistol', 'Rifle Metallic Silhouette', 'Skeet Competition', 'Smallbore', 'Sporting Clays/FITASC', 'Trap Competition']",http://www.raahauges.com
4386,Kingsburg Gun Club 1,2246 Gilbert Drive Ave 388 & Road 24,CA,Kingsburg,93631-9657,(559) 897-2890,Non-NSSF,"['Public', 'Outdoor', ""Gun/Sportsman's Club"", 'Handicap accessible', 'Public Access', 'Members Only', 'Memberships Available']","['Camper/RV Sites', 'Clubhouse/Lounge/Lodge']",['Shotguns'],[],['Trap Competition'],http://www.kingsburggunclub.org
8654,Riverside Indoor Shooting Range,11631 sterling ave,CA,Riverside,92503,951-353-0001,Non-NSSF,"['Public', 'Indoor', 'Commercial Range', 'Law enforcement', 'Handicap accessible', 'Public Access', 'Memberships Available', 'Host Events Open To Public/Non-Members']","['Equipment Rentals', 'Food Service/Snacks', 'Hunter Education', 'Instruction Available', 'Retail Store', ""Women's Programs"", 'Youth Programs']","['Handguns', 'Rifles', 'Shotguns', 'Archery Indoor']","['Handgun/Smallbore Rifle: 50 ft', 'Center-Fire Rifle: 50 ft']",['Practical/Action Pistol'],http://www.riversideindoorshootingrange.com
8655,FirePower Depot,11631 sterling ave,CA,Riverside,92503,951-353-0001,Non-NSSF,"['Public', 'Indoor/Outdoor', 'Commercial Range', 'Law enforcement', 'Military Facility', 'Handicap accessible', 'Public Access', 'Memberships Available', 'Host Events Open To Public/Non-Members']","['Clubhouse/Lounge/Lodge', 'Equipment Rentals', 'Food Service/Snacks', 'Hunter Education', 'Instruction Available', 'Retail Store', ""Women's Programs"", 'Youth Programs']","['Handguns', 'Rifles', 'Shotguns', 'Archery Indoor']","['Handgun/Smallbore Rifle: 50 yd/mtr', 'Handgun/Smallbore Rifle: 50 ft', 'Center-Fire Rifle: 75 ft', 'Center-Fire Rifle: 50 ft']","['3 Gun/Multi Gun', 'Practical/Action Pistol']",http://www.firepowerdepot.com
5345,"LAX Firing Range, Inc.",927 W Manchester Blvd,CA,Inglewood,90301-1526,(310) 568-1515,Non-NSSF,"['Public', 'Indoor', 'Commercial Range', 'Law enforcement', 'Handicap accessible', 'Public Access', 'Memberships Available', 'Host Events Open To Public/Non-Members']","['Clubhouse/Lounge/Lodge', 'Equipment Rentals', 'Instruction Available', 'Retail Store']","['Handguns', 'Rifles', 'Shotguns']","['Handgun/Smallbore Rifle: 75 ft', 'Center-Fire Rifle: 75 ft']",[],http://www.laxrange.com
11108,Angeles Shooting Range,927 West Manchester Boulevard,CA,Inglewood,90301,(310) 346-1317,Non-NSSF,"['Public', 'Outdoor', 'Municipal Facility', ""Gun/Sportsman's Club"", 'Handicap accessible', 'Public Access', 'Memberships Available', 'Host Events Open To Public/Non-Members']","['Clubhouse/Lounge/Lodge', 'Equipment Rentals', 'Food Service/Snacks', 'Instruction Available', 'Junior Rifle', 'Lodging Available', 'Picnic Area', 'Retail Store']","['Handguns', 'Rifles', 'Shotguns', 'Archery Indoor', 'Archery Outdoor Field', 'Archery Outdoor 3D']","['Handgun/Smallbore Rifle: 100 yd/mtr', 'Handgun/Smallbore Rifle: 50 yd/mtr', 'Center-Fire Rifle: 100 yd/mtr', 'Center-Fire Rifle: 100 yd/mtr']","['3D Archery', '3 Gun/Multi Gun', 'Airgun', 'Bench Rest', 'Cowboy Action Shooting', 'Handgun Metallic Silhouette', 'Hi-Power Rifle Matches', 'Muzzle Loading Events', 'Practical/Action Pistol', 'Precision Pistol', 'Rifle Metallic Silhouette', 'Rimfire Challenge', 'Skeet Competition', 'Smallbore', 'Sporting Clays/FITASC', 'Trap Competition']",https://www.angelesshooting.com/
1586,Insight Shooting Range,17020 Alburtis Ave,CA,Artesia,90701-2615,(562) 860-4365,Non-NSSF,"['Public', 'Indoor', 'Commercial Range', 'Handicap accessible', 'Public Access']","['Clubhouse/Lounge/Lodge', 'Equipment Rentals', 'Food Service/Snacks', 'Hunter Education', 'Instruction Available', 'Retail Store']","['Handguns', 'Rifles', 'Shotguns']","['Handgun/Smallbore Rifle: 75 ft', 'Center-Fire Rifle: 75 ft']",[],http://www.insightrangeinc.com
7740,The Beaumont Indoor Shooting Range,877 W 4th St Ste D,CA,Beaumont,92223-2637,(951) 845-5757,Non-NSSF,"['Public', 'Indoor', 'Commercial Range', 'Handicap accessible', 'Public Access']",[],['Rifles'],['Center-Fire Rifle: 75 ft'],[],http://thebeaumontindoorshootingrange.com/
3853,"Big Horn Mountain Men, Inc.",2179 N Batavia St,CA,Orange,92865,(909) 874-1242,Non-NSSF,"['Private', 'Outdoor', ""Gun/Sportsman's Club"", 'Members Only', 'Memberships Available']",[],[],[],['Muzzle Loading Events'],http://www.bighornmountainmen.com/index.html
8625,Hi-Desert Rod & Gun Club,8046 Yucca Park Rd.,CA,Morongo Valley,92256,760 365-1355,Non-NSSF,"['Public', 'Outdoor', 'Commercial Range', ""Gun/Sportsman's Club"", 'Handicap accessible', 'Public Access', 'Memberships Available', 'Host Events Open To Public/Non-Members']","['Instruction Available', 'Picnic Area', ""Women's Programs"", 'Youth Programs']","['Handguns', 'Rifles', 'Shotguns']","['Handgun/Smallbore Rifle: 100 yd/mtr', 'Center-Fire Rifle: 100 yd/mtr']","['Bench Rest', 'Handgun Metallic Silhouette', 'Hi-Power Rifle Matches', 'Muzzle Loading Events', 'Rimfire Challenge', 'Smallbore', 'Trap Competition']",http://hdrgc.org
1702,Evan's Gunsmithing Shooters World,1637 N Brian St,CA,Orange,92867-3423,(714) 283-5248,Non-NSSF,"['Public', 'Indoor', 'Commercial Range', 'Law enforcement', 'Handicap accessible', 'Public Access', 'Memberships Available', 'Host Events Open To Public/Non-Members']","['Instruction Available', 'Retail Store', 'Youth Programs']","['Handguns', 'Rifles']","['Handgun/Smallbore Rifle: 75 ft', 'Center-Fire Rifle: 75 ft']","['Cowboy Action Shooting', 'Practical/Action Pistol', 'Smallbore']",https://evansgunworld.com/
7067,Enforcement Trainers,1095 N. Main St Suite D,CA,Orange,92867-3423,(714) 921-8990,Non-NSSF,"['Public', 'Indoor', 'Commercial Range', 'Handicap accessible', 'Public Access']",['Instruction Available'],[],[],[],http://www.enforcementtrainers.com
7608,San Joaquine Valley Rod and Gun Club,537 Iora Ave,CA,Leemoore,93245,(555) 998-3385,Non-NSSF,"['Public', 'Outdoor', ""Gun/Sportsman's Club"", 'Handicap accessible', 'Public Access', 'Memberships Available']","['Clubhouse/Lounge/Lodge', 'Equipment Rentals', 'Food Service/Snacks', 'Instruction Available']","['Shotguns', 'Archery Outdoor Field']",[],"['Skeet Competition', 'Trap Competition']",https://www.facebook.com/San-Joaquin-Valley-Rod-and-Gun-Club-143175959117081/
2314,Bishop Gun Club,US Hwy 395,CA,Bishop,93515,(760) 873-8326,Non-NSSF,"['Private', 'Outdoor', ""Gun/Sportsman's Club"", 'Members Only', 'Memberships Available']",[],[],[],[],http://www.uspsa2.org/bishop.htm
2629,Izaak Walton League - Santa Ana,1714 W Santa Clara Ave,CA,Santa Ana,92706-1806,(714) 547-1691,Non-NSSF,"['Private', 'Outdoor', ""Gun/Sportsman's Club"", 'Members Only', 'Memberships Available']",[],[],[],[],https://www.facebook.com/orangeikes
7062,California Security Academy,1525 E 17th St # J,CA,Santa Ana,92705-8522,(714) 504-9367,Non-NSSF,"['Public', 'Outdoor', 'Commercial Range', 'Law enforcement', 'Handicap accessible', 'Public Access']",['Instruction Available'],[],[],[],http://www.encinas-csa.com
5096,"Shooters Paradise of Oxnard, Inc.",1910 Sunkist Cir,CA,Oxnard,93033-3923,(805) 486-1177,Non-NSSF,"['Public', 'Indoor', 'Commercial Range', 'Handicap accessible']","['Equipment Rentals', 'Instruction Available', 'Retail Store']","['Handguns', 'Rifles', 'Shotguns']","['Handgun/Smallbore Rifle: 50 ft', 'Center-Fire Rifle: 50 ft']",[],http://www.shootersparadiseoxnard.com
7083,Self Defense Firearms Training,5375 Industrial Dr # 107,CA,Huntington Beach,92649-1545,(714) 893-8676,Non-NSSF,"['Public', 'Indoor', 'Commercial Range', 'Handicap accessible', 'Public Access']",['Instruction Available'],[],[],[],http://www.firearmstraining.com
5785,Lemoore Sportsmans Club,23310 Elgin Ave,CA,Lemoore,93245,(559) 924-7240,Non-NSSF,"['Public', 'Outdoor', ""Gun/Sportsman's Club"", 'Handicap accessible', 'Members Only', 'Memberships Available']",['Camper/RV Sites'],['Shotguns'],[],[],http://www.lemooresportsmansclub.com
1579,Firing Line Indoor Shooting Range-Huntington Beach,17921 Jamestown Lane,CA,Huntington Beach,92647,(818) 954-9810,Non-NSSF,"['Public', 'Indoor', 'Commercial Range', 'Law enforcement', 'Military Facility', 'Handicap accessible', 'Public Access', 'Memberships Available', 'Host Events Open To Public/Non-Members']",[],[],[],[],http://www.firingline.net
6850,Range Master of Santa Maria,2004 Preisker Ln Unit 1,CA,Santa Maria,93454-1156,(805) 345-2501,Non-NSSF,"['Public', 'Indoor', 'Commercial Range', 'Handicap accessible', 'Public Access']","['Equipment Rentals', 'Instruction Available']",['Handguns'],['Handgun/Smallbore Rifle: 50 ft'],['Precision Pistol'],#
4061,Marksman Range & Threads dba Range Master,11 Higuera St,CA,San Luis Obispo,93401,(805) 545-0322,NSSF,"['Public', 'Indoor', 'Commercial Range', 'Law enforcement', 'Handicap accessible', 'Public Access']","['Equipment Rentals', 'Instruction Available', 'Picnic Area', 'Retail Store', ""Women's Programs"", 'Youth Programs']","['Handguns', 'Rifles']","['Handgun/Smallbore Rifle: 75 ft', 'Center-Fire Rifle: 75 ft']",['Airgun'],http://www.rangemastertacticalgear.com
11928,Santa Lucia Sportsmen's Association,10400 Santa Clara Rd PO Box 1077,CA,Atascadero,93423,(805) 466-9995,NSSF,"['Private', 'Outdoor', ""Gun/Sportsman's Club"", 'Handicap accessible', 'Members Only', 'Memberships Available', 'Host Events Open To Public/Non-Members']","['Clubhouse/Lounge/Lodge', 'Hunter Education', 'Instruction Available', 'Junior Rifle', ""Women's Programs"", 'Youth Programs']","['Handguns', 'Rifles', 'Shotguns', 'Archery Outdoor Field']","['Handgun/Smallbore Rifle: 50 yd/mtr', 'Center-Fire Rifle: 100 yd/mtr']","['3D Archery', 'Hi-Power Rifle Matches', 'Muzzle Loading Events', 'Skeet Competition', 'Trap Competition']",https://slsa.club/
10919,San Luis Obispo Sportsmen's Association,3270 Gilardi Road,CA,San Luis Obispo,93405,(805) 541-4867,NSSF,"['Public', 'Outdoor', 'Municipal Facility', ""Gun/Sportsman's Club"", 'Handicap accessible', 'Public Access', 'Memberships Available', 'Host Events Open To Public/Non-Members']","['Clubhouse/Lounge/Lodge', 'Equipment Rentals', 'Hunter Education', 'Instruction Available', 'Picnic Area', ""Women's Programs"", 'Youth Programs']","['Handguns', 'Rifles', 'Shotguns', 'Archery Outdoor Field', 'Archery Outdoor 3D']","['Handgun/Smallbore Rifle: 300 yd/mtr', 'Center-Fire Rifle: 1000 yd/mtr']","['3D Archery', '3 Gun/Multi Gun', 'Cowboy Action Shooting', 'Hi-Power Rifle Matches', 'Muzzle Loading Events', 'Practical/Action Pistol', 'Rimfire Challenge', 'Skeet Competition', 'Smallbore', 'Sporting Clays/FITASC', 'Trap Competition']",http://www.slosa.org
1595,Winchester Canyon Gun Club,6590 West Camino Cielo,CA,Goleta,93117,(805) 964-5606,Non-NSSF,"['Public', 'Outdoor', ""Gun/Sportsman's Club"", 'Handicap accessible', 'Public Access', 'Memberships Available']","['Clubhouse/Lounge/Lodge', 'Hunter Education', 'Instruction Available', 'Picnic Area', ""Women's Programs"", 'Youth Programs']","['Handguns', 'Rifles', 'Shotguns']","['Handgun/Smallbore Rifle: 50 yd/mtr', 'Center-Fire Rifle: 200 yd/mtr']","['Cowboy Action Shooting', 'Muzzle Loading Events', 'Practical/Action Pistol', 'Skeet Competition', 'Smallbore', 'Sporting Clays/FITASC', 'Trap Competition']",http://www.wcgc.org
3691,Santa Ynez Valley Sportsmen's Association,Highway 154 at Bee Rock,CA,Santa Ynez,93460-0453,(805) 688-8176,Non-NSSF,"['Private', 'Outdoor', ""Gun/Sportsman's Club"", 'Handicap accessible', 'Public Access']","['Clubhouse/Lounge/Lodge', 'Food Service/Snacks']","['Rifles', 'Shotguns']",['Center-Fire Rifle: 100 yd/mtr'],[],http://www.cgsta.com/central/santaynez.htm
6220,Vandenberg Air Force Base Rod & Gun Club,Bldg 1521 Taco Road,CA,Vandenberg Afb,93437,(805) 606-4560,Non-NSSF,"['Public', 'Outdoor', 'Military Facility', 'Handicap accessible', 'Members Only', 'Memberships Available', 'Host Events Open To Public/Non-Members']","['Food Service/Snacks', 'Picnic Area', 'Retail Store']","['Handguns', 'Rifles', 'Shotguns', 'Archery Outdoor Field']","['Handgun/Smallbore Rifle: 100 yd/mtr', 'Center-Fire Rifle: 100 yd/mtr']","['Cowboy Action Shooting', 'Handgun Metallic Silhouette', 'Hi-Power Rifle Matches', 'Precision Pistol', 'Rifle Metallic Silhouette', 'Skeet Competition', 'Sporting Clays/FITASC', 'Trap Competition']",http://www.vafbgunclub.com
9032,Central Coast Long Range Shooters,3270 Gilardi Road,CA,San Luis Obispo,93401,(805) 541-3338,Non-NSSF,"['Public', 'Outdoor', 'Law enforcement', ""Gun/Sportsman's Club"", 'Handicap accessible', 'Public Access', 'Memberships Available', 'Host Events Open To Public/Non-Members']","['Camper/RV Sites', 'Clubhouse/Lounge/Lodge', 'Hunter Education', 'Instruction Available', 'Junior Rifle', 'Picnic Area', ""Women's Programs"", 'Youth Programs']","['Handguns', 'Rifles']",[],"['Bench Rest', 'Hi-Power Rifle Matches', 'Rifle Metallic Silhouette']",https://centralcoastlongrangeshooters.com/
11133,United Defense Tactical,1011 Brioso Drive,CA,Costa Mesa,92627,(949) 612-2721,Non-NSSF,"['Private', 'Indoor', 'Handicap accessible', 'Members Only', 'Memberships Available', 'Host Events Open To Public/Non-Members']","['Instruction Available', 'Retail Store', ""Women's Programs""]","['Handguns', 'Archery Indoor']",['Handgun/Smallbore Rifle: 50 ft'],[],http://uniteddefensetactical.com
2434,Coalinga Rifle Club,Derrick Avenue,CA,Coalinga,93210-1142,,Non-NSSF,"['Private', 'Outdoor', ""Gun/Sportsman's Club"", 'Members Only', 'Memberships Available', 'Host Events Open To Public/Non-Members']",[],[],[],[],http://www.coalingarifleclub.org/
11584,"On Target Indoor Shooting Range, LLC.",27692 Camino Capistrano,CA,Laguna Niguel,92677,(949) 348-0352,Non-NSSF,"['Public', 'Indoor', 'Commercial Range', ""Gun/Sportsman's Club"", 'Handicap accessible', 'Public Access', 'Memberships Available', 'Host Events Open To Public/Non-Members']","['Equipment Rentals', 'Hunter Education', 'Instruction Available', 'Junior Rifle', 'Retail Store', ""Women's Programs"", 'Youth Programs']","['Handguns', 'Rifles']","['Handgun/Smallbore Rifle: 75 ft', 'Center-Fire Rifle: 75 ft']","['Practical/Action Pistol', 'Rimfire Challenge']",http://www.ontargetrange.com
1549,"Iron Sights Shooting Range, Inc.",618 Airport Rd,CA,Oceanside,92054-1243,(760) 721-4388,Non-NSSF,"['Public', 'Indoor', 'Commercial Range', 'Handicap accessible', 'Public Access', 'Memberships Available']","['Equipment Rentals', 'Instruction Available', 'Retail Store', ""Women's Programs""]",[],[],"['Handgun Metallic Silhouette', 'Practical/Action Pistol', 'Precision Pistol']",http://www.iron-sights.com
11732,Sacramento Gun Range,3443 Routier Rd.,CA,Sacramento,95827,(916) 246-2010,NSSF,"['Public', 'Indoor', 'Commercial Range', 'Handicap accessible', 'Public Access', 'Memberships Available', 'Host Events Open To Public/Non-Members']","['Equipment Rentals', 'Hunter Education', 'Instruction Available', 'Retail Store', ""Women's Programs"", 'Youth Programs']","['Handguns', 'Rifles']","['Handgun/Smallbore Rifle: 50 yd/mtr', 'Center-Fire Rifle: 50 yd/mtr']","['Hi-Power Rifle Matches', 'Practical/Action Pistol', 'Precision Pistol', 'Rimfire Challenge', 'Smallbore']",http://www.sgrange.us
1955,Birds Landing Hunting Preserve,2099 Collinsville Rd,CA,Birds Landing,94512,(707) 374-5092,NSSF,"['Public', 'Outdoor', 'Commercial Range', 'Hunting Preserve', 'Members Only', 'Memberships Available']","['Clubhouse/Lounge/Lodge', 'Equipment Rentals', 'Food Service/Snacks', 'Instruction Available', 'Picnic Area', ""Women's Programs""]",['Shotguns'],[],[],http://www.birdslanding.net
9250,HANGTOWN RANGE,1540 BROADWAY,CA,Placerville,95667,530-497-5443,NSSF,"['Public', 'Indoor', 'Commercial Range', 'Handicap accessible', 'Memberships Available', 'Host Events Open To Public/Non-Members']","['Equipment Rentals', 'Instruction Available', 'Retail Store', ""Women's Programs""]","['Handguns', 'Rifles', 'Archery Indoor']","['Handgun/Smallbore Rifle: 75 ft', 'Center-Fire Rifle: 75 ft']",[],http://WWW.hangtownrange.com
11617,"United Sportsmen, Inc",4700 Evora Road,CA,Concord,94520,(925) 676-1987,NSSF,"['Public', 'Outdoor', 'Commercial Range', 'Law enforcement', ""Gun/Sportsman's Club"", 'Handicap accessible', 'Public Access', 'Memberships Available', 'Host Events Open To Public/Non-Members']","['Clubhouse/Lounge/Lodge', 'Hunter Education', 'Junior Rifle', 'Retail Store', ""Women's Programs"", 'Youth Programs']","['Handguns', 'Rifles', 'Shotguns', 'Archery Outdoor Field']","['Handgun/Smallbore Rifle: 75 ft', 'Center-Fire Rifle: 100 yd/mtr']","['3 Gun/Multi Gun', 'Airgun', 'Bench Rest', 'Handgun Metallic Silhouette', 'Practical/Action Pistol', 'Rifle Metallic Silhouette', 'Rimfire Challenge', 'Skeet Competition', 'Trap Competition']",https://UnitedSportsmen.com
5719,Diablo Rod and Gun Club,4700 Evora Road,CA,Concord,94522,(925) 676-1987,NSSF,"['Public', 'Outdoor', ""Gun/Sportsman's Club"", 'Handicap accessible', 'Public Access', 'Memberships Available', 'Host Events Open To Public/Non-Members']","['Clubhouse/Lounge/Lodge', 'Food Service/Snacks', 'Hunter Education', 'Instruction Available', 'Junior Rifle', 'Retail Store', ""Women's Programs"", 'Youth Programs']","['Handguns', 'Rifles', 'Shotguns', 'Archery Outdoor Field', 'Archery Outdoor 3D']","['Handgun/Smallbore Rifle: 100 yd/mtr', 'Center-Fire Rifle: 200 yd/mtr']","['3 Gun/Multi Gun', 'Airgun', 'Bench Rest', 'Cowboy Action Shooting', 'Handgun Metallic Silhouette', 'Hi-Power Rifle Matches', 'Muzzle Loading Events', 'Precision Pistol', 'Rifle Metallic Silhouette', 'Rimfire Challenge', 'Trap Competition']",http://www.DiabloRodandGun.Com
5934,Barnwood Arms,120 E Main St,CA,Ripon,95366-2417,(209) 599-4651,NSSF,"['Public', 'Indoor', 'Commercial Range', 'Handicap accessible', 'Public Access', 'Memberships Available', 'Host Events Open To Public/Non-Members']","['Equipment Rentals', 'Food Service/Snacks', 'Instruction Available', 'Retail Store']",['Handguns'],['Handgun/Smallbore Rifle: 50 ft'],['Airgun'],http://www.thebarnwoodarms.com
8876,Reed's Indoor Range,1100 Duane Avenue,CA,Santa Clara,95054,408-970-9870,NSSF,"['Public', 'Indoor', 'Commercial Range', 'Handicap accessible', 'Public Access', 'Host Events Open To Public/Non-Members']","['Equipment Rentals', 'Hunter Education', 'Instruction Available', 'Retail Store', ""Women's Programs"", 'Youth Programs']","['Handguns', 'Rifles']","['Handgun/Smallbore Rifle: 75 ft', 'Center-Fire Rifle: 75 ft']","['Practical/Action Pistol', 'Precision Pistol']",http://WWW.REEDSINDOORRANGE.COM
2583,Santa Clara County Sports Park,9580 Malech Rd,CA,San Jose,95138-2000,(408) 463-0652,NSSF,"['Public', 'Indoor', 'Municipal Facility', 'Handicap accessible', 'Public Access']",['Instruction Available'],"['Rifles', 'Shotguns']","['Center-Fire Rifle: 200 yd/mtr', 'Center-Fire Rifle: 75 ft']",[],https://www.sccgov.org/sites/parks/AboutUs/Pages/FieldSportsRangeFees.aspx
9123,Stage Stop Gun Shop & Indoor Range,601 ATWATER BLVD,CA,ATWATER,95301,209-358-4867,NSSF,"['Public', 'Indoor', 'Commercial Range', 'Handicap accessible', 'Public Access', 'Memberships Available', 'Host Events Open To Public/Non-Members']","['Clubhouse/Lounge/Lodge', 'Equipment Rentals', 'Hunter Education', 'Instruction Available', 'Retail Store', ""Women's Programs""]","['Handguns', 'Rifles', 'Shotguns', 'Archery Indoor']",['Center-Fire Rifle: 75 ft'],[],http://www.stagestopgunshop.com
1765,Coyote Valley Sporting Clays,1000 San Bruno Ave,CA,Morgan Hill,95037,(408) 778-3600,NSSF,"['Public', 'Outdoor', 'Commercial Range', 'Handicap accessible', 'Public Access', 'Memberships Available', 'Host Events Open To Public/Non-Members']","['Clubhouse/Lounge/Lodge', 'Equipment Rentals', 'Hunter Education', 'Instruction Available', 'Picnic Area', ""Women's Programs""]",['Shotguns'],[],['Cowboy Action Shooting'],http://www.coyoteclays.com
11754,Nice Shot Range,4765 Caterpillar Rd,CA,Redding,96003-1415,(530) 241-6486,NSSF,"['Public', 'Indoor', 'Commercial Range', 'Public Access']","['Equipment Rentals', 'Hunter Education', 'Instruction Available', 'Retail Store', 'Youth Programs']","['Handguns', 'Rifles']","['Handgun/Smallbore Rifle: 75 ft', 'Center-Fire Rifle: 75 ft']",[],http://www.niceshotrange.com
10219,Laguna Shooting Center,2220 Kausen Drive,CA,Elk Grove,95758,(916) 478-2888,Non-NSSF,"['Public', 'Indoor', 'Commercial Range', 'Law enforcement', 'Municipal Facility', 'Handicap accessible', 'Public Access', 'Memberships Available', 'Host Events Open To Public/Non-Members']","['Equipment Rentals', 'Food Service/Snacks', 'Instruction Available', 'Junior Rifle', 'Lodging Available', 'Retail Store', ""Women's Programs"", 'Youth Programs']","['Handguns', 'Rifles']","['Handgun/Smallbore Rifle: 75 ft', 'Center-Fire Rifle: 75 ft']","['3 Gun/Multi Gun', 'Airgun', 'Bench Rest', 'Cowboy Action Shooting', 'Hi-Power Rifle Matches', 'Practical/Action Pistol', 'Precision Pistol', 'Rimfire Challenge']",http://lagunashootingrange.com
2691,University of California Rifle and Pistol,Military Science Department,CA,Davis,95616,(916) 752-1695,Non-NSSF,"['Private', 'Outdoor', ""Gun/Sportsman's Club"", 'Members Only']",[],[],[],[],#
3933,Maya Bowhunters,750 Galleria Blvd,CA,Roseville,95678-8072,,Non-NSSF,"['Private', 'Outdoor', ""Gun/Sportsman's Club"", 'Public Access']",[],"['Archery Outdoor Field', 'Archery Outdoor 3D']",[],['3D Archery'],http://www.mayaarchers.com
4475,Wilderness Archery,4870 Pacific St,CA,Rocklin,95677-2410,(916) 630-8700,Non-NSSF,"['Public', 'Indoor', 'Commercial Range', 'Handicap accessible', 'Public Access']","['Equipment Rentals', 'Instruction Available', 'Retail Store', ""Women's Programs""]",['Archery Indoor'],[],[],http://www.wildernessarchery.com
6752,Alta Mesa Gun Club,10100 Reigl Road,CA,Wilton,95693,(916) 616-1561,Non-NSSF,"['Public', 'Outdoor', 'Commercial Range', ""Gun/Sportsman's Club"", 'Handicap accessible', 'Public Access', 'Memberships Available', 'Host Events Open To Public/Non-Members']","['Hunter Education', ""Women's Programs"", 'Youth Programs']","['Shotguns', 'Archery Outdoor Field']",[],['Trap Competition'],http://www.amgc.net/
7039,Garcia's Hunting Preserves,3121 Humphrey Road,CA,Loomis,95650-9095,(916) 847-1584,Non-NSSF,"['Public', 'Outdoor', 'Hunting Preserve', 'Handicap accessible', 'Public Access']",['Clubhouse/Lounge/Lodge'],[],[],[],http://www.garciashuntingpreserves.com
4553,Lincoln Shooting Sports Center,1420 Sheridan Lincoln Blvd,CA,Lincoln,95648,(916) 434-0308,Non-NSSF,"['Public', 'Outdoor', ""Gun/Sportsman's Club"", 'Handicap accessible', 'Public Access', 'Memberships Available', 'Host Events Open To Public/Non-Members']","['Equipment Rentals', 'Instruction Available', ""Women's Programs"", 'Youth Programs']","['Handguns', 'Rifles', 'Shotguns']","['Handgun/Smallbore Rifle: 50 yd/mtr', 'Center-Fire Rifle: 50 yd/mtr']","['3 Gun/Multi Gun', 'Airgun', 'Cowboy Action Shooting', 'Handgun Metallic Silhouette', 'Hi-Power Rifle Matches', 'Precision Pistol', 'Trap Competition']",http://www.lincolnrifleclub.com
3883,Coon Creek Trap & Skeet,5393 Waltz Road,CA,Rio Olso,95674,(916) 539-8544,Non-NSSF,"['Public', 'Outdoor', 'Commercial Range', 'Handicap accessible', 'Public Access', 'Memberships Available']","['Camper/RV Sites', ""Women's Programs"", 'Youth Programs']",['Shotguns'],[],[],http://www.cooncreektrap.com
2630,Golden Ram Sportsmans Club,321 Endless Court,CA,El Dorado Hills,95682,(916) 941-7880,Non-NSSF,"['Public', 'Outdoor', 'Hunting Preserve', 'Members Only', 'Memberships Available']",['Lodging Available'],[],[],[],http://www.goldenramhunting.com
6320,Yankee Slough Hunt Club,3805 Hwy. 65,CA,Lincoln,95648,(916) 645-6028,Non-NSSF,"['Private', 'Outdoor', 'Hunting Preserve']","['Clubhouse/Lounge/Lodge', 'Food Service/Snacks', 'Hunter Education']",[],[],[],http://yankeesloughhuntclub.com
6788,Galt Police Department,455 Industrial Dr,CA,Galt,95632-1561,(916) 799-1582,Non-NSSF,"['Private', 'Indoor', 'Municipal Facility']",[],[],[],[],#
1599,Sacramento Valley Shooting Center,15501 Meiss Rd,CA,Sloughhouse,95683,(916) 354-9668,Non-NSSF,"['Public', 'Outdoor', ""Gun/Sportsman's Club"", 'Handicap accessible', 'Public Access', 'Memberships Available']","['Equipment Rentals', 'Food Service/Snacks', 'Instruction Available', 'Junior Rifle', 'Picnic Area', 'Retail Store', 'Youth Programs']","['Handguns', 'Rifles', 'Shotguns']","['Handgun/Smallbore Rifle: 500 yd/mtr', 'Center-Fire Rifle: 500 yd/mtr']","['Bench Rest', 'Cowboy Action Shooting', 'Handgun Metallic Silhouette', 'Hi-Power Rifle Matches', 'Muzzle Loading Events', 'Practical/Action Pistol', 'Precision Pistol', 'Rifle Metallic Silhouette', 'Skeet Competition', 'Smallbore', 'Sporting Clays/FITASC', 'Trap Competition']",http://www.sacvalley.org
5334,Folsom Shooting Club,15501 Meiss Road,CA,Sloughhouse,95683,(916) 354-9668,Non-NSSF,"['Private', 'Outdoor', 'Commercial Range', 'Law enforcement', ""Gun/Sportsman's Club"", 'Handicap accessible', 'Public Access', 'Memberships Available', 'Host Events Open To Public/Non-Members']","['Clubhouse/Lounge/Lodge', 'Equipment Rentals', 'Food Service/Snacks', 'Picnic Area', 'Retail Store', 'Youth Programs']","['Handguns', 'Rifles', 'Shotguns']","['Handgun/Smallbore Rifle: 100 yd/mtr', 'Center-Fire Rifle: 300 yd/mtr']","['Bench Rest', 'Cowboy Action Shooting', 'Handgun Metallic Silhouette', 'Muzzle Loading Events', 'Practical/Action Pistol', 'Precision Pistol', 'Rifle Metallic Silhouette', 'Skeet Competition', 'Smallbore', 'Trap Competition']",http://www.sacvalley.org
2047,Hastings Island Hunting Preserve,7758 Hastings Island Rd.,CA,Rio Vista,94571,(707) 678-3325,Non-NSSF,"['Private', 'Outdoor', 'Hunting Preserve', 'Handicap accessible', 'Members Only', 'Memberships Available']","['Clubhouse/Lounge/Lodge', 'Food Service/Snacks']",['Shotguns'],[],[],http://www.hihp.com/
6319,Quail Point Preserve,29625 County Rd 14,CA,Zamora,95698,(530) 735-6217,Non-NSSF,"['Public', 'Outdoor', ""Gun/Sportsman's Club"", 'Hunting Preserve', 'Public Access', 'Memberships Available']",[],['Shotguns'],[],[],http://www.quailpoint.com
6135,Raahauges Hunting And Sporting Clays,25835 County Rd 8,CA,Dunnigan,95937,(530) 724-0552,Non-NSSF,"['Public', 'Outdoor', 'Commercial Range', ""Gun/Sportsman's Club"", 'Hunting Preserve', 'Handicap accessible', 'Public Access', 'Host Events Open To Public/Non-Members']","['Camper/RV Sites', 'Youth Programs']",['Shotguns'],[],[],http://www.lincraahauges.com
4255,Auburn Trap Club,11540 Lorenson Rd,CA,Auburn,95602,(530) 885-5748,Non-NSSF,"['Private', 'Outdoor', 'Law enforcement', ""Gun/Sportsman's Club"", 'Handicap accessible', 'Public Access', 'Memberships Available', 'Host Events Open To Public/Non-Members']","['Clubhouse/Lounge/Lodge', 'Instruction Available', 'Picnic Area', 'Youth Programs']",['Shotguns'],[],['Trap Competition'],http://www.auburntrapclub.com
7861,Guns Fishing & Other Stuff,197 Butcher Rd,CA,Vacaville,95687,(707) 451-1199,Non-NSSF,"['Public', 'Indoor', 'Commercial Range', 'Handicap accessible', 'Public Access', 'Memberships Available', 'Host Events Open To Public/Non-Members']","['Equipment Rentals', 'Hunter Education', 'Instruction Available', 'Junior Rifle', 'Retail Store', ""Women's Programs"", 'Youth Programs']","['Handguns', 'Rifles']","['Handgun/Smallbore Rifle: 75 ft', 'Center-Fire Rifle: 75 ft']",[],http://www.gunsfishing.com
6201,Travis Rod & Gun Club,570 Ellis Drive,CA,Travis AFB,94535,(707) 424-5077,Non-NSSF,"['Public', 'Outdoor', ""Gun/Sportsman's Club"", 'Military Facility', 'Public Access', 'Memberships Available', 'Host Events Open To Public/Non-Members']",['Clubhouse/Lounge/Lodge'],"['Shotguns', 'Archery Outdoor Field']",[],['Skeet Competition'],http://www.travisfss.com/odr/targets/
4908,Beale AFB Rod N Gun Club,4950 D St,CA,Beale AFB,95903,(530) 788-2473,Non-NSSF,"['Public', 'Outdoor', ""Gun/Sportsman's Club"", 'Military Facility', 'Handicap accessible', 'Public Access', 'Memberships Available', 'Host Events Open To Public/Non-Members']","['Clubhouse/Lounge/Lodge', 'Equipment Rentals', 'Food Service/Snacks', 'Retail Store']","['Handguns', 'Rifles', 'Shotguns', 'Archery Outdoor Field']","['Handgun/Smallbore Rifle: 100 yd/mtr', 'Center-Fire Rifle: 100 yd/mtr']","['Practical/Action Pistol', 'Rimfire Challenge', 'Trap Competition']",https://www.bealefss.com/rod-n-gun/
4053,Twin Cities Rod and Gun Club,68 Second St.,CA,Yuba City,95992,(530) 751-7054,Non-NSSF,"['Public', 'Indoor/Outdoor', ""Gun/Sportsman's Club"", 'Handicap accessible', 'Public Access', 'Memberships Available']","['Clubhouse/Lounge/Lodge', 'Instruction Available', 'Youth Programs']","['Handguns', 'Rifles']","['Handgun/Smallbore Rifle: 100 yd/mtr', 'Handgun/Smallbore Rifle: 50 ft', 'Center-Fire Rifle: 100 yd/mtr']","['Airgun', 'Smallbore']",http://www.twincitiesgunclub.com
2356,El Dorado Rod and Gun Club,5941 Union Mine Road,CA,El Dorado,95623,(530) 903-8331,Non-NSSF,"['Public', 'Outdoor', ""Gun/Sportsman's Club"", 'Handicap accessible', 'Public Access', 'Memberships Available', 'Host Events Open To Public/Non-Members']",[],"['Handguns', 'Rifles', 'Shotguns']","['Handgun/Smallbore Rifle: 50 yd/mtr', 'Center-Fire Rifle: 100 yd/mtr']","['Bench Rest', 'Cowboy Action Shooting', 'Muzzle Loading Events', 'Practical/Action Pistol', 'Trap Competition']",http://www.eldoradorodandgun.com
5891,"Shooters Paradise, LLC",1407A Colusa Ave,CA,Yuba City,95993,(530) 673-4100,Non-NSSF,"['Public', 'Indoor', 'Commercial Range', 'Handicap accessible', 'Public Access']","['Equipment Rentals', 'Instruction Available', 'Retail Store', ""Women's Programs"", 'Youth Programs']","['Handguns', 'Rifles']","['Handgun/Smallbore Rifle: 75 ft', 'Center-Fire Rifle: 75 ft']",['Airgun'],http://shootersparadise.us/
6354,Camanche Hills Hunting Preserve,2951 Curran Road,CA,Ione,95640,(209) 763-5270,Non-NSSF,"['Public', 'Outdoor', 'Commercial Range', 'Hunting Preserve', 'Public Access', 'Host Events Open To Public/Non-Members']","['Camper/RV Sites', 'Clubhouse/Lounge/Lodge', 'Food Service/Snacks']",['Shotguns'],[],[],http://www.camhills.com
1485,True Sportsman Club,8250 True Sportsman Dr,CA,Ione,95640,(209) 223-1762,Non-NSSF,"['Private', 'Outdoor', ""Gun/Sportsman's Club"", 'Handicap accessible', 'Public Access', 'Memberships Available', 'Host Events Open To Public/Non-Members']",[],"['Rifles', 'Shotguns']",['Center-Fire Rifle: 100 yd/mtr'],"['Airgun', 'Handgun Metallic Silhouette', 'Rifle Metallic Silhouette']",http://truesportsmanclub.org/ione/
3509,Napa Shooting Preserve,3195 Wooden Valley Rd,CA,Napa,94558-9399,(707) 255-5095,Non-NSSF,"['Public', 'Outdoor', 'Commercial Range']",[],['Shotguns'],[],[],#
4387,Stockton Trap & Skeet Club,4343 N Ashley Ln,CA,Stockton,95215-9174,(209) 931-6803,Non-NSSF,"['Public', 'Outdoor', 'Commercial Range', ""Gun/Sportsman's Club"", 'Handicap accessible', 'Public Access', 'Memberships Available']","['Camper/RV Sites', 'Clubhouse/Lounge/Lodge', 'Equipment Rentals', 'Food Service/Snacks', 'Hunter Education', 'Instruction Available', 'Picnic Area', 'Retail Store', 'Youth Programs']",['Shotguns'],[],"['Skeet Competition', 'Sporting Clays/FITASC', 'Trap Competition']",http://www.stocktontrapandskeetclub.com
1575,The Range (CA),13235B Grass Valley Ave,CA,Grass Valley,95945-9097,(530) 273-4440,Non-NSSF,"['Public', 'Indoor', 'Commercial Range', 'Handicap accessible', 'Public Access', 'Memberships Available']","['Equipment Rentals', 'Hunter Education', 'Instruction Available', 'Retail Store', 'Youth Programs']","['Handguns', 'Rifles']",['Handgun/Smallbore Rifle: 75 ft'],"['3 Gun/Multi Gun', 'Cowboy Action Shooting', 'Practical/Action Pistol']",http://www.the-range.biz
2632,Walnut Creek Sportsmen Club,4700 Evora Rd,CA,Concord,94520-1002,(925) 676-1987,Non-NSSF,"['Public', 'Outdoor', 'Commercial Range', ""Gun/Sportsman's Club"", 'Handicap accessible', 'Public Access', 'Memberships Available']","['Clubhouse/Lounge/Lodge', 'Retail Store', 'Youth Programs']","['Shotguns', 'Archery Outdoor Field']",[],"['Airgun', 'Bench Rest', 'Handgun Metallic Silhouette', 'Hi-Power Rifle Matches', 'Muzzle Loading Events', 'Practical/Action Pistol', 'Precision Pistol', 'Rifle Metallic Silhouette', 'Skeet Competition', 'Smallbore', 'Trap Competition']",http://www.walnutcreeksportsmen.com
5664,Bay Point Rod & Gun Club,4700 Evora Road,CA,Concord,94519,(925) 676-1963,Non-NSSF,"['Public', 'Outdoor', ""Gun/Sportsman's Club"", 'Members Only', 'Memberships Available', 'Host Events Open To Public/Non-Members']",[],['Shotguns'],[],[],http://www.baypointrodandgun.com
3884,Nevada County Sportsmen Club,11296 Banner Mountain Trl,CA,Nevada City,95959-9625,(530) 265-5131,Non-NSSF,"['Private', 'Outdoor', ""Gun/Sportsman's Club"", 'Handicap accessible', 'Members Only', 'Memberships Available']","['Clubhouse/Lounge/Lodge', 'Food Service/Snacks', 'Hunter Education', 'Youth Programs']","['Handguns', 'Rifles', 'Shotguns', 'Archery Outdoor Field', 'Archery Outdoor 3D']","['Handgun/Smallbore Rifle: 200 yd/mtr', 'Center-Fire Rifle: 200 yd/mtr']","['3D Archery', 'Airgun', 'Bench Rest', 'Cowboy Action Shooting', 'Precision Pistol', 'Rifle Metallic Silhouette', 'Smallbore', 'Trap Competition']",http://nevadacountysportsmen.com/services/home.php
4460,San Joaquin Rifle & Pistol Range,828 S Hewitt Rd,CA,Linden,95236-9727,(209) 887-3191,Non-NSSF,"['Public', 'Outdoor', 'Commercial Range', 'Handicap accessible', 'Public Access']",[],['Rifles'],['Center-Fire Rifle: 50 yd/mtr'],[],http://www.outdoorgunrange.com/
7878,North Valley Shooting Association,1098 E. Gridley Rd,CA,Gridley,95948,(530) 277-8452,Non-NSSF,"['Public', 'Outdoor', ""Gun/Sportsman's Club"", 'Handicap accessible', 'Members Only', 'Memberships Available', 'Host Events Open To Public/Non-Members']","['Picnic Area', ""Women's Programs"", 'Youth Programs']","['Handguns', 'Rifles']","['Handgun/Smallbore Rifle: 50 yd/mtr', 'Center-Fire Rifle: 50 yd/mtr']","['Practical/Action Pistol', 'Rimfire Challenge']",http://www.nvsa.info/
2389,Martinez Gun Club,900 Waterbird Way PO BOX 910,CA,Martinez,94553-0090,(925) 372-9599,Non-NSSF,"['Public', 'Outdoor', ""Gun/Sportsman's Club"", 'Handicap accessible', 'Public Access', 'Memberships Available']","['Clubhouse/Lounge/Lodge', 'Youth Programs']",['Shotguns'],[],[],http://www.martinezgunclub.net
4489,TOPONCE RANCHES Longbow Hunters International,1953 Countrywood Ct,CA,Walnut Creek,94598-1015,(925) 938-2721,Non-NSSF,"['Private', 'Outdoor', ""Gun/Sportsman's Club"", 'Handicap accessible', 'Members Only']",[],"['Handguns', 'Rifles']","['Handgun/Smallbore Rifle: 50 yd/mtr', 'Center-Fire Rifle: 50 yd/mtr']",[],#
3903,Valley of the Moon Trap Club,27000 Burndale Rd,CA,Sonoma,95476,(707) 953-2937,Non-NSSF,"['Private', 'Outdoor', ""Gun/Sportsman's Club"", 'Handicap accessible', 'Members Only', 'Memberships Available', 'Host Events Open To Public/Non-Members']","['Clubhouse/Lounge/Lodge', 'Equipment Rentals', 'Food Service/Snacks', 'Hunter Education', 'Instruction Available', 'Junior Rifle', 'Picnic Area', 'Retail Store', ""Women's Programs"", 'Youth Programs']",['Shotguns'],[],['Trap Competition'],http://www.vomtc.org
7499,Blue Mountain Event Center,7350 Mitchell Mill Rd,CA,Wilseyville,95257,(916) 715-6571,Non-NSSF,"['Private', 'Outdoor', ""Gun/Sportsman's Club"", 'Handicap accessible', 'Members Only', 'Memberships Available']","['Camper/RV Sites', 'Food Service/Snacks', 'Lodging Available', 'Picnic Area']","['Handguns', 'Rifles', 'Shotguns', 'Archery Outdoor Field']","['Handgun/Smallbore Rifle: 100 yd/mtr', 'Center-Fire Rifle: 100 yd/mtr']","['Airgun', 'Muzzle Loading Events']",http://www.bluemountainpresents.com
4967,Tracy Rifle and Pistol,7601 W 11th St,CA,Tracy,95304,(209) 833-9100,Non-NSSF,"['Public', 'Indoor', 'Commercial Range', 'Law enforcement', 'Handicap accessible', 'Public Access', 'Memberships Available', 'Host Events Open To Public/Non-Members']","['Equipment Rentals', 'Instruction Available', 'Retail Store']","['Handguns', 'Rifles']","['Handgun/Smallbore Rifle: 75 ft', 'Center-Fire Rifle: 75 ft']",['Airgun'],http://www.tracyrifleandpistol.com
5897,Livermore Pleasanton Rod & Gun Club,4000 Dagnino Rd,CA,Livermore,94551-0786,(925) 449-8780,Non-NSSF,"['Public', 'Outdoor', 'Commercial Range', ""Gun/Sportsman's Club"", 'Handicap accessible', 'Public Access', 'Memberships Available']","['Clubhouse/Lounge/Lodge', 'Hunter Education', 'Instruction Available', 'Lodging Available', 'Picnic Area', 'Youth Programs']","['Handguns', 'Rifles', 'Shotguns', 'Archery Outdoor Field']","['Handgun/Smallbore Rifle: 100 yd/mtr', 'Center-Fire Rifle: 100 yd/mtr']","['Airgun', 'Trap Competition']",http://www.lprg.org
2097,"Richmond Rod and Gun Club, Inc",3155 Goodrick Ave,CA,Richmond,94801-1126,(510) 620-9519,Non-NSSF,"['Public', 'Outdoor', 'Law enforcement', ""Gun/Sportsman's Club"", 'Handicap accessible', 'Public Access', 'Memberships Available']","['Clubhouse/Lounge/Lodge', 'Hunter Education', 'Junior Rifle', 'Picnic Area']","['Handguns', 'Rifles', 'Shotguns']","['Handgun/Smallbore Rifle: 200 yd/mtr', 'Center-Fire Rifle: 200 yd/mtr']","['Bench Rest', 'Cowboy Action Shooting', 'Hi-Power Rifle Matches', 'Muzzle Loading Events', 'Practical/Action Pistol', 'Skeet Competition', 'Smallbore', 'Sporting Clays/FITASC', 'Trap Competition']",http://www.richmondrodandgun.com/
5552,Escalon Sportsman's Club,25195 River Rd,CA,Escalon,95320,(209) 602-0103,Non-NSSF,"['Public', 'Outdoor', ""Gun/Sportsman's Club"", 'Handicap accessible', 'Public Access', 'Memberships Available', 'Host Events Open To Public/Non-Members']","['Hunter Education', 'Instruction Available', 'Junior Rifle', 'Picnic Area']","['Handguns', 'Rifles', 'Shotguns']","['Handgun/Smallbore Rifle: 100 yd/mtr', 'Center-Fire Rifle: 100 yd/mtr']","['Airgun', 'Bench Rest', 'Trap Competition']",https://sites.google.com/site/escalonsports/
3791,Angels Gun Club,2403 Gun Club Rd,CA,Angels Camp,95222,(209) 736-9357,Non-NSSF,"['Public', 'Outdoor', ""Gun/Sportsman's Club"", 'Handicap accessible', 'Public Access', 'Memberships Available', 'Host Events Open To Public/Non-Members']",['Clubhouse/Lounge/Lodge'],"['Handguns', 'Rifles', 'Shotguns', 'Archery Outdoor Field']","['Handgun/Smallbore Rifle: 50 yd/mtr', 'Center-Fire Rifle: 100 yd/mtr']",['Trap Competition'],http://angelsgunclub.com
7020,"Manteca Sportsmen, Inc.",30261 South Airport Way,CA,Manteca,95337,(209) 823-7919,Non-NSSF,"['Public', 'Outdoor', 'Commercial Range', ""Gun/Sportsman's Club"", 'Handicap accessible', 'Public Access', 'Memberships Available']","['Camper/RV Sites', 'Clubhouse/Lounge/Lodge', 'Food Service/Snacks', 'Hunter Education', 'Instruction Available', 'Picnic Area', ""Women's Programs"", 'Youth Programs']","['Handguns', 'Rifles', 'Shotguns', 'Archery Outdoor Field']","['Handgun/Smallbore Rifle: 50 yd/mtr', 'Center-Fire Rifle: 100 yd/mtr']","['3D Archery', 'Cowboy Action Shooting', 'Hi-Power Rifle Matches', 'Muzzle Loading Events', 'Trap Competition']",http://www.mantecasportsmeninc.org/
5687,California Skeet Shooting Assn,205 Northwood Commons,CA,Livermore,94550,(925) 980-2079,Non-NSSF,"['Public', 'Outdoor', 'Commercial Range', 'Public Access']",['Camper/RV Sites'],['Shotguns'],[],[],http://www.calskeet.com
1999,Modesto Rifle Club,1041 Patterson Rd,CA,Modesto,95356,(209) 577-9604,Non-NSSF,"['Private', 'Outdoor', ""Gun/Sportsman's Club"", 'Members Only', 'Memberships Available']",[],"['Handguns', 'Rifles', 'Archery Outdoor Field']","['Handgun/Smallbore Rifle: 50 yd/mtr', 'Center-Fire Rifle: 50 yd/mtr']","['Airgun', 'Handgun Metallic Silhouette', 'Rifle Metallic Silhouette']",http://www.modestorifleclub.com/home
5099,Northern California Riflemans Association,45 Foley St,CA,Santa Rosa,95401-4208,(707) 546-5711,Non-NSSF,"['Private', 'Indoor/Outdoor', 'Law enforcement', 'Handicap accessible', 'Public Access', 'Members Only']","['Food Service/Snacks', 'Lodging Available', 'Picnic Area', ""Women's Programs"", 'Youth Programs']","['Handguns', 'Rifles', 'Shotguns', 'Archery Outdoor Field']","['Handgun/Smallbore Rifle: 50 yd/mtr', 'Handgun/Smallbore Rifle: 75 ft', 'Center-Fire Rifle: 300 yd/mtr']","['3D Archery', 'Rifle Metallic Silhouette', 'Smallbore', 'Sporting Clays/FITASC']",http://www.cheaperthandirt.com/GunRanges/RangeDetails.aspx?sid=12220
7074,On Target Firearms Instruction,503 Bangs Ave # D,CA,Modesto,95356-8991,(209) 575-2308,Non-NSSF,"['Public', 'Outdoor', 'Commercial Range', 'Public Access']",['Instruction Available'],[],[],[],http://www.ontargetfirearmsinstruction.com
4388,Keystone/Modesto Rifle Club,3717 Spring Oak Dr,CA,Modesto,95355-1426,(209) 523-3507,Non-NSSF,"['Private', 'Indoor/Outdoor', 'Commercial Range', 'Handicap accessible', 'Public Access', 'Members Only']","['Clubhouse/Lounge/Lodge', 'Instruction Available', ""Women's Programs""]","['Handguns', 'Rifles', 'Archery Outdoor Field']","['Handgun/Smallbore Rifle: 50 ft', 'Center-Fire Rifle: 50 ft']","['3D Archery', 'Airgun', 'Bench Rest', 'Handgun Metallic Silhouette', 'Precision Pistol', 'Rifle Metallic Silhouette', 'Smallbore']",#
1555,San Leandro Rifle & Pistol Range,3001 Davis St,CA,San Leandro,94577-2235,(510) 638-9605,Non-NSSF,"['Public', 'Indoor/Outdoor', 'Commercial Range', 'Law enforcement', 'Municipal Facility', ""Gun/Sportsman's Club"", 'Handicap accessible', 'Public Access', 'Host Events Open To Public/Non-Members']","['Instruction Available', 'Junior Rifle', ""Women's Programs"", 'Youth Programs']","['Handguns', 'Rifles', 'Shotguns']","['Handgun/Smallbore Rifle: 50 yd/mtr', 'Handgun/Smallbore Rifle: 50 ft', 'Center-Fire Rifle: 100 yd/mtr']","['Airgun', 'Bench Rest', 'Handgun Metallic Silhouette']",http://www.slrifle.com
4494,Traditional Archers of California,291 Seavey Rd,CA,Petaluma,94954,(707) 763-6574,Non-NSSF,"['Public', 'Outdoor', 'Commercial Range']",[],['Archery Outdoor Field'],[],['3D Archery'],http://www.traditionalarchersofca.org
6345,Wilderness Unlimited,20974 Corsair Blvd.,CA,Hayward,94545,(510) 785-4868,Non-NSSF,"['Private', 'Outdoor', 'Hunting Preserve', 'Members Only', 'Memberships Available']",[],[],[],[],http://www.wildernessunlimited.com
6126,Petaluma Trap & Skeet Club,599 Tomales Rd,CA,Petaluma,94954,(707) 763-9010,Non-NSSF,"['Public', 'Outdoor', ""Gun/Sportsman's Club"", 'Public Access', 'Host Events Open To Public/Non-Members']",[],['Shotguns'],[],"['Skeet Competition', 'Trap Competition']",http://www.claytargetsonline.com/club.php/2249
5130,Stonyford Sharpshooters Youth Gun Club,4875 Lodoga Stonyford Rd Po Box 8,CA,Stonyford,95979-9706,(530) 963-3245,Non-NSSF,"['Private', 'Outdoor', ""Gun/Sportsman's Club"", 'Handicap accessible', 'Members Only']",[],"['Handguns', 'Rifles']","['Handgun/Smallbore Rifle: 50 yd/mtr', 'Center-Fire Rifle: 50 yd/mtr']",[],#
3885,"Paradise Rod & Gun Club, Inc.",3420 Skyway,CA,Paradise,95967,(530) 877-1345,Non-NSSF,"['Private', 'Outdoor', 'Law enforcement', ""Gun/Sportsman's Club"", 'Handicap accessible', 'Members Only', 'Memberships Available']","['Hunter Education', 'Instruction Available', 'Junior Rifle', 'Picnic Area', ""Women's Programs"", 'Youth Programs']","['Handguns', 'Rifles', 'Shotguns', 'Archery Outdoor Field']","['Handgun/Smallbore Rifle: 50 yd/mtr', 'Center-Fire Rifle: 200 yd/mtr']",['Smallbore'],https://www.facebook.com/Paradise-Rod-and-Gun-Club-807355509313173/
7128,Archery Only,37300 Cedar Blvd Suite D,CA,Newark,94560-4165,(510) 795-0460,Non-NSSF,"['Public', 'Indoor', 'Commercial Range', 'Handicap accessible', 'Public Access']","['Equipment Rentals', 'Instruction Available', 'Retail Store', 'Youth Programs']",['Archery Indoor'],[],['3D Archery'],http://www.archeryonly.com
3168,Chico Rod and Gun Club,Upper Bidwell Park,CA,Chico,95926-2110,(530) 591-3379,Non-NSSF,"['Private', 'Indoor/Outdoor', ""Gun/Sportsman's Club"", 'Members Only', 'Memberships Available']","['Instruction Available', ""Women's Programs""]",['Handguns'],['Handgun/Smallbore Rifle: 50 ft'],[],http://www.chicogunclub.org/home2
4876,Down Range Indoor Training Center,13407 Garner Lane,CA,Chico,95973,(530) 896-1992,Non-NSSF,"['Public', 'Indoor', 'Commercial Range', 'Handicap accessible', 'Public Access', 'Memberships Available', 'Host Events Open To Public/Non-Members']","['Equipment Rentals', 'Instruction Available', 'Retail Store']",[],[],[],http://www.downrangechico.com
2631,Coyote Point Rifle & Pistol Club Inc.,1601 Coyote Point Dr,CA,San Mateo,94401-1002,(650) 573-2557,Non-NSSF,"['Public', 'Outdoor', 'Commercial Range', ""Gun/Sportsman's Club"", 'Handicap accessible', 'Public Access', 'Memberships Available', 'Host Events Open To Public/Non-Members']",['Instruction Available'],"['Handguns', 'Rifles']","['Handgun/Smallbore Rifle: 50 yd/mtr', 'Center-Fire Rifle: 100 yd/mtr']","['Airgun', 'Handgun Metallic Silhouette', 'Precision Pistol', 'Smallbore']",http://www.coyotepointrpc.org
7434,Russian River Sportsmen's Club,Steelhead Blvd P.O Box 7,CA,Duncans Mills,95430,(707) 865-9429,Non-NSSF,"['Private', 'Outdoor', ""Gun/Sportsman's Club"", 'Handicap accessible', 'Members Only', 'Memberships Available']","['Camper/RV Sites', 'Clubhouse/Lounge/Lodge', 'Hunter Education', 'Instruction Available', 'Picnic Area', 'Retail Store', ""Women's Programs""]","['Shotguns', 'Archery Outdoor Field']",[],['Trap Competition'],https://russianriversportsmensclub.wordpress.com/
7084,Shoot The Works Inc,4266 County Road Mm,CA,Orland,95963-9170,(530) 865-8188,Non-NSSF,"['Public', 'Indoor', 'Commercial Range', 'Public Access']",['Retail Store'],[],[],[],#
7305,Five Star Firearms Training,Stampede Meadows Road,CA,Truckee,96161,(530) 587-5239,Non-NSSF,"['Public', 'Outdoor', 'Law enforcement', 'Military Facility', 'Handicap accessible', 'Public Access']",[],[],[],[],http://www.fivestarfirearms.com
1484,Newman Swamp Rats Trap,1204 Hills Ferry Road,CA,Newman,95360,(209) 862-2838,Non-NSSF,"['Public', 'Outdoor', ""Gun/Sportsman's Club"", 'Handicap accessible', 'Public Access', 'Memberships Available']","['Clubhouse/Lounge/Lodge', 'Instruction Available']","['Handguns', 'Rifles', 'Shotguns']","['Handgun/Smallbore Rifle: 50 yd/mtr', 'Center-Fire Rifle: 50 ft']",[],http://newmanswamprats.com
6321,Clear Creek Sports Club,Rolling Hills Casino,CA,Corning,96021,(530) 520-4034,Non-NSSF,"['Public', 'Outdoor', ""Gun/Sportsman's Club"", 'Hunting Preserve', 'Handicap accessible', 'Public Access', 'Memberships Available']","['Camper/RV Sites', 'Food Service/Snacks', 'Hunter Education', 'Instruction Available', 'Lodging Available', 'Picnic Area', 'Retail Store', 'Youth Programs']",['Shotguns'],[],"['Sporting Clays/FITASC', 'Trap Competition']",http://www.clearcreeksportsclub.com
2083,Sunnyvale Rod & Gun Club,11998 Stevens Canyon Rd.,CA,Cupertino,94088,(408) 873-8255,Non-NSSF,"['Public', 'Outdoor', ""Gun/Sportsman's Club"", 'Handicap accessible', 'Public Access', 'Memberships Available']","['Clubhouse/Lounge/Lodge', 'Hunter Education', 'Instruction Available', 'Youth Programs']","['Handguns', 'Rifles', 'Shotguns']","['Handgun/Smallbore Rifle: 100 yd/mtr', 'Center-Fire Rifle: 100 yd/mtr']","['Airgun', 'Bench Rest', 'Cowboy Action Shooting', 'Handgun Metallic Silhouette', 'Practical/Action Pistol', 'Precision Pistol', 'Rifle Metallic Silhouette', 'Smallbore', 'Trap Competition']",http://www.sunnyvalegunclub.com
4333,Ukiah Rifle and Pistol Club,2300 Vichy Springs Rd,CA,Ukiah,95482-3593,(707) 462-3533,Non-NSSF,"['Private', 'Outdoor', ""Gun/Sportsman's Club"", 'Handicap accessible', 'Members Only', 'Memberships Available']","['Camper/RV Sites', 'Clubhouse/Lounge/Lodge', 'Hunter Education', 'Instruction Available', 'Lodging Available', 'Picnic Area', ""Women's Programs"", 'Youth Programs']","['Handguns', 'Rifles', 'Shotguns', 'Archery Outdoor 3D']","['Handgun/Smallbore Rifle: 300 yd/mtr', 'Center-Fire Rifle: 300 yd/mtr']","['Bench Rest', 'Cowboy Action Shooting', 'Muzzle Loading Events', 'Practical/Action Pistol', 'Trap Competition']",http://www.ukiahgunclub.com
4865,Quincy Sport Shooting Association,Snake Lake Rd,CA,Quincy,95971,(530) 283-1772,Non-NSSF,"['Public', 'Outdoor', ""Gun/Sportsman's Club"", 'Handicap accessible', 'Public Access', 'Memberships Available', 'Host Events Open To Public/Non-Members']","['Instruction Available', ""Women's Programs"", 'Youth Programs']","['Handguns', 'Rifles', 'Shotguns']","['Handgun/Smallbore Rifle: 50 yd/mtr', 'Center-Fire Rifle: 200 yd/mtr']",['Trap Competition'],http://www.quincyshooting.com
1483,Sierra Valley Gun Club,County Rd A-24,CA,Portola,96122-0883,(530) 832-5959,Non-NSSF,"['Public', 'Outdoor', ""Gun/Sportsman's Club"", 'Public Access', 'Memberships Available']",[],['Shotguns'],[],[],http://sierravalleygunclub.com/
10478,Los Altos Rod and Gun Club,14750 Skyline Boulevard,CA,Los Gatos,95033,(408) 867-3106,Non-NSSF,"['Public', 'Outdoor', 'Commercial Range', ""Gun/Sportsman's Club"", 'Handicap accessible', 'Public Access', 'Memberships Available']","['Instruction Available', 'Picnic Area', 'Youth Programs']","['Handguns', 'Rifles', 'Shotguns']","['Handgun/Smallbore Rifle: 100 yd/mtr', 'Center-Fire Rifle: 100 yd/mtr']",[],http://www.largc.com
2316,Merced Fish and Game Club,2602 E Childs Ave,CA,Merced,95340-9505,(209) 631-8819,Non-NSSF,"['Private', 'Outdoor', ""Gun/Sportsman's Club"", 'Members Only', 'Memberships Available']",[],[],[],[],http://www.mfginc.org/index.html
4254,Los Banos Sportsmens Association,13989 S Mercey Springs Rd,CA,Los Banos,93635-9707,(209) 827-3278,Non-NSSF,"['Private', 'Outdoor', ""Gun/Sportsman's Club"", 'Handicap accessible', 'Public Access', 'Memberships Available']",[],['Shotguns'],[],[],https://www.facebook.com/pages/Los-Banos-Sportsmens-Association/113227362033387
7035,Scott's Valley Sportsman's Club,PO Box 66132,CA,Scotts Valley,95067,(831) 471-5979,Non-NSSF,"['Private', 'Indoor/Outdoor', 'Law enforcement', ""Gun/Sportsman's Club"", 'Handicap accessible', 'Members Only', 'Memberships Available']","['Picnic Area', 'Youth Programs']","['Handguns', 'Rifles', 'Shotguns']","['Handgun/Smallbore Rifle: 100 yd/mtr', 'Handgun/Smallbore Rifle: 100 yd/mtr', 'Center-Fire Rifle: 100 yd/mtr']","['Airgun', 'Bench Rest', 'Muzzle Loading Events', 'Practical/Action Pistol', 'Smallbore']",http://www.scottsvalleysportsmen.com
2030,Red Bank Ale & Quail,18875 Red Bank Rd,CA,Red Bluff,96080-9363,(530) 529-9435,Non-NSSF,"['Public', 'Outdoor', 'Commercial Range', 'Handicap accessible', 'Public Access', 'Memberships Available']","['Clubhouse/Lounge/Lodge', 'Equipment Rentals', 'Hunter Education', 'Lodging Available']",['Shotguns'],[],[],http://www.redbankhunting.com
8933,Quail Valley Ranch Shooting Range Firearm Training Facility,1871 Los Viboras Road,CA,Hollister,95023,831-801-6196,Non-NSSF,"['Private', 'Outdoor', ""Gun/Sportsman's Club""]","['Clubhouse/Lounge/Lodge', 'Instruction Available', 'Picnic Area', ""Women's Programs"", 'Youth Programs']","['Handguns', 'Rifles', 'Shotguns', 'Archery Outdoor Field']",['Handgun/Smallbore Rifle: 100 yd/mtr'],"['Bench Rest', 'Handgun Metallic Silhouette', 'Precision Pistol']",http://www.californiaplacestoshoot.com
7621,The Firing Line,1173  Daytyon Ave #103A,CA,Clovis,93612,(559) 294-9400,Non-NSSF,"['Public', 'Indoor', 'Commercial Range', 'Handicap accessible', 'Public Access', 'Memberships Available']","['Equipment Rentals', 'Instruction Available', ""Women's Programs"", 'Youth Programs']",['Handguns'],['Handgun/Smallbore Rifle: 75 ft'],[],http://www.thefiringlineclovis.com
4749,Poway Weapons & Gear,13550 Danielson St.,CA,Poway,92064,(858) 206-5057,NSSF,"['Public', 'Indoor', 'Commercial Range', 'Handicap accessible', 'Public Access', 'Memberships Available']","['Equipment Rentals', 'Food Service/Snacks', 'Instruction Available', 'Junior Rifle', 'Retail Store', ""Women's Programs"", 'Youth Programs']","['Handguns', 'Rifles', 'Shotguns']",['Handgun/Smallbore Rifle: 100 yd/mtr'],"['Airgun', 'Hi-Power Rifle Matches', 'Practical/Action Pistol', 'Precision Pistol']",http://www.weaponsandgearrange.com
1718,P2K Range,2082 WILLOW GLEN DR,CA,El Cajon,92019,(619) 442-9971,NSSF,"['Public', 'Indoor/Outdoor', ""Gun/Sportsman's Club"", 'Handicap accessible', 'Public Access', 'Memberships Available', 'Host Events Open To Public/Non-Members']","['Clubhouse/Lounge/Lodge', 'Equipment Rentals', 'Instruction Available', 'Retail Store', ""Women's Programs"", 'Youth Programs']","['Handguns', 'Rifles', 'Shotguns', 'Archery Outdoor Field', 'Archery Outdoor 3D']","['Handgun/Smallbore Rifle: 50 yd/mtr', 'Handgun/Smallbore Rifle: 75 ft', 'Center-Fire Rifle: 50 yd/mtr']",['Bench Rest'],http://www.p2krange.com
1594,"South Bay Rod & Gun Club, Inc.",1020 Marron Valley Road,CA,Dulzura,91917,(619) 468-3070,NSSF,"['Private', 'Outdoor', ""Gun/Sportsman's Club"", 'Handicap accessible', 'Public Access', 'Memberships Available']","['Junior Rifle', ""Women's Programs"", 'Youth Programs']","['Handguns', 'Rifles', 'Shotguns']","['Handgun/Smallbore Rifle: 100 yd/mtr', 'Center-Fire Rifle: 300 yd/mtr']","['Cowboy Action Shooting', 'Handgun Metallic Silhouette', 'Hi-Power Rifle Matches', 'Muzzle Loading Events', 'Rifle Metallic Silhouette', 'Smallbore', 'Trap Competition']",http://www.sbrgc.org
4296,Border Tactical Indoor Range & Gun Store,925 N Imperial Ave,CA,El Centro,92243,(760) 353-4884,NSSF,"['Public', 'Indoor', 'Commercial Range', 'Handicap accessible', 'Public Access', 'Memberships Available']","['Clubhouse/Lounge/Lodge', 'Equipment Rentals', 'Food Service/Snacks', 'Hunter Education', 'Instruction Available', 'Junior Rifle', 'Retail Store', ""Women's Programs"", 'Youth Programs']","['Handguns', 'Rifles']","['Handgun/Smallbore Rifle: 75 ft', 'Center-Fire Rifle: 75 ft']","['Practical/Action Pistol', 'Precision Pistol', 'Smallbore']",http://www.bordertactical.com
11822,Discount Gun Mart - San Diego,1510 Morena Boulevard,CA,San Diego,92110,(619) 276-8730,Non-NSSF,"['Public', 'Indoor', 'Commercial Range', 'Handicap accessible', 'Public Access', 'Memberships Available', 'Host Events Open To Public/Non-Members']","['Equipment Rentals', 'Instruction Available', 'Retail Store']","['Handguns', 'Rifles', 'Shotguns']","['Handgun/Smallbore Rifle: 75 ft', 'Center-Fire Rifle: 75 ft']",[],http://range.discountgunmart.com
7989,The Gun Range San Diego Veronica,7853 Balboa Ave,CA,San Diego,92111,858-573-1911,Non-NSSF,"['Public', 'Indoor', 'Commercial Range', 'Public Access']","['Equipment Rentals', 'Instruction Available', 'Retail Store']","['Handguns', 'Rifles']",[],[],http://www.TheGunRangeSanDiego.com
11826,Discount Gun Mart & Indoor Range,8516 Magnolia Ave,CA,Santee,92071,(619) 596-4099,Non-NSSF,"['Public', 'Indoor', 'Commercial Range', 'Law enforcement', 'Handicap accessible', 'Public Access', 'Memberships Available', 'Host Events Open To Public/Non-Members']","['Clubhouse/Lounge/Lodge', 'Equipment Rentals', 'Instruction Available', 'Retail Store', ""Women's Programs""]","['Handguns', 'Rifles']","['Handgun/Smallbore Rifle: 50 ft', 'Center-Fire Rifle: 50 ft']",[],https://www.discountgunmart.com/indoor-ranges/santee-range/
11825,San Diego Firearms Training Center,12150 Flint Pl,CA,Poway,92064-7106,(858) 679-2900,Non-NSSF,"['Public', 'Indoor', 'Handicap accessible', 'Public Access', 'Memberships Available', 'Host Events Open To Public/Non-Members']",[],"['Handguns', 'Rifles']","['Handgun/Smallbore Rifle: 75 ft', 'Center-Fire Rifle: 75 ft']",[],http://sandiegofirearms.com
1622,Lemon Grove Rod & Gun Club,16232 Sequan Truck Trail,CA,Alpine,91901,(619) 445-4030,Non-NSSF,"['Private', 'Outdoor', ""Gun/Sportsman's Club"", 'Handicap accessible', 'Members Only', 'Memberships Available']","['Clubhouse/Lounge/Lodge', 'Lodging Available', 'Picnic Area', ""Women's Programs"", 'Youth Programs']","['Handguns', 'Rifles', 'Shotguns', 'Archery Outdoor Field']","['Handgun/Smallbore Rifle: 50 yd/mtr', 'Center-Fire Rifle: 50 yd/mtr']","['Airgun', 'Bench Rest', 'Handgun Metallic Silhouette', 'Practical/Action Pistol', 'Precision Pistol', 'Rifle Metallic Silhouette', 'Sporting Clays/FITASC', 'Trap Competition']",https://lgrgc.com/
11636,North County Shooting Center,1440 Descanso Avenue,CA,San Marcos,92069,(760) 798-7300,Non-NSSF,"['Public', 'Indoor', 'Commercial Range', 'Handicap accessible', 'Public Access', 'Memberships Available', 'Host Events Open To Public/Non-Members']","['Equipment Rentals', 'Instruction Available', 'Retail Store']","['Handguns', 'Rifles', 'Shotguns', 'Archery Indoor']","['Handgun/Smallbore Rifle: 50 yd/mtr', 'Center-Fire Rifle: 50 yd/mtr']",[],https://www.northcountyshootingcenter.com/
10694,Escondido Fish & Game Association,16525 Guejita Road,CA,Escondido,92046-0506,(760) 749-3277,Non-NSSF,"['Private', 'Outdoor', ""Gun/Sportsman's Club"", 'Handicap accessible', 'Members Only', 'Memberships Available', 'Host Events Open To Public/Non-Members']","['Clubhouse/Lounge/Lodge', 'Hunter Education', 'Instruction Available', 'Junior Rifle', 'Picnic Area', ""Women's Programs"", 'Youth Programs']","['Handguns', 'Rifles', 'Shotguns', 'Archery Outdoor Field']","['Handgun/Smallbore Rifle: 50 yd/mtr', 'Center-Fire Rifle: 100 yd/mtr']","['Airgun', 'Cowboy Action Shooting', 'Handgun Metallic Silhouette', 'Hi-Power Rifle Matches', 'Muzzle Loading Events', 'Practical/Action Pistol', 'Precision Pistol', 'Rifle Metallic Silhouette', 'Smallbore', 'Trap Competition']",http://www.escondidofishandgame.com
4199,Palomar Hunt Club,26439 Hwy 76,CA,Santa Ysabel,92070,(760) 782-3000,Non-NSSF,"['Public', 'Outdoor', 'Hunting Preserve']",['Youth Programs'],[],[],[],http://www.palomarhuntclub.com
4550,Palm Springs Gun Club,255 N El Cielo Rd Pmb 322,CA,Palm Springs,92262-6974,,Non-NSSF,"['Public', 'Outdoor', ""Gun/Sportsman's Club"", 'Handicap accessible', 'Public Access', 'Memberships Available', 'Host Events Open To Public/Non-Members']",[],[],[],['Cowboy Action Shooting'],http://www.palmspringsgunclub.org
3482,Imperial Valley Rifle and Pistol/Wheeler Range,2500 W Wheeler Rd,CA,Imperial,92251,(760) 353-6238,Non-NSSF,"['Public', 'Outdoor', ""Gun/Sportsman's Club"", 'Handicap accessible', 'Public Access', 'Memberships Available']","[""Women's Programs"", 'Youth Programs']",['Shotguns'],[],"['Handgun Metallic Silhouette', 'Rifle Metallic Silhouette', 'Smallbore', 'Trap Competition']",http://ivrpa.net
11405,The Training Center,38-6988 El Viento Rd,CA,Palm Desert,99221,(760) 200-4867,Non-NSSF,"['Public', 'Indoor', 'Commercial Range', ""Gun/Sportsman's Club"", 'Handicap accessible', 'Public Access', 'Memberships Available', 'Host Events Open To Public/Non-Members']","['Equipment Rentals', 'Hunter Education', 'Instruction Available', 'Retail Store', ""Women's Programs""]","['Handguns', 'Rifles', 'Archery Indoor', 'Archery Outdoor Field']","['Handgun/Smallbore Rifle: 75 ft', 'Center-Fire Rifle: 75 ft']",['Airgun'],http://www.trainingrange.com
7852,Second Amendment Sports,38-6988 El Viento Rd,CA,Palm Desert,99221,(760) 200-4867,Non-NSSF,"['Public', 'Indoor', 'Commercial Range', ""Gun/Sportsman's Club"", 'Handicap accessible', 'Public Access', 'Memberships Available', 'Host Events Open To Public/Non-Members']","['Equipment Rentals', 'Hunter Education', 'Instruction Available', 'Retail Store', ""Women's Programs""]","['Handguns', 'Rifles', 'Archery Indoor', 'Archery Outdoor Field']","['Handgun/Smallbore Rifle: 75 ft', 'Center-Fire Rifle: 75 ft']",['Airgun'],http://www.2ndamendmentsports.com
10776,29 Palms Pistol & Rifle Club,7050 Pinto Mountain Rd,CA,Twentynine Palms,92277,(760) 367-4402,Non-NSSF,"['Private', 'Outdoor', ""Gun/Sportsman's Club"", 'Handicap accessible', 'Members Only', 'Memberships Available', 'Host Events Open To Public/Non-Members']","['Camper/RV Sites', 'Clubhouse/Lounge/Lodge', 'Instruction Available', 'Junior Rifle', 'Picnic Area']","['Handguns', 'Rifles', 'Shotguns']","['Handgun/Smallbore Rifle: 500 yd/mtr', 'Center-Fire Rifle: 500 yd/mtr']","['Bench Rest', 'Cowboy Action Shooting', 'Handgun Metallic Silhouette', 'Practical/Action Pistol']",http://www.29palmspistolandrifle.com/index.html
2802,Palo Verde Valley Rod and Gun,22 Sunset Way,CA,Palo Verde,92266-0037,(619) 854-3396,Non-NSSF,"['Public', 'Outdoor', ""Gun/Sportsman's Club"", 'Public Access', 'Memberships Available', 'Host Events Open To Public/Non-Members']",[],[],[],[],https://www.facebook.com/Palo-Verde-Valley-Rod-and-Gun-Club-206797319378771/
3899,Markley's Indoor Range and Gun Shop,14 Blanca Ln,CA,Watsonville,95076-2102,(831) 722-6945,Non-NSSF,"['Public', 'Indoor', 'Commercial Range', 'Public Access']","['Instruction Available', 'Retail Store']",[],[],[],http://www.markleysguns.com
1877,Laguna Seca Rifle and Pistol,1025 Monterey-Salinas Hwy 68,CA,Salinas,93908-8937,(831) 757-6317,Non-NSSF,"['Private', 'Outdoor', 'Municipal Facility', 'Handicap accessible', 'Members Only', 'Memberships Available']","['Lodging Available', 'Picnic Area']","['Handguns', 'Rifles', 'Shotguns']","['Handgun/Smallbore Rifle: 200 yd/mtr', 'Center-Fire Rifle: 200 yd/mtr']","['Bench Rest', 'Handgun Metallic Silhouette', 'Practical/Action Pistol']",http://lsssa.net/
4438,Faultline Shootist Society,34241 Gloria Road,CA,Gonzales,93926,(831) 635-9147,Non-NSSF,"['Public', 'Outdoor', 'Commercial Range', 'Handicap accessible', 'Public Access', 'Memberships Available', 'Host Events Open To Public/Non-Members']",[],[],[],['Cowboy Action Shooting'],http://www.faultlineshootistsociety.org
6317,Ace High Adventures Hunting Pres,24877 Road 10,CA,Chowchilla,93610-9276,(559) 665-1977,Non-NSSF,"['Public', 'Outdoor', 'Hunting Preserve', 'Public Access']","['Food Service/Snacks', 'Picnic Area', 'Youth Programs']",[],[],[],#
4385,Fresno County Trap & Skeet Club,5195 N Humboldt,CA,Kerman,93630,(559) 846-8750,Non-NSSF,"['Public', 'Outdoor', ""Gun/Sportsman's Club"", 'Handicap accessible', 'Public Access', 'Memberships Available']",['Instruction Available'],['Shotguns'],[],[],http://www.fresnotrapandskeet.com/index.html
7506,Police Science Institute,5133 N Gates Ave Suite 102,CA,Fresno,93722,(559) 276-9800,Non-NSSF,"['Public', 'Indoor', 'Commercial Range', 'Law enforcement', 'Municipal Facility', ""Gun/Sportsman's Club"", 'Military Facility', 'Handicap accessible', 'Public Access']","['Equipment Rentals', 'Hunter Education', 'Instruction Available', 'Retail Store', ""Women's Programs"", 'Youth Programs']","['Handguns', 'Rifles', 'Shotguns', 'Archery Indoor']","['Handgun/Smallbore Rifle: 75 ft', 'Center-Fire Rifle: 75 ft']","['Airgun', 'Bench Rest', 'Practical/Action Pistol', 'Precision Pistol', 'Smallbore']",http://www.policescience.com
1791,The Range Pistol Club,5151 N Gates Ave,CA,Fresno,93722-6414,(559) 277-9800,Non-NSSF,"['Public', 'Indoor', 'Commercial Range', 'Law enforcement', ""Gun/Sportsman's Club"", 'Handicap accessible', 'Public Access', 'Memberships Available']","['Clubhouse/Lounge/Lodge', 'Equipment Rentals', 'Food Service/Snacks', 'Hunter Education', 'Instruction Available', 'Junior Rifle', 'Retail Store', ""Women's Programs"", 'Youth Programs']","['Handguns', 'Rifles']",['Handgun/Smallbore Rifle: 50 yd/mtr'],['Practical/Action Pistol'],http://www.pistolrange.com
10516,Sun Mountain Gun Club,32868 Shotgun Lane,CA,Coarsegold,93614,(559) 683-3669,Non-NSSF,"['Private', 'Outdoor', 'Commercial Range', 'Law enforcement', ""Gun/Sportsman's Club"", 'Public Access', 'Memberships Available', 'Host Events Open To Public/Non-Members']","['Camper/RV Sites', 'Clubhouse/Lounge/Lodge', 'Food Service/Snacks', 'Instruction Available', 'Picnic Area']","['Handguns', 'Rifles', 'Shotguns']","['Handgun/Smallbore Rifle: 50 ft', 'Center-Fire Rifle: 100 yd/mtr']","['Practical/Action Pistol', 'Sporting Clays/FITASC', 'Trap Competition']",http://www.sunmountaingunclub.com
1975,Fresno Rifle and Pistol Club,15687 Auberry Rd,CA,Clovis,93611,(559) 299-6365,Non-NSSF,"['Public', 'Outdoor', 'Commercial Range', 'Handicap accessible', 'Public Access']","['Clubhouse/Lounge/Lodge', 'Equipment Rentals']","['Handguns', 'Rifles', 'Shotguns']","['Handgun/Smallbore Rifle: 200 yd/mtr', 'Center-Fire Rifle: 500 yd/mtr']","['Cowboy Action Shooting', 'Handgun Metallic Silhouette', 'Muzzle Loading Events', 'Practical/Action Pistol', 'Rifle Metallic Silhouette']",http://www.fresnorifleandpistolclub.com/
2070,Redding Gun Club,21777 Seven Lakes Ln,CA,Redding,96003-9274,(530) 549-4652,Non-NSSF,"['Private', 'Outdoor', ""Gun/Sportsman's Club"", 'Handicap accessible', 'Members Only', 'Memberships Available']","['Clubhouse/Lounge/Lodge', 'Food Service/Snacks', 'Lodging Available', 'Retail Store', 'Youth Programs']","['Handguns', 'Rifles', 'Shotguns']","['Handgun/Smallbore Rifle: 100 yd/mtr', 'Center-Fire Rifle: 100 yd/mtr']","['Cowboy Action Shooting', 'Practical/Action Pistol', 'Skeet Competition', 'Trap Competition']",http://www.reddinggunclub.net
8764,Long Prairie Gun and Archery Club (LPGAC),"Mile Marker 12, Highway 299",CA,Arcata,95518,None,Non-NSSF,"['Private', 'Outdoor', 'Law enforcement', ""Gun/Sportsman's Club"", 'Handicap accessible', 'Members Only', 'Memberships Available', 'Host Events Open To Public/Non-Members']",[],"['Handguns', 'Rifles', 'Shotguns', 'Archery Outdoor Field']",[],"['Cowboy Action Shooting', 'Practical/Action Pistol']",http://www.lpgac.org/
4889,7 Hills Land Cattle Company Hunting Club,28740 Inwood Road,CA,Shingletown,96088,(530) 474-5546,Non-NSSF,"['Public', 'Outdoor', ""Gun/Sportsman's Club"", 'Public Access', 'Host Events Open To Public/Non-Members']","['Food Service/Snacks', 'Lodging Available']","['Handguns', 'Rifles', 'Shotguns']","['Handgun/Smallbore Rifle: 500 yd/mtr', 'Center-Fire Rifle: 500 yd/mtr']",[],http://www.anselmovineyards.com
4741,Shasta County Peace Officers Association,9880 Record Range Rd,CA,Redding,96001,(530) 246-2773,Non-NSSF,"['Private', 'Outdoor', 'Law enforcement', 'Members Only', 'Host Events Open To Public/Non-Members']",['Clubhouse/Lounge/Lodge'],"['Handguns', 'Rifles', 'Shotguns']","['Handgun/Smallbore Rifle: 200 yd/mtr', 'Center-Fire Rifle: 200 yd/mtr']",['Bench Rest'],http://www.ShastaCountyPOA.org
7085,Straight Arrow Bow Hunters Club,9317 Swasey Dr,CA,Redding,96001-9725,(530) 246-1093,Non-NSSF,"['Public', 'Outdoor', 'Commercial Range', ""Gun/Sportsman's Club"", 'Public Access', 'Memberships Available']","['Instruction Available', 'Youth Programs']","['Archery Outdoor Field', 'Archery Outdoor 3D']",[],['3D Archery'],http://www.straightarrowbowhunters.com
3361,Tehama Shooters Association,26950 Manton Rd,CA,Manton,96080,(530) 529-9375,Non-NSSF,"['Private', 'Outdoor', 'Law enforcement', ""Gun/Sportsman's Club"", 'Handicap accessible', 'Public Access', 'Members Only', 'Memberships Available']","['Clubhouse/Lounge/Lodge', 'Instruction Available', 'Junior Rifle', 'Picnic Area', ""Women's Programs"", 'Youth Programs']","['Handguns', 'Rifles', 'Shotguns']","['Handgun/Smallbore Rifle: 500 yd/mtr', 'Center-Fire Rifle: 500 yd/mtr']","['Bench Rest', 'Handgun Metallic Silhouette', 'Hi-Power Rifle Matches', 'Rifle Metallic Silhouette', 'Smallbore', 'Trap Competition']",http://www.tehamashooters.com
5284,Hat Creek Rifle & Pistol Club,Hwy 299E,CA,Burney,96013-2076,(530) 335-4638,Non-NSSF,"['Private', 'Outdoor', 'Commercial Range', 'Law enforcement', ""Gun/Sportsman's Club"", 'Handicap accessible', 'Members Only', 'Memberships Available']",[],"['Handguns', 'Rifles']","['Handgun/Smallbore Rifle: 200 yd/mtr', 'Center-Fire Rifle: 500 yd/mtr']","['Cowboy Action Shooting', 'Handgun Metallic Silhouette', 'Muzzle Loading Events', 'Rifle Metallic Silhouette', 'Smallbore']",http://www.hcrpclub.org
7061,Bullseye Tactical Firearms Training,27373 Fat Bear Way # B,CA,Castella,96017-9603,(530) 235-0721,Non-NSSF,"['Private', 'Outdoor', 'Commercial Range', 'Handicap accessible', 'Public Access']",['Instruction Available'],['Archery Outdoor Field'],[],[],http://www.guninstructor.com
4634,Mt. Shasta Long Rifles,"Highway 89, Near Snowmans Hill Summit",CA,McCloud,96057,(530) 926-6942,Non-NSSF,"['Public', 'Outdoor', 'Commercial Range']",[],"['Handguns', 'Shotguns']",['Handgun/Smallbore Rifle: 200 yd/mtr'],['Muzzle Loading Events'],#
4587,Mt. Shasta Rod and Gun Club,PO Box 281,CA,MT SHASTA,96067,(530) 926-2319,Non-NSSF,"['Public', 'Outdoor', ""Gun/Sportsman's Club"", 'Members Only', 'Memberships Available']",[],"['Handguns', 'Rifles', 'Shotguns']","['Handgun/Smallbore Rifle: 300 yd/mtr', 'Center-Fire Rifle: 300 yd/mtr']","['3D Archery', 'Rifle Metallic Silhouette']",http://www.mtshastagunclub.com/
3403,Sierra Sportsmen Club,Rice Cyn Road,CA,Susanville,96130-1807,(530) 257-3402,Non-NSSF,"['Public', 'Outdoor', ""Gun/Sportsman's Club"", 'Handicap accessible', 'Members Only', 'Memberships Available']","['Instruction Available', ""Women's Programs""]","['Handguns', 'Rifles', 'Shotguns']","['Handgun/Smallbore Rifle: 100 yd/mtr', 'Center-Fire Rifle: 500 yd/mtr']","['Cowboy Action Shooting', 'Handgun Metallic Silhouette', 'Muzzle Loading Events', 'Precision Pistol', 'Rifle Metallic Silhouette', 'Smallbore']",http://www.sierrasportsmen.com
1924,Humboldt Trap & Skeet Club,3561 Boeing Ave Arcata-Eureka Airport,CA,McKinleyville,95519,(707) 839-3788,Non-NSSF,"['Public', 'Outdoor', ""Gun/Sportsman's Club"", 'Public Access']","['Clubhouse/Lounge/Lodge', 'Food Service/Snacks', 'Hunter Education', 'Retail Store']",['Shotguns'],[],"['Skeet Competition', 'Trap Competition']",https://www.facebook.com/pages/Humboldt-Trap-Skeet-Club/175774035766536
5562,Redwood Gun Club,Young Lane,CA,Manilla,95521,(707) 253-1230,Non-NSSF,"['Public', 'Outdoor', ""Gun/Sportsman's Club"", 'Handicap accessible', 'Public Access', 'Memberships Available', 'Host Events Open To Public/Non-Members']","[""Women's Programs""]","['Handguns', 'Rifles', 'Shotguns']","['Handgun/Smallbore Rifle: 200 yd/mtr', 'Center-Fire Rifle: 200 yd/mtr']","['Airgun', 'Bench Rest', 'Hi-Power Rifle Matches', 'Precision Pistol']",http://redwoodgunclub.org
3272,"Del Norte Rod and Gun Club, Inc",1000 Rowdy Creek Road,CA,Smith River,95535,(707) 464-6552,Non-NSSF,"['Private', 'Outdoor', ""Gun/Sportsman's Club"", 'Handicap accessible', 'Public Access', 'Memberships Available']","['Camper/RV Sites', 'Clubhouse/Lounge/Lodge', 'Equipment Rentals', 'Food Service/Snacks', 'Hunter Education', 'Instruction Available', 'Junior Rifle', 'Picnic Area']","['Handguns', 'Shotguns']",['Handgun/Smallbore Rifle: 200 yd/mtr'],"['Muzzle Loading Events', 'Skeet Competition', 'Smallbore', 'Trap Competition']",http://www.delnorterodandgunclub.com
